RestaurantID,Name,CuisineType,Pricing_for_2,Restaurant_Phone,OperatingHours,LocationID,ActiveFlag,OpenStatus,Locality,Restaurant_Address,Ratings,Coupons,Latitude,Longitude,CreatedDate,ModifiedDate
1026,Khandeshi Spice Delight,Lebanese,1717,9202624416,11:00 - 19:00,15,True,Open,Sachdev Road,"Third Floor, Sachdev Road, Indore - 466778",3.5,"[{""code"": ""SPECIAL_1026"", ""min_amount"": 814, ""discount_amount"": 139, ""description"": ""\u20b9150 off on orders above \u20b9800"", ""payment_method"": null}, {""code"": ""FIRSTORDER_1026"", ""min_amount"": 275, ""discount_amount"": 80, ""description"": ""\u20b975 off on your first order above \u20b9300"", ""payment_method"": null}, {""code"": ""WEEKEND_1026"", ""min_amount"": 984, ""discount_amount"": 189, ""description"": ""\u20b9200 off on orders above \u20b91000"", ""payment_method"": null}, {""code"": ""CREDITCARD_1026"", ""min_amount"": 802, ""discount_amount"": 150, ""description"": ""\u20b9150 off on orders above \u20b9750 with Credit Card"", ""payment_method"": ""CreditCard""}]",20.33864373287312,69.74687660145322,2022-07-30 11:27:45,2023-02-13 05:48:28
2408,Beijing Bowl,"Burger, Bakery",1354,9145587212,21:00 - 06:00,36,True,Open,Basak Marg,"Third Floor, Basak Marg, Porbandar - 789514",3.8,"[{""code"": ""CASHBACK_2408"", ""min_amount"": 547, ""discount_amount"": 82, ""description"": ""\u20b975 off on Cash payments above \u20b9500"", ""payment_method"": ""Cash""}, {""code"": ""WELCOME_2408"", ""min_amount"": 507, ""discount_amount"": 92, ""description"": ""\u20b9100 off on orders above \u20b9500"", ""payment_method"": null}, {""code"": ""SPECIAL_2408"", ""min_amount"": 827, ""discount_amount"": 156, ""description"": ""\u20b9150 off on orders above \u20b9800"", ""payment_method"": null}, {""code"": ""UPISAVE_2408"", ""min_amount"": 438, ""discount_amount"": 72, ""description"": ""\u20b980 off on orders above \u20b9400 with UPI"", ""payment_method"": ""UPI""}, {""code"": ""DEBITCARD_2408"", ""min_amount"": 565, ""discount_amount"": 96, ""description"": ""\u20b9100 off on orders above \u20b9600 with Debit Card"", ""payment_method"": ""DebitCard""}]",22.655464544402435,82.73700922077822,2024-05-11 07:53:33,2024-12-25 16:12:30
451,Ponk Treats,"Fast Food, Desserts, South Indian",449,9422040680,15:00 - 02:00,7,True,Open,Dass Street," Dass Street, Pune - 208246",3.9,"[{""code"": ""SPECIAL_451"", ""min_amount"": 723, ""discount_amount"": 139, ""description"": ""\u20b9150 off on orders above \u20b9800"", ""payment_method"": null}, {""code"": ""DEBITCARD_451"", ""min_amount"": 629, ""discount_amount"": 94, ""description"": ""\u20b9100 off on orders above \u20b9600 with Debit Card"", ""payment_method"": ""DebitCard""}, {""code"": ""CASHBACK_451"", ""min_amount"": 501, ""discount_amount"": 77, ""description"": ""\u20b975 off on Cash payments above \u20b9500"", ""payment_method"": ""Cash""}, {""code"": ""CREDITCARD_451"", ""min_amount"": 705, ""discount_amount"": 149, ""description"": ""\u20b9150 off on orders above \u20b9750 with Credit Card"", ""payment_method"": ""CreditCard""}]",15.999928545901511,86.194299631951,2024-01-15 13:29:58,2024-10-25 23:44:34
2596,Thepla Delight,"Beverages, Chinese, Italian",1945,9361898168,01:00 - 13:00,38,True,Open,Sharma Ganj,"Ground Floor, Sharma Ganj, Kota - 874544",3.8,"[{""code"": ""WELCOME_2596"", ""min_amount"": 531, ""discount_amount"": 90, ""description"": ""\u20b9100 off on orders above \u20b9500"", ""payment_method"": null}, {""code"": ""CREDITCARD_2596"", ""min_amount"": 771, ""discount_amount"": 162, ""description"": ""\u20b9150 off on orders above \u20b9750 with Credit Card"", ""payment_method"": ""CreditCard""}, {""code"": ""UPISAVE_2596"", ""min_amount"": 379, ""discount_amount"": 72, ""description"": ""\u20b980 off on orders above \u20b9400 with UPI"", ""payment_method"": ""UPI""}, {""code"": ""CASHBACK_2596"", ""min_amount"": 530, ""discount_amount"": 75, ""description"": ""\u20b975 off on Cash payments above \u20b9500"", ""payment_method"": ""Cash""}, {""code"": ""FIRSTORDER_2596"", ""min_amount"": 301, ""discount_amount"": 76, ""description"": ""\u20b975 off on your first order above \u20b9300"", ""payment_method"": null}]",28.555410445204032,85.61954357174416,2023-02-25 18:17:40,2024-02-22 22:47:21
440,Andhra Spice,"Japanese, Bakery, Cafe",1262,9565537242,10:00 - 21:00,7,True,Open,Sandal Road,"Ground Floor, Sandal Road, Pune - 208246",3.8,"[{""code"": ""FIRSTORDER_440"", ""min_amount"": 301, ""discount_amount"": 71, ""description"": ""\u20b975 off on your first order above \u20b9300"", ""payment_method"": null}, {""code"": ""FESTIVAL_440"", ""min_amount"": 1614, ""discount_amount"": 311, ""description"": ""\u20b9300 off on orders above \u20b91500"", ""payment_method"": null}, {""code"": ""WELCOME_440"", ""min_amount"": 490, ""discount_amount"": 97, ""description"": ""\u20b9100 off on orders above \u20b9500"", ""payment_method"": null}]",14.811729125406494,70.21708336214661,2022-12-21 21:45:34,2024-07-05 11:21:30
1386,Chowmein Express,"Street Food, Continental",1410,9946595695,21:00 - 09:00,20,True,Open,Wable Ganj,"Second Floor, Wable Ganj, Thane - 387370",4.2,"[{""code"": ""FESTIVAL_1386"", ""min_amount"": 1588, ""discount_amount"": 321, ""description"": ""\u20b9300 off on orders above \u20b91500"", ""payment_method"": null}, {""code"": ""SPECIAL_1386"", ""min_amount"": 735, ""discount_amount"": 138, ""description"": ""\u20b9150 off on orders above \u20b9800"", ""payment_method"": null}, {""code"": ""FIRSTORDER_1386"", ""min_amount"": 321, ""discount_amount"": 70, ""description"": ""\u20b975 off on your first order above \u20b9300"", ""payment_method"": null}]",29.068557037947592,77.60441676261543,2025-04-16 11:23:37,2025-04-21 18:35:55
1908,Zaika Junction,South Indian,1307,9800240146,06:00 - 16:00,28,True,Open,Reddy Marg," Reddy Marg, Aurangabad - 803384",3.7,"[{""code"": ""WEEKEND_1908"", ""min_amount"": 932, ""discount_amount"": 180, ""description"": ""\u20b9200 off on orders above \u20b91000"", ""payment_method"": null}, {""code"": ""WELCOME_1908"", ""min_amount"": 474, ""discount_amount"": 97, ""description"": ""\u20b9100 off on orders above \u20b9500"", ""payment_method"": null}, {""code"": ""UPISAVE_1908"", ""min_amount"": 362, ""discount_amount"": 82, ""description"": ""\u20b980 off on orders above \u20b9400 with UPI"", ""payment_method"": ""UPI""}, {""code"": ""CREDITCARD_1908"", ""min_amount"": 734, ""discount_amount"": 147, ""description"": ""\u20b9150 off on orders above \u20b9750 with Credit Card"", ""payment_method"": ""CreditCard""}, {""code"": ""FIRSTORDER_1908"", ""min_amount"": 295, ""discount_amount"": 68, ""description"": ""\u20b975 off on your first order above \u20b9300"", ""payment_method"": null}]",26.37969337170091,94.30173914112603,2022-01-21 19:04:27,2022-09-27 09:02:47
1830,Udupi Bhavan,"Cafe, Continental, North Indian",1110,9449150342,15:00 - 00:00,27,True,Open,Golla Street,"Second Floor, Golla Street, Srinagar - 848797",3.8,"[{""code"": ""FIRSTORDER_1830"", ""min_amount"": 292, ""discount_amount"": 71, ""description"": ""\u20b975 off on your first order above \u20b9300"", ""payment_method"": null}, {""code"": ""SPECIAL_1830"", ""min_amount"": 875, ""discount_amount"": 152, ""description"": ""\u20b9150 off on orders above \u20b9800"", ""payment_method"": null}, {""code"": ""CASHBACK_1830"", ""min_amount"": 547, ""discount_amount"": 78, ""description"": ""\u20b975 off on Cash payments above \u20b9500"", ""payment_method"": ""Cash""}, {""code"": ""CREDITCARD_1830"", ""min_amount"": 732, ""discount_amount"": 153, ""description"": ""\u20b9150 off on orders above \u20b9750 with Credit Card"", ""payment_method"": ""CreditCard""}, {""code"": ""DEBITCARD_1830"", ""min_amount"": 620, ""discount_amount"": 101, ""description"": ""\u20b9100 off on orders above \u20b9600 with Debit Card"", ""payment_method"": ""DebitCard""}]",33.54456861771202,77.25889826505473,2024-06-12 15:14:46,2025-04-04 07:09:02
1062,Urban Feast,Continental,254,9941548925,18:00 - 07:00,15,False,Closed,Goel Marg,"Third Floor, Goel Marg, Indore - 466778",3.9,"[{""code"": ""WELCOME_1062"", ""min_amount"": 474, ""discount_amount"": 103, ""description"": ""\u20b9100 off on orders above \u20b9500"", ""payment_method"": null}, {""code"": ""WEEKEND_1062"", ""min_amount"": 978, ""discount_amount"": 205, ""description"": ""\u20b9200 off on orders above \u20b91000"", ""payment_method"": null}, {""code"": ""SPECIAL_1062"", ""min_amount"": 828, ""discount_amount"": 148, ""description"": ""\u20b9150 off on orders above \u20b9800"", ""payment_method"": null}]",24.385247355732076,80.3135535285269,2021-11-07 18:51:10,2025-03-12 10:37:56
1294,Appam & Stew,Mediterranean,1758,9917924997,03:00 - 19:00,19,True,Open,Kumer Marg,"Second Floor, Kumer Marg, Vadodara - 998662",3.8,"[{""code"": ""FIRSTORDER_1294"", ""min_amount"": 275, ""discount_amount"": 76, ""description"": ""\u20b975 off on your first order above \u20b9300"", ""payment_method"": null}, {""code"": ""SPECIAL_1294"", ""min_amount"": 876, ""discount_amount"": 151, ""description"": ""\u20b9150 off on orders above \u20b9800"", ""payment_method"": null}, {""code"": ""DEBITCARD_1294"", ""min_amount"": 571, ""discount_amount"": 90, ""description"": ""\u20b9100 off on orders above \u20b9600 with Debit Card"", ""payment_method"": ""DebitCard""}, {""code"": ""FESTIVAL_1294"", ""min_amount"": 1481, ""discount_amount"": 325, ""description"": ""\u20b9300 off on orders above \u20b91500"", ""payment_method"": null}, {""code"": ""WELCOME_1294"", ""min_amount"": 461, ""discount_amount"": 90, ""description"": ""\u20b9100 off on orders above \u20b9500"", ""payment_method"": null}]",15.356093796365432,79.35145223172587,2024-07-23 04:11:25,2024-10-08 21:33:48
808,Shivneri Bhojanalay,"Ice Cream, Thai",1343,9827750968,19:00 - 04:00,12,False,Closed,Balakrishnan Road,"Third Floor, Balakrishnan Road, Bhopal - 727889",3.8,"[{""code"": ""FIRSTORDER_808"", ""min_amount"": 298, ""discount_amount"": 72, ""description"": ""\u20b975 off on your first order above \u20b9300"", ""payment_method"": null}, {""code"": ""CASHBACK_808"", ""min_amount"": 525, ""discount_amount"": 69, ""description"": ""\u20b975 off on Cash payments above \u20b9500"", ""payment_method"": ""Cash""}, {""code"": ""DEBITCARD_808"", ""min_amount"": 565, ""discount_amount"": 109, ""description"": ""\u20b9100 off on orders above \u20b9600 with Debit Card"", ""payment_method"": ""DebitCard""}, {""code"": ""FESTIVAL_808"", ""min_amount"": 1415, ""discount_amount"": 311, ""description"": ""\u20b9300 off on orders above \u20b91500"", ""payment_method"": null}]",27.853642719817685,92.73380440953464,2024-03-15 19:16:05,2024-07-10 11:17:03
804,White Marble,"Mughlai, Beverages",585,9309357320,14:00 - 02:00,12,True,Open,Batta Chowk,"Ground Floor, Batta Chowk, Bhopal - 727889",3.9,"[{""code"": ""CREDITCARD_804"", ""min_amount"": 684, ""discount_amount"": 162, ""description"": ""\u20b9150 off on orders above \u20b9750 with Credit Card"", ""payment_method"": ""CreditCard""}, {""code"": ""WEEKEND_804"", ""min_amount"": 973, ""discount_amount"": 205, ""description"": ""\u20b9200 off on orders above \u20b91000"", ""payment_method"": null}, {""code"": ""DEBITCARD_804"", ""min_amount"": 618, ""discount_amount"": 90, ""description"": ""\u20b9100 off on orders above \u20b9600 with Debit Card"", ""payment_method"": ""DebitCard""}, {""code"": ""FESTIVAL_804"", ""min_amount"": 1357, ""discount_amount"": 279, ""description"": ""\u20b9300 off on orders above \u20b91500"", ""payment_method"": null}, {""code"": ""FIRSTORDER_804"", ""min_amount"": 321, ""discount_amount"": 70, ""description"": ""\u20b975 off on your first order above \u20b9300"", ""payment_method"": null}]",27.25460052609828,70.03161030790777,2024-04-19 17:37:23,2025-01-18 08:59:50
1034,Biryani Mahal,"Bakery, Chinese, Italian",1006,9939248992,19:00 - 10:00,15,True,Open,Ravi Road,"Ground Floor, Ravi Road, Indore - 466778",3.8,"[{""code"": ""UPISAVE_1034"", ""min_amount"": 364, ""discount_amount"": 83, ""description"": ""\u20b980 off on orders above \u20b9400 with UPI"", ""payment_method"": ""UPI""}, {""code"": ""WEEKEND_1034"", ""min_amount"": 1055, ""discount_amount"": 210, ""description"": ""\u20b9200 off on orders above \u20b91000"", ""payment_method"": null}, {""code"": ""FESTIVAL_1034"", ""min_amount"": 1632, ""discount_amount"": 286, ""description"": ""\u20b9300 off on orders above \u20b91500"", ""payment_method"": null}]",9.253426378588522,69.36011676149282,2023-10-19 01:56:39,2024-08-17 09:23:06
1162,The Test Kitchen,"Desserts, Continental, North Indian",1283,9307825676,21:00 - 06:00,17,True,Open,Goel Circle,"Ground Floor, Goel Circle, Nagpur - 462944",3.9,"[{""code"": ""CREDITCARD_1162"", ""min_amount"": 789, ""discount_amount"": 151, ""description"": ""\u20b9150 off on orders above \u20b9750 with Credit Card"", ""payment_method"": ""CreditCard""}, {""code"": ""UPISAVE_1162"", ""min_amount"": 396, ""discount_amount"": 83, ""description"": ""\u20b980 off on orders above \u20b9400 with UPI"", ""payment_method"": ""UPI""}, {""code"": ""SPECIAL_1162"", ""min_amount"": 745, ""discount_amount"": 135, ""description"": ""\u20b9150 off on orders above \u20b9800"", ""payment_method"": null}]",8.724774969232605,84.93647249287191,2024-04-10 21:29:37,2025-04-18 10:14:26
2114,Bambaiya Zaika,"Cafe, Bakery, Ice Cream",400,9546015046,20:00 - 11:00,30,True,Open,Natt Zila,"Ground Floor, Natt Zila, Amritsar - 354098",3.7,"[{""code"": ""WEEKEND_2114"", ""min_amount"": 903, ""discount_amount"": 208, ""description"": ""\u20b9200 off on orders above \u20b91000"", ""payment_method"": null}, {""code"": ""CREDITCARD_2114"", ""min_amount"": 804, ""discount_amount"": 140, ""description"": ""\u20b9150 off on orders above \u20b9750 with Credit Card"", ""payment_method"": ""CreditCard""}, {""code"": ""FIRSTORDER_2114"", ""min_amount"": 287, ""discount_amount"": 69, ""description"": ""\u20b975 off on your first order above \u20b9300"", ""payment_method"": null}, {""code"": ""DEBITCARD_2114"", ""min_amount"": 631, ""discount_amount"": 99, ""description"": ""\u20b9100 off on orders above \u20b9600 with Debit Card"", ""payment_method"": ""DebitCard""}]",31.85121626972726,69.68178432825718,2023-05-27 14:40:44,2023-09-26 11:10:32
1240,Delhi Belly Express,"Ice Cream, Continental, Japanese",1299,9684351597,19:00 - 04:00,18,True,Open,Sankaran Marg,"First Floor, Sankaran Marg, Patna - 508382",3.8,"[{""code"": ""FIRSTORDER_1240"", ""min_amount"": 283, ""discount_amount"": 68, ""description"": ""\u20b975 off on your first order above \u20b9300"", ""payment_method"": null}, {""code"": ""CREDITCARD_1240"", ""min_amount"": 800, ""discount_amount"": 138, ""description"": ""\u20b9150 off on orders above \u20b9750 with Credit Card"", ""payment_method"": ""CreditCard""}, {""code"": ""WELCOME_1240"", ""min_amount"": 503, ""discount_amount"": 103, ""description"": ""\u20b9100 off on orders above \u20b9500"", ""payment_method"": null}]",33.754545192982945,75.4008410684077,2025-03-23 03:18:32,2025-04-10 16:30:48
1764,Ocha & Sake,"North Indian, Bakery",1825,9481217887,17:00 - 06:00,26,True,Open,Patla Circle," Patla Circle, Varanasi - 489201",3.8,"[{""code"": ""DEBITCARD_1764"", ""min_amount"": 618, ""discount_amount"": 106, ""description"": ""\u20b9100 off on orders above \u20b9600 with Debit Card"", ""payment_method"": ""DebitCard""}, {""code"": ""FESTIVAL_1764"", ""min_amount"": 1474, ""discount_amount"": 272, ""description"": ""\u20b9300 off on orders above \u20b91500"", ""payment_method"": null}, {""code"": ""CASHBACK_1764"", ""min_amount"": 480, ""discount_amount"": 71, ""description"": ""\u20b975 off on Cash payments above \u20b9500"", ""payment_method"": ""Cash""}, {""code"": ""CREDITCARD_1764"", ""min_amount"": 741, ""discount_amount"": 163, ""description"": ""\u20b9150 off on orders above \u20b9750 with Credit Card"", ""payment_method"": ""CreditCard""}, {""code"": ""FIRSTORDER_1764"", ""min_amount"": 325, ""discount_amount"": 82, ""description"": ""\u20b975 off on your first order above \u20b9300"", ""payment_method"": null}]",11.80985802981117,86.63941291756649,2024-08-26 11:42:36,2025-02-19 05:21:56
1789,Tokyo Ember,"Japanese, Lebanese, Fast Food",1486,9930273877,14:00 - 23:00,26,True,Open,Dewan Nagar,"First Floor, Dewan Nagar, Varanasi - 489201",3.8,"[{""code"": ""WEEKEND_1789"", ""min_amount"": 982, ""discount_amount"": 209, ""description"": ""\u20b9200 off on orders above \u20b91000"", ""payment_method"": null}, {""code"": ""WELCOME_1789"", ""min_amount"": 535, ""discount_amount"": 100, ""description"": ""\u20b9100 off on orders above \u20b9500"", ""payment_method"": null}, {""code"": ""FIRSTORDER_1789"", ""min_amount"": 278, ""discount_amount"": 74, ""description"": ""\u20b975 off on your first order above \u20b9300"", ""payment_method"": null}, {""code"": ""SPECIAL_1789"", ""min_amount"": 825, ""discount_amount"": 158, ""description"": ""\u20b9150 off on orders above \u20b9800"", ""payment_method"": null}]",27.9982519522822,73.4156601262913,2023-05-08 15:32:39,2024-10-04 09:07:19
841,Ambrosia Fusion,"Thai, Mughlai",1266,9451427352,21:00 - 11:00,12,True,Open,Puri Chowk,"Second Floor, Puri Chowk, Bhopal - 727889",4.2,"[{""code"": ""SPECIAL_841"", ""min_amount"": 754, ""discount_amount"": 154, ""description"": ""\u20b9150 off on orders above \u20b9800"", ""payment_method"": null}, {""code"": ""DEBITCARD_841"", ""min_amount"": 553, ""discount_amount"": 92, ""description"": ""\u20b9100 off on orders above \u20b9600 with Debit Card"", ""payment_method"": ""DebitCard""}, {""code"": ""CREDITCARD_841"", ""min_amount"": 814, ""discount_amount"": 159, ""description"": ""\u20b9150 off on orders above \u20b9750 with Credit Card"", ""payment_method"": ""CreditCard""}, {""code"": ""CASHBACK_841"", ""min_amount"": 467, ""discount_amount"": 70, ""description"": ""\u20b975 off on Cash payments above \u20b9500"", ""payment_method"": ""Cash""}]",36.01536211528119,80.09989480772671,2025-04-20 07:16:03,2025-04-20 17:15:11
1718,Rasam Rasoi,Desserts,923,9163999970,10:00 - 20:00,25,True,Open,Ravi Zila,"Third Floor, Ravi Zila, Rajkot - 758564",3.8,"[{""code"": ""FIRSTORDER_1718"", ""min_amount"": 308, ""discount_amount"": 69, ""description"": ""\u20b975 off on your first order above \u20b9300"", ""payment_method"": null}, {""code"": ""UPISAVE_1718"", ""min_amount"": 434, ""discount_amount"": 87, ""description"": ""\u20b980 off on orders above \u20b9400 with UPI"", ""payment_method"": ""UPI""}, {""code"": ""CASHBACK_1718"", ""min_amount"": 460, ""discount_amount"": 79, ""description"": ""\u20b975 off on Cash payments above \u20b9500"", ""payment_method"": ""Cash""}]",35.05519606526732,87.34376001942547,2023-10-08 01:52:37,2025-04-06 11:00:52
2231,Vesuvio Kitchen,Japanese,565,9179131837,11:00 - 00:00,33,True,Open,Dass Road,"Second Floor, Dass Road, Anand - 280555",4.3,"[{""code"": ""FIRSTORDER_2231"", ""min_amount"": 323, ""discount_amount"": 82, ""description"": ""\u20b975 off on your first order above \u20b9300"", ""payment_method"": null}, {""code"": ""FESTIVAL_2231"", ""min_amount"": 1518, ""discount_amount"": 277, ""description"": ""\u20b9300 off on orders above \u20b91500"", ""payment_method"": null}, {""code"": ""CASHBACK_2231"", ""min_amount"": 465, ""discount_amount"": 80, ""description"": ""\u20b975 off on Cash payments above \u20b9500"", ""payment_method"": ""Cash""}, {""code"": ""UPISAVE_2231"", ""min_amount"": 377, ""discount_amount"": 81, ""description"": ""\u20b980 off on orders above \u20b9400 with UPI"", ""payment_method"": ""UPI""}]",28.136208732761084,90.33642715637126,2025-04-22 05:01:34,2025-04-22 16:27:55
1766,Experimental Dish,Cafe,729,9386814201,00:00 - 13:00,26,True,Open,Bali,"Second Floor, Bali, Varanasi - 489201",3.9,"[{""code"": ""UPISAVE_1766"", ""min_amount"": 376, ""discount_amount"": 85, ""description"": ""\u20b980 off on orders above \u20b9400 with UPI"", ""payment_method"": ""UPI""}, {""code"": ""DEBITCARD_1766"", ""min_amount"": 622, ""discount_amount"": 109, ""description"": ""\u20b9100 off on orders above \u20b9600 with Debit Card"", ""payment_method"": ""DebitCard""}, {""code"": ""CASHBACK_1766"", ""min_amount"": 450, ""discount_amount"": 81, ""description"": ""\u20b975 off on Cash payments above \u20b9500"", ""payment_method"": ""Cash""}, {""code"": ""CREDITCARD_1766"", ""min_amount"": 725, ""discount_amount"": 164, ""description"": ""\u20b9150 off on orders above \u20b9750 with Credit Card"", ""payment_method"": ""CreditCard""}, {""code"": ""FESTIVAL_1766"", ""min_amount"": 1619, ""discount_amount"": 327, ""description"": ""\u20b9300 off on orders above \u20b91500"", ""payment_method"": null}]",29.790835871066164,88.95675990211157,2024-11-10 15:27:43,2025-01-07 14:05:04
2148,Wokland,"Bakery, Fast Food",1219,9234161204,19:00 - 05:00,31,True,Open,Borah Ganj,"Ground Floor, Borah Ganj, Surat - 508591",3.9,"[{""code"": ""FESTIVAL_2148"", ""min_amount"": 1583, ""discount_amount"": 294, ""description"": ""\u20b9300 off on orders above \u20b91500"", ""payment_method"": null}, {""code"": ""WEEKEND_2148"", ""min_amount"": 985, ""discount_amount"": 209, ""description"": ""\u20b9200 off on orders above \u20b91000"", ""payment_method"": null}, {""code"": ""WELCOME_2148"", ""min_amount"": 531, ""discount_amount"": 95, ""description"": ""\u20b9100 off on orders above \u20b9500"", ""payment_method"": null}, {""code"": ""SPECIAL_2148"", ""min_amount"": 802, ""discount_amount"": 140, ""description"": ""\u20b9150 off on orders above \u20b9800"", ""payment_method"": null}, {""code"": ""DEBITCARD_2148"", ""min_amount"": 601, ""discount_amount"": 99, ""description"": ""\u20b9100 off on orders above \u20b9600 with Debit Card"", ""payment_method"": ""DebitCard""}]",12.913488555592822,80.13769842589119,2024-12-17 22:27:57,2025-01-03 18:03:50
1704,Shahi Rasoi,"Desserts, Mexican, Ice Cream",645,9533201061,11:00 - 21:00,25,True,Open,Gade Zila,"Second Floor, Gade Zila, Rajkot - 758564",3.7,"[{""code"": ""SPECIAL_1704"", ""min_amount"": 757, ""discount_amount"": 136, ""description"": ""\u20b9150 off on orders above \u20b9800"", ""payment_method"": null}, {""code"": ""UPISAVE_1704"", ""min_amount"": 421, ""discount_amount"": 76, ""description"": ""\u20b980 off on orders above \u20b9400 with UPI"", ""payment_method"": ""UPI""}, {""code"": ""WELCOME_1704"", ""min_amount"": 514, ""discount_amount"": 93, ""description"": ""\u20b9100 off on orders above \u20b9500"", ""payment_method"": null}, {""code"": ""FIRSTORDER_1704"", ""min_amount"": 286, ""discount_amount"": 77, ""description"": ""\u20b975 off on your first order above \u20b9300"", ""payment_method"": null}, {""code"": ""CASHBACK_1704"", ""min_amount"": 528, ""discount_amount"": 76, ""description"": ""\u20b975 off on Cash payments above \u20b9500"", ""payment_method"": ""Cash""}]",18.99434296709342,90.71820088744263,2024-11-13 19:21:17,2024-12-30 12:45:43
2261,Aamras Thali,Fast Food,1410,9540460629,11:00 - 19:00,33,True,Open,Vyas Path,"Second Floor, Vyas Path, Anand - 280555",3.5,"[{""code"": ""CREDITCARD_2261"", ""min_amount"": 717, ""discount_amount"": 160, ""description"": ""\u20b9150 off on orders above \u20b9750 with Credit Card"", ""payment_method"": ""CreditCard""}, {""code"": ""WELCOME_2261"", ""min_amount"": 467, ""discount_amount"": 91, ""description"": ""\u20b9100 off on orders above \u20b9500"", ""payment_method"": null}, {""code"": ""DEBITCARD_2261"", ""min_amount"": 640, ""discount_amount"": 93, ""description"": ""\u20b9100 off on orders above \u20b9600 with Debit Card"", ""payment_method"": ""DebitCard""}, {""code"": ""WEEKEND_2261"", ""min_amount"": 1011, ""discount_amount"": 206, ""description"": ""\u20b9200 off on orders above \u20b91000"", ""payment_method"": null}]",37.47464411883028,97.2123482162358,2025-02-26 06:40:54,2025-04-01 17:09:47
1916,Puran Poli Junction,"Street Food, South Indian, Cafe",1347,9633123566,12:00 - 23:00,28,True,Open,Sekhon Street," Sekhon Street, Aurangabad - 803384",3.7,"[{""code"": ""FESTIVAL_1916"", ""min_amount"": 1397, ""discount_amount"": 293, ""description"": ""\u20b9300 off on orders above \u20b91500"", ""payment_method"": null}, {""code"": ""WEEKEND_1916"", ""min_amount"": 905, ""discount_amount"": 193, ""description"": ""\u20b9200 off on orders above \u20b91000"", ""payment_method"": null}, {""code"": ""CREDITCARD_1916"", ""min_amount"": 729, ""discount_amount"": 156, ""description"": ""\u20b9150 off on orders above \u20b9750 with Credit Card"", ""payment_method"": ""CreditCard""}, {""code"": ""FIRSTORDER_1916"", ""min_amount"": 312, ""discount_amount"": 81, ""description"": ""\u20b975 off on your first order above \u20b9300"", ""payment_method"": null}]",9.1875776767333,69.7833492241724,2022-01-12 02:12:14,2022-07-25 21:06:48
2259,Hunan House,Continental,1414,9927186203,17:00 - 06:00,33,True,Open,Nanda Street,"Ground Floor, Nanda Street, Anand - 280555",3.8,"[{""code"": ""DEBITCARD_2259"", ""min_amount"": 542, ""discount_amount"": 98, ""description"": ""\u20b9100 off on orders above \u20b9600 with Debit Card"", ""payment_method"": ""DebitCard""}, {""code"": ""CREDITCARD_2259"", ""min_amount"": 798, ""discount_amount"": 146, ""description"": ""\u20b9150 off on orders above \u20b9750 with Credit Card"", ""payment_method"": ""CreditCard""}, {""code"": ""FESTIVAL_2259"", ""min_amount"": 1369, ""discount_amount"": 310, ""description"": ""\u20b9300 off on orders above \u20b91500"", ""payment_method"": null}, {""code"": ""WEEKEND_2259"", ""min_amount"": 1094, ""discount_amount"": 202, ""description"": ""\u20b9200 off on orders above \u20b91000"", ""payment_method"": null}, {""code"": ""SPECIAL_2259"", ""min_amount"": 767, ""discount_amount"": 151, ""description"": ""\u20b9150 off on orders above \u20b9800"", ""payment_method"": null}]",17.294029628242388,88.29383001572812,2025-02-10 07:10:02,2025-04-04 09:50:12
2505,Toast & Tonic,"Mediterranean, Chinese",1944,9547013688,00:00 - 16:00,37,True,Open,Char Circle,"Second Floor, Char Circle, Himatnagar - 775822",3.9,"[{""code"": ""WELCOME_2505"", ""min_amount"": 480, ""discount_amount"": 95, ""description"": ""\u20b9100 off on orders above \u20b9500"", ""payment_method"": null}, {""code"": ""CREDITCARD_2505"", ""min_amount"": 787, ""discount_amount"": 162, ""description"": ""\u20b9150 off on orders above \u20b9750 with Credit Card"", ""payment_method"": ""CreditCard""}, {""code"": ""SPECIAL_2505"", ""min_amount"": 875, ""discount_amount"": 161, ""description"": ""\u20b9150 off on orders above \u20b9800"", ""payment_method"": null}]",29.992935924958964,95.66938578911504,2022-09-01 08:59:19,2024-09-09 14:01:36
2706,Idli Express,"Mexican, Italian",887,9768759506,17:00 - 07:00,39,True,Open,Wadhwa Circle," Wadhwa Circle, Vijayawada - 594714",3.7,"[{""code"": ""FESTIVAL_2706"", ""min_amount"": 1605, ""discount_amount"": 323, ""description"": ""\u20b9300 off on orders above \u20b91500"", ""payment_method"": null}, {""code"": ""FIRSTORDER_2706"", ""min_amount"": 327, ""discount_amount"": 72, ""description"": ""\u20b975 off on your first order above \u20b9300"", ""payment_method"": null}, {""code"": ""UPISAVE_2706"", ""min_amount"": 393, ""discount_amount"": 81, ""description"": ""\u20b980 off on orders above \u20b9400 with UPI"", ""payment_method"": ""UPI""}]",29.43629192162017,71.74572996421556,2023-07-04 17:22:39,2024-06-22 07:56:18
2280,Kutchhi Rasoi Express,"Beverages, Mediterranean",743,9417067592,18:00 - 10:00,34,True,Open,Bir," Bir, Nadiad - 329684",3.9,"[{""code"": ""UPISAVE_2280"", ""min_amount"": 368, ""discount_amount"": 86, ""description"": ""\u20b980 off on orders above \u20b9400 with UPI"", ""payment_method"": ""UPI""}, {""code"": ""CREDITCARD_2280"", ""min_amount"": 691, ""discount_amount"": 152, ""description"": ""\u20b9150 off on orders above \u20b9750 with Credit Card"", ""payment_method"": ""CreditCard""}, {""code"": ""DEBITCARD_2280"", ""min_amount"": 603, ""discount_amount"": 91, ""description"": ""\u20b9100 off on orders above \u20b9600 with Debit Card"", ""payment_method"": ""DebitCard""}, {""code"": ""WELCOME_2280"", ""min_amount"": 542, ""discount_amount"": 106, ""description"": ""\u20b9100 off on orders above \u20b9500"", ""payment_method"": null}]",23.95951485373447,92.14402363793108,2023-05-03 12:15:15,2023-10-23 21:11:57
1602,Savant Bites,"Desserts, Cafe",1077,9336050892,14:00 - 01:00,24,True,Open,Chaudhuri Circle,"Third Floor, Chaudhuri Circle, Meerut - 417419",3.8,"[{""code"": ""FESTIVAL_1602"", ""min_amount"": 1350, ""discount_amount"": 308, ""description"": ""\u20b9300 off on orders above \u20b91500"", ""payment_method"": null}, {""code"": ""DEBITCARD_1602"", ""min_amount"": 609, ""discount_amount"": 103, ""description"": ""\u20b9100 off on orders above \u20b9600 with Debit Card"", ""payment_method"": ""DebitCard""}, {""code"": ""WEEKEND_1602"", ""min_amount"": 969, ""discount_amount"": 206, ""description"": ""\u20b9200 off on orders above \u20b91000"", ""payment_method"": null}, {""code"": ""CASHBACK_1602"", ""min_amount"": 482, ""discount_amount"": 79, ""description"": ""\u20b975 off on Cash payments above \u20b9500"", ""payment_method"": ""Cash""}, {""code"": ""CREDITCARD_1602"", ""min_amount"": 800, ""discount_amount"": 160, ""description"": ""\u20b9150 off on orders above \u20b9750 with Credit Card"", ""payment_method"": ""CreditCard""}]",14.927519719458758,90.80754372212144,2025-01-27 12:47:52,2025-03-15 01:29:23
1552,Vinyl & Vanilla,"South Indian, Thai",1800,9633191561,21:00 - 12:00,23,True,Open,Sharma Chowk," Sharma Chowk, Faridabad - 506922",3.9,"[{""code"": ""FESTIVAL_1552"", ""min_amount"": 1431, ""discount_amount"": 287, ""description"": ""\u20b9300 off on orders above \u20b91500"", ""payment_method"": null}, {""code"": ""WELCOME_1552"", ""min_amount"": 454, ""discount_amount"": 108, ""description"": ""\u20b9100 off on orders above \u20b9500"", ""payment_method"": null}, {""code"": ""CREDITCARD_1552"", ""min_amount"": 709, ""discount_amount"": 144, ""description"": ""\u20b9150 off on orders above \u20b9750 with Credit Card"", ""payment_method"": ""CreditCard""}, {""code"": ""CASHBACK_1552"", ""min_amount"": 539, ""discount_amount"": 68, ""description"": ""\u20b975 off on Cash payments above \u20b9500"", ""payment_method"": ""Cash""}, {""code"": ""DEBITCARD_1552"", ""min_amount"": 648, ""discount_amount"": 98, ""description"": ""\u20b9100 off on orders above \u20b9600 with Debit Card"", ""payment_method"": ""DebitCard""}]",22.77041455094309,89.65103361791418,2025-01-30 02:17:29,2025-03-05 00:10:30
2426,Puneri Misal Express,"Japanese, Beverages",1161,9572777105,13:00 - 04:00,36,False,Closed,Balakrishnan Path,"Third Floor, Balakrishnan Path, Porbandar - 789514",3.8,"[{""code"": ""CREDITCARD_2426"", ""min_amount"": 756, ""discount_amount"": 147, ""description"": ""\u20b9150 off on orders above \u20b9750 with Credit Card"", ""payment_method"": ""CreditCard""}, {""code"": ""SPECIAL_2426"", ""min_amount"": 748, ""discount_amount"": 157, ""description"": ""\u20b9150 off on orders above \u20b9800"", ""payment_method"": null}, {""code"": ""FESTIVAL_2426"", ""min_amount"": 1536, ""discount_amount"": 287, ""description"": ""\u20b9300 off on orders above \u20b91500"", ""payment_method"": null}, {""code"": ""UPISAVE_2426"", ""min_amount"": 408, ""discount_amount"": 81, ""description"": ""\u20b980 off on orders above \u20b9400 with UPI"", ""payment_method"": ""UPI""}]",23.588717424756588,84.78896140316279,2024-11-06 08:13:34,2025-02-08 22:42:21
2777,Azzurro Italia,"Street Food, Thai",1239,9667473610,23:00 - 12:00,40,True,Open,Reddy Marg,"Third Floor, Reddy Marg, Hubli - 781088",3.9,"[{""code"": ""SPECIAL_2777"", ""min_amount"": 843, ""discount_amount"": 160, ""description"": ""\u20b9150 off on orders above \u20b9800"", ""payment_method"": null}, {""code"": ""CASHBACK_2777"", ""min_amount"": 518, ""discount_amount"": 81, ""description"": ""\u20b975 off on Cash payments above \u20b9500"", ""payment_method"": ""Cash""}, {""code"": ""FESTIVAL_2777"", ""min_amount"": 1455, ""discount_amount"": 325, ""description"": ""\u20b9300 off on orders above \u20b91500"", ""payment_method"": null}, {""code"": ""CREDITCARD_2777"", ""min_amount"": 771, ""discount_amount"": 153, ""description"": ""\u20b9150 off on orders above \u20b9750 with Credit Card"", ""payment_method"": ""CreditCard""}]",24.6244460481649,88.33605757711504,2025-01-19 21:19:40,2025-04-15 08:34:14
2078,The Still Room,Thai,1048,9600305475,21:00 - 06:00,30,True,Open,Devan Path,"Third Floor, Devan Path, Amritsar - 354098",4.0,"[{""code"": ""FIRSTORDER_2078"", ""min_amount"": 310, ""discount_amount"": 74, ""description"": ""\u20b975 off on your first order above \u20b9300"", ""payment_method"": null}, {""code"": ""FESTIVAL_2078"", ""min_amount"": 1550, ""discount_amount"": 311, ""description"": ""\u20b9300 off on orders above \u20b91500"", ""payment_method"": null}, {""code"": ""SPECIAL_2078"", ""min_amount"": 757, ""discount_amount"": 149, ""description"": ""\u20b9150 off on orders above \u20b9800"", ""payment_method"": null}, {""code"": ""UPISAVE_2078"", ""min_amount"": 370, ""discount_amount"": 83, ""description"": ""\u20b980 off on orders above \u20b9400 with UPI"", ""payment_method"": ""UPI""}]",11.333637259430564,92.2832718231507,2024-02-14 18:05:26,2024-06-20 07:56:31
1411,Ahmedabadi Tandoor,"Japanese, Continental",1181,9298323098,18:00 - 05:00,20,True,Open,Shukla Street,"Ground Floor, Shukla Street, Thane - 387370",3.7,"[{""code"": ""FESTIVAL_1411"", ""min_amount"": 1571, ""discount_amount"": 274, ""description"": ""\u20b9300 off on orders above \u20b91500"", ""payment_method"": null}, {""code"": ""DEBITCARD_1411"", ""min_amount"": 599, ""discount_amount"": 100, ""description"": ""\u20b9100 off on orders above \u20b9600 with Debit Card"", ""payment_method"": ""DebitCard""}, {""code"": ""UPISAVE_1411"", ""min_amount"": 419, ""discount_amount"": 80, ""description"": ""\u20b980 off on orders above \u20b9400 with UPI"", ""payment_method"": ""UPI""}, {""code"": ""WEEKEND_1411"", ""min_amount"": 953, ""discount_amount"": 190, ""description"": ""\u20b9200 off on orders above \u20b91000"", ""payment_method"": null}, {""code"": ""SPECIAL_1411"", ""min_amount"": 762, ""discount_amount"": 136, ""description"": ""\u20b9150 off on orders above \u20b9800"", ""payment_method"": null}]",33.71264285139172,84.5190133840874,2024-11-28 10:11:43,2025-03-05 14:37:10
2277,Chinese Wok Hub,Mughlai,1086,9457371747,19:00 - 08:00,34,True,Open,Krishna Zila,"Third Floor, Krishna Zila, Nadiad - 329684",4.2,"[{""code"": ""WELCOME_2277"", ""min_amount"": 518, ""discount_amount"": 99, ""description"": ""\u20b9100 off on orders above \u20b9500"", ""payment_method"": null}, {""code"": ""CREDITCARD_2277"", ""min_amount"": 765, ""discount_amount"": 135, ""description"": ""\u20b9150 off on orders above \u20b9750 with Credit Card"", ""payment_method"": ""CreditCard""}, {""code"": ""FIRSTORDER_2277"", ""min_amount"": 293, ""discount_amount"": 73, ""description"": ""\u20b975 off on your first order above \u20b9300"", ""payment_method"": null}, {""code"": ""CASHBACK_2277"", ""min_amount"": 535, ""discount_amount"": 79, ""description"": ""\u20b975 off on Cash payments above \u20b9500"", ""payment_method"": ""Cash""}, {""code"": ""SPECIAL_2277"", ""min_amount"": 842, ""discount_amount"": 162, ""description"": ""\u20b9150 off on orders above \u20b9800"", ""payment_method"": null}]",24.409415851999363,69.76422440634647,2025-03-09 11:25:37,2025-03-18 09:41:47
369,Indo-Chinese Twist,"Continental, North Indian, Italian",1979,9669758914,11:00 - 00:00,6,True,Open,Bava Road,"Third Floor, Bava Road, Kolkata - 552417",3.9,"[{""code"": ""CASHBACK_369"", ""min_amount"": 450, ""discount_amount"": 77, ""description"": ""\u20b975 off on Cash payments above \u20b9500"", ""payment_method"": ""Cash""}, {""code"": ""DEBITCARD_369"", ""min_amount"": 653, ""discount_amount"": 96, ""description"": ""\u20b9100 off on orders above \u20b9600 with Debit Card"", ""payment_method"": ""DebitCard""}, {""code"": ""CREDITCARD_369"", ""min_amount"": 770, ""discount_amount"": 161, ""description"": ""\u20b9150 off on orders above \u20b9750 with Credit Card"", ""payment_method"": ""CreditCard""}, {""code"": ""SPECIAL_369"", ""min_amount"": 875, ""discount_amount"": 157, ""description"": ""\u20b9150 off on orders above \u20b9800"", ""payment_method"": null}]",26.45586951104253,87.5109128026985,2024-12-14 17:41:24,2025-02-26 09:49:52
431,Avant-Garde Eats,Burger,984,9560971296,12:00 - 01:00,7,True,Open,Chopra Chowk,"Ground Floor, Chopra Chowk, Pune - 208246",3.7,"[{""code"": ""FIRSTORDER_431"", ""min_amount"": 291, ""discount_amount"": 67, ""description"": ""\u20b975 off on your first order above \u20b9300"", ""payment_method"": null}, {""code"": ""DEBITCARD_431"", ""min_amount"": 561, ""discount_amount"": 96, ""description"": ""\u20b9100 off on orders above \u20b9600 with Debit Card"", ""payment_method"": ""DebitCard""}, {""code"": ""WEEKEND_431"", ""min_amount"": 1058, ""discount_amount"": 194, ""description"": ""\u20b9200 off on orders above \u20b91000"", ""payment_method"": null}, {""code"": ""CASHBACK_431"", ""min_amount"": 457, ""discount_amount"": 77, ""description"": ""\u20b975 off on Cash payments above \u20b9500"", ""payment_method"": ""Cash""}, {""code"": ""CREDITCARD_431"", ""min_amount"": 730, ""discount_amount"": 158, ""description"": ""\u20b9150 off on orders above \u20b9750 with Credit Card"", ""payment_method"": ""CreditCard""}]",21.522578815249148,94.09378853711372,2022-02-21 19:51:20,2025-04-21 04:49:33
1927,Ginger & Garlic Wok,Mexican,1778,9146153045,20:00 - 09:00,28,True,Open,Jaggi Street,"First Floor, Jaggi Street, Aurangabad - 803384",3.8,"[{""code"": ""FIRSTORDER_1927"", ""min_amount"": 317, ""discount_amount"": 80, ""description"": ""\u20b975 off on your first order above \u20b9300"", ""payment_method"": null}, {""code"": ""WEEKEND_1927"", ""min_amount"": 900, ""discount_amount"": 186, ""description"": ""\u20b9200 off on orders above \u20b91000"", ""payment_method"": null}, {""code"": ""WELCOME_1927"", ""min_amount"": 545, ""discount_amount"": 99, ""description"": ""\u20b9100 off on orders above \u20b9500"", ""payment_method"": null}]",14.05301864538545,93.73769393789438,2021-10-24 05:50:14,2024-01-28 19:38:14
2672,Bombay Thali House,"Japanese, Beverages",318,9111215861,12:00 - 21:00,39,True,Open,Gill Chowk,"Ground Floor, Gill Chowk, Vijayawada - 594714",3.9,"[{""code"": ""WEEKEND_2672"", ""min_amount"": 917, ""discount_amount"": 183, ""description"": ""\u20b9200 off on orders above \u20b91000"", ""payment_method"": null}, {""code"": ""UPISAVE_2672"", ""min_amount"": 407, ""discount_amount"": 82, ""description"": ""\u20b980 off on orders above \u20b9400 with UPI"", ""payment_method"": ""UPI""}, {""code"": ""WELCOME_2672"", ""min_amount"": 519, ""discount_amount"": 98, ""description"": ""\u20b9100 off on orders above \u20b9500"", ""payment_method"": null}, {""code"": ""SPECIAL_2672"", ""min_amount"": 774, ""discount_amount"": 160, ""description"": ""\u20b9150 off on orders above \u20b9800"", ""payment_method"": null}, {""code"": ""CASHBACK_2672"", ""min_amount"": 548, ""discount_amount"": 76, ""description"": ""\u20b975 off on Cash payments above \u20b9500"", ""payment_method"": ""Cash""}]",30.66659486078904,93.41366474563644,2024-08-14 05:46:29,2024-11-03 13:26:37
1408,Crossroads Kitchen,"Mexican, Mughlai, North Indian",1855,9469300977,19:00 - 09:00,20,True,Open,Kulkarni Road,"Ground Floor, Kulkarni Road, Thane - 387370",3.8,"[{""code"": ""DEBITCARD_1408"", ""min_amount"": 547, ""discount_amount"": 91, ""description"": ""\u20b9100 off on orders above \u20b9600 with Debit Card"", ""payment_method"": ""DebitCard""}, {""code"": ""UPISAVE_1408"", ""min_amount"": 427, ""discount_amount"": 83, ""description"": ""\u20b980 off on orders above \u20b9400 with UPI"", ""payment_method"": ""UPI""}, {""code"": ""WEEKEND_1408"", ""min_amount"": 1036, ""discount_amount"": 184, ""description"": ""\u20b9200 off on orders above \u20b91000"", ""payment_method"": null}, {""code"": ""FESTIVAL_1408"", ""min_amount"": 1397, ""discount_amount"": 280, ""description"": ""\u20b9300 off on orders above \u20b91500"", ""payment_method"": null}, {""code"": ""CREDITCARD_1408"", ""min_amount"": 807, ""discount_amount"": 146, ""description"": ""\u20b9150 off on orders above \u20b9750 with Credit Card"", ""payment_method"": ""CreditCard""}]",13.823301018829412,82.04261911792874,2025-02-28 15:13:29,2025-03-20 20:15:05
1174,Alfredo Delights,Fast Food,1731,9359857140,17:00 - 07:00,17,True,Open,Goda Road,"Third Floor, Goda Road, Nagpur - 462944",3.9,"[{""code"": ""FIRSTORDER_1174"", ""min_amount"": 284, ""discount_amount"": 69, ""description"": ""\u20b975 off on your first order above \u20b9300"", ""payment_method"": null}, {""code"": ""DEBITCARD_1174"", ""min_amount"": 587, ""discount_amount"": 102, ""description"": ""\u20b9100 off on orders above \u20b9600 with Debit Card"", ""payment_method"": ""DebitCard""}, {""code"": ""WELCOME_1174"", ""min_amount"": 493, ""discount_amount"": 107, ""description"": ""\u20b9100 off on orders above \u20b9500"", ""payment_method"": null}, {""code"": ""WEEKEND_1174"", ""min_amount"": 1086, ""discount_amount"": 212, ""description"": ""\u20b9200 off on orders above \u20b91000"", ""payment_method"": null}]",11.446344705771516,78.5760319230389,2025-01-19 21:11:18,2025-02-21 10:43:58
1481,Kutchhi Rasoi Express,Italian,912,9620184956,20:00 - 07:00,22,True,Open,Chand Chowk," Chand Chowk, Nashik - 240889",3.9,"[{""code"": ""CREDITCARD_1481"", ""min_amount"": 679, ""discount_amount"": 162, ""description"": ""\u20b9150 off on orders above \u20b9750 with Credit Card"", ""payment_method"": ""CreditCard""}, {""code"": ""FESTIVAL_1481"", ""min_amount"": 1598, ""discount_amount"": 306, ""description"": ""\u20b9300 off on orders above \u20b91500"", ""payment_method"": null}, {""code"": ""CASHBACK_1481"", ""min_amount"": 526, ""discount_amount"": 76, ""description"": ""\u20b975 off on Cash payments above \u20b9500"", ""payment_method"": ""Cash""}, {""code"": ""UPISAVE_1481"", ""min_amount"": 395, ""discount_amount"": 82, ""description"": ""\u20b980 off on orders above \u20b9400 with UPI"", ""payment_method"": ""UPI""}, {""code"": ""SPECIAL_1481"", ""min_amount"": 770, ""discount_amount"": 135, ""description"": ""\u20b9150 off on orders above \u20b9800"", ""payment_method"": null}]",11.49645760955778,96.80631598977712,2021-09-09 03:37:44,2022-05-02 08:27:58
412,Wave & Whisk,"South Indian, Pizza, Cafe",293,9151592119,12:00 - 20:00,7,False,Closed,Uppal Ganj,"Second Floor, Uppal Ganj, Pune - 208246",3.6,"[{""code"": ""FESTIVAL_412"", ""min_amount"": 1642, ""discount_amount"": 312, ""description"": ""\u20b9300 off on orders above \u20b91500"", ""payment_method"": null}, {""code"": ""CREDITCARD_412"", ""min_amount"": 689, ""discount_amount"": 147, ""description"": ""\u20b9150 off on orders above \u20b9750 with Credit Card"", ""payment_method"": ""CreditCard""}, {""code"": ""DEBITCARD_412"", ""min_amount"": 628, ""discount_amount"": 92, ""description"": ""\u20b9100 off on orders above \u20b9600 with Debit Card"", ""payment_method"": ""DebitCard""}, {""code"": ""CASHBACK_412"", ""min_amount"": 530, ""discount_amount"": 69, ""description"": ""\u20b975 off on Cash payments above \u20b9500"", ""payment_method"": ""Cash""}, {""code"": ""WEEKEND_412"", ""min_amount"": 1017, ""discount_amount"": 195, ""description"": ""\u20b9200 off on orders above \u20b91000"", ""payment_method"": null}]",30.349039356754304,96.07199910370107,2025-01-14 13:15:48,2025-02-21 02:42:01
1728,Dhokla Delight,Mughlai,1045,9928234214,15:00 - 04:00,26,False,Closed,Dugal Road,"First Floor, Dugal Road, Varanasi - 489201",4.2,"[{""code"": ""CREDITCARD_1728"", ""min_amount"": 710, ""discount_amount"": 140, ""description"": ""\u20b9150 off on orders above \u20b9750 with Credit Card"", ""payment_method"": ""CreditCard""}, {""code"": ""SPECIAL_1728"", ""min_amount"": 737, ""discount_amount"": 154, ""description"": ""\u20b9150 off on orders above \u20b9800"", ""payment_method"": null}, {""code"": ""FESTIVAL_1728"", ""min_amount"": 1358, ""discount_amount"": 312, ""description"": ""\u20b9300 off on orders above \u20b91500"", ""payment_method"": null}, {""code"": ""DEBITCARD_1728"", ""min_amount"": 636, ""discount_amount"": 109, ""description"": ""\u20b9100 off on orders above \u20b9600 with Debit Card"", ""payment_method"": ""DebitCard""}]",31.835017122195037,97.18561000822092,2025-01-29 17:54:25,2025-04-08 15:27:32
1367,Kathiyawadi Rasoi,Mediterranean,1400,9463714985,21:00 - 08:00,19,True,Open,Dass Nagar," Dass Nagar, Vadodara - 998662",3.8,"[{""code"": ""SPECIAL_1367"", ""min_amount"": 767, ""discount_amount"": 145, ""description"": ""\u20b9150 off on orders above \u20b9800"", ""payment_method"": null}, {""code"": ""WEEKEND_1367"", ""min_amount"": 993, ""discount_amount"": 218, ""description"": ""\u20b9200 off on orders above \u20b91000"", ""payment_method"": null}, {""code"": ""DEBITCARD_1367"", ""min_amount"": 551, ""discount_amount"": 97, ""description"": ""\u20b9100 off on orders above \u20b9600 with Debit Card"", ""payment_method"": ""DebitCard""}]",8.737602075137927,97.00784329145384,2024-06-02 10:21:41,2024-08-17 03:54:20
1390,Spicy Bamboo Kitchen,"Cafe, Burger",723,9106847990,15:00 - 05:00,20,True,Open,Karan Zila,"Third Floor, Karan Zila, Thane - 387370",3.4,"[{""code"": ""DEBITCARD_1390"", ""min_amount"": 656, ""discount_amount"": 97, ""description"": ""\u20b9100 off on orders above \u20b9600 with Debit Card"", ""payment_method"": ""DebitCard""}, {""code"": ""WELCOME_1390"", ""min_amount"": 521, ""discount_amount"": 93, ""description"": ""\u20b9100 off on orders above \u20b9500"", ""payment_method"": null}, {""code"": ""UPISAVE_1390"", ""min_amount"": 439, ""discount_amount"": 85, ""description"": ""\u20b980 off on orders above \u20b9400 with UPI"", ""payment_method"": ""UPI""}, {""code"": ""CREDITCARD_1390"", ""min_amount"": 693, ""discount_amount"": 164, ""description"": ""\u20b9150 off on orders above \u20b9750 with Credit Card"", ""payment_method"": ""CreditCard""}]",20.404999121287062,97.19338869740464,2025-04-21 22:48:32,2025-04-22 01:58:00
1369,Babel Bites,"Chinese, Bakery",1086,9953574680,18:00 - 09:00,19,True,Open,Garde Street,"Ground Floor, Garde Street, Vadodara - 998662",3.8,"[{""code"": ""WEEKEND_1369"", ""min_amount"": 1081, ""discount_amount"": 218, ""description"": ""\u20b9200 off on orders above \u20b91000"", ""payment_method"": null}, {""code"": ""FESTIVAL_1369"", ""min_amount"": 1604, ""discount_amount"": 329, ""description"": ""\u20b9300 off on orders above \u20b91500"", ""payment_method"": null}, {""code"": ""CREDITCARD_1369"", ""min_amount"": 677, ""discount_amount"": 162, ""description"": ""\u20b9150 off on orders above \u20b9750 with Credit Card"", ""payment_method"": ""CreditCard""}, {""code"": ""SPECIAL_1369"", ""min_amount"": 832, ""discount_amount"": 153, ""description"": ""\u20b9150 off on orders above \u20b9800"", ""payment_method"": null}, {""code"": ""FIRSTORDER_1369"", ""min_amount"": 275, ""discount_amount"": 81, ""description"": ""\u20b975 off on your first order above \u20b9300"", ""payment_method"": null}]",24.059023957959337,87.02939672234984,2024-12-04 01:46:20,2024-12-22 20:18:13
512,Nagpuri Saoji,Pizza,734,9425560046,19:00 - 03:00,8,True,Open,Sundaram Path,"Second Floor, Sundaram Path, Ahmedabad - 639903",3.9,"[{""code"": ""FIRSTORDER_512"", ""min_amount"": 310, ""discount_amount"": 76, ""description"": ""\u20b975 off on your first order above \u20b9300"", ""payment_method"": null}, {""code"": ""WEEKEND_512"", ""min_amount"": 1081, ""discount_amount"": 207, ""description"": ""\u20b9200 off on orders above \u20b91000"", ""payment_method"": null}, {""code"": ""UPISAVE_512"", ""min_amount"": 381, ""discount_amount"": 78, ""description"": ""\u20b980 off on orders above \u20b9400 with UPI"", ""payment_method"": ""UPI""}, {""code"": ""CASHBACK_512"", ""min_amount"": 451, ""discount_amount"": 73, ""description"": ""\u20b975 off on Cash payments above \u20b9500"", ""payment_method"": ""Cash""}]",25.14141167260123,74.84422455145813,2023-08-11 15:35:59,2025-03-19 14:34:48
1243,Penne Pasta Express,Thai,520,9438081409,21:00 - 05:00,18,True,Open,Chand Road,"Second Floor, Chand Road, Patna - 508382",3.7,"[{""code"": ""DEBITCARD_1243"", ""min_amount"": 572, ""discount_amount"": 90, ""description"": ""\u20b9100 off on orders above \u20b9600 with Debit Card"", ""payment_method"": ""DebitCard""}, {""code"": ""WELCOME_1243"", ""min_amount"": 549, ""discount_amount"": 97, ""description"": ""\u20b9100 off on orders above \u20b9500"", ""payment_method"": null}, {""code"": ""FIRSTORDER_1243"", ""min_amount"": 276, ""discount_amount"": 77, ""description"": ""\u20b975 off on your first order above \u20b9300"", ""payment_method"": null}, {""code"": ""CREDITCARD_1243"", ""min_amount"": 750, ""discount_amount"": 150, ""description"": ""\u20b9150 off on orders above \u20b9750 with Credit Card"", ""payment_method"": ""CreditCard""}]",17.505118655806257,69.80067079992195,2024-01-01 21:05:46,2024-09-26 16:02:15
1426,Garam Rotlo Express,"Ice Cream, Mexican, Bakery",808,9404219591,01:00 - 17:00,21,False,Closed,Kannan Road,"Ground Floor, Kannan Road, Agra - 875179",3.8,"[{""code"": ""DEBITCARD_1426"", ""min_amount"": 645, ""discount_amount"": 107, ""description"": ""\u20b9100 off on orders above \u20b9600 with Debit Card"", ""payment_method"": ""DebitCard""}, {""code"": ""CASHBACK_1426"", ""min_amount"": 530, ""discount_amount"": 78, ""description"": ""\u20b975 off on Cash payments above \u20b9500"", ""payment_method"": ""Cash""}, {""code"": ""SPECIAL_1426"", ""min_amount"": 806, ""discount_amount"": 143, ""description"": ""\u20b9150 off on orders above \u20b9800"", ""payment_method"": null}, {""code"": ""CREDITCARD_1426"", ""min_amount"": 779, ""discount_amount"": 140, ""description"": ""\u20b9150 off on orders above \u20b9750 with Credit Card"", ""payment_method"": ""CreditCard""}]",30.37856433147858,80.46871336785706,2024-07-18 05:08:54,2024-12-16 12:33:22
2668,Bold & Butter,"Bakery, Mughlai, Street Food",520,9281999472,21:00 - 12:00,39,True,Open,Som Zila,"Ground Floor, Som Zila, Vijayawada - 594714",3.9,"[{""code"": ""FIRSTORDER_2668"", ""min_amount"": 320, ""discount_amount"": 69, ""description"": ""\u20b975 off on your first order above \u20b9300"", ""payment_method"": null}, {""code"": ""CREDITCARD_2668"", ""min_amount"": 801, ""discount_amount"": 144, ""description"": ""\u20b9150 off on orders above \u20b9750 with Credit Card"", ""payment_method"": ""CreditCard""}, {""code"": ""CASHBACK_2668"", ""min_amount"": 522, ""discount_amount"": 75, ""description"": ""\u20b975 off on Cash payments above \u20b9500"", ""payment_method"": ""Cash""}, {""code"": ""WEEKEND_2668"", ""min_amount"": 1080, ""discount_amount"": 217, ""description"": ""\u20b9200 off on orders above \u20b91000"", ""payment_method"": null}, {""code"": ""UPISAVE_2668"", ""min_amount"": 427, ""discount_amount"": 85, ""description"": ""\u20b980 off on orders above \u20b9400 with UPI"", ""payment_method"": ""UPI""}]",13.71564156902808,86.70640640973986,2023-08-01 09:50:44,2023-12-08 23:20:15
912,Astra,"Japanese, Continental",1204,9642845581,21:00 - 06:00,13,True,Open,Deo Zila,"Second Floor, Deo Zila, Guwahati - 116814",4.1,"[{""code"": ""SPECIAL_912"", ""min_amount"": 864, ""discount_amount"": 162, ""description"": ""\u20b9150 off on orders above \u20b9800"", ""payment_method"": null}, {""code"": ""WEEKEND_912"", ""min_amount"": 965, ""discount_amount"": 183, ""description"": ""\u20b9200 off on orders above \u20b91000"", ""payment_method"": null}, {""code"": ""FIRSTORDER_912"", ""min_amount"": 284, ""discount_amount"": 73, ""description"": ""\u20b975 off on your first order above \u20b9300"", ""payment_method"": null}, {""code"": ""WELCOME_912"", ""min_amount"": 506, ""discount_amount"": 100, ""description"": ""\u20b9100 off on orders above \u20b9500"", ""payment_method"": null}]",22.1957927257272,84.45416206695295,2025-04-21 04:26:34,2025-04-21 09:58:38
2630,Awadhi Aroma,"Pizza, Italian, Beverages",1935,9621835975,12:00 - 02:00,38,True,Open,Agrawal Ganj,"Third Floor, Agrawal Ganj, Kota - 874544",3.7,"[{""code"": ""DEBITCARD_2630"", ""min_amount"": 604, ""discount_amount"": 92, ""description"": ""\u20b9100 off on orders above \u20b9600 with Debit Card"", ""payment_method"": ""DebitCard""}, {""code"": ""UPISAVE_2630"", ""min_amount"": 394, ""discount_amount"": 74, ""description"": ""\u20b980 off on orders above \u20b9400 with UPI"", ""payment_method"": ""UPI""}, {""code"": ""CASHBACK_2630"", ""min_amount"": 470, ""discount_amount"": 75, ""description"": ""\u20b975 off on Cash payments above \u20b9500"", ""payment_method"": ""Cash""}, {""code"": ""FIRSTORDER_2630"", ""min_amount"": 325, ""discount_amount"": 73, ""description"": ""\u20b975 off on your first order above \u20b9300"", ""payment_method"": null}]",9.83442689273487,85.12454838578569,2024-05-19 13:42:18,2025-04-05 12:27:14
1805,Khichdi Khaas Express,"Mediterranean, Street Food",551,9684435895,21:00 - 10:00,26,True,Open,Jhaveri Path," Jhaveri Path, Varanasi - 489201",3.8,"[{""code"": ""UPISAVE_1805"", ""min_amount"": 410, ""discount_amount"": 73, ""description"": ""\u20b980 off on orders above \u20b9400 with UPI"", ""payment_method"": ""UPI""}, {""code"": ""WEEKEND_1805"", ""min_amount"": 1022, ""discount_amount"": 211, ""description"": ""\u20b9200 off on orders above \u20b91000"", ""payment_method"": null}, {""code"": ""SPECIAL_1805"", ""min_amount"": 878, ""discount_amount"": 148, ""description"": ""\u20b9150 off on orders above \u20b9800"", ""payment_method"": null}]",35.52385269312957,80.75637252059836,2024-09-11 20:30:58,2024-12-10 00:49:08
1741,Shree Krishna Misal Caf,Thai,366,9299047015,13:00 - 04:00,26,True,Open,Chacko Chowk,"First Floor, Chacko Chowk, Varanasi - 489201",3.7,"[{""code"": ""FESTIVAL_1741"", ""min_amount"": 1477, ""discount_amount"": 311, ""description"": ""\u20b9300 off on orders above \u20b91500"", ""payment_method"": null}, {""code"": ""CREDITCARD_1741"", ""min_amount"": 779, ""discount_amount"": 163, ""description"": ""\u20b9150 off on orders above \u20b9750 with Credit Card"", ""payment_method"": ""CreditCard""}, {""code"": ""DEBITCARD_1741"", ""min_amount"": 571, ""discount_amount"": 93, ""description"": ""\u20b9100 off on orders above \u20b9600 with Debit Card"", ""payment_method"": ""DebitCard""}, {""code"": ""CASHBACK_1741"", ""min_amount"": 529, ""discount_amount"": 74, ""description"": ""\u20b975 off on Cash payments above \u20b9500"", ""payment_method"": ""Cash""}, {""code"": ""WELCOME_1741"", ""min_amount"": 520, ""discount_amount"": 93, ""description"": ""\u20b9100 off on orders above \u20b9500"", ""payment_method"": null}]",18.50951418032816,92.24130241687034,2024-01-02 08:27:29,2024-04-01 10:39:22
1736,Pasta Junction,"Lebanese, Italian, Pizza",1615,9328916135,14:00 - 01:00,26,True,Open,Bhandari Road,"Second Floor, Bhandari Road, Varanasi - 489201",3.6,"[{""code"": ""SPECIAL_1736"", ""min_amount"": 806, ""discount_amount"": 160, ""description"": ""\u20b9150 off on orders above \u20b9800"", ""payment_method"": null}, {""code"": ""WELCOME_1736"", ""min_amount"": 454, ""discount_amount"": 99, ""description"": ""\u20b9100 off on orders above \u20b9500"", ""payment_method"": null}, {""code"": ""FESTIVAL_1736"", ""min_amount"": 1478, ""discount_amount"": 320, ""description"": ""\u20b9300 off on orders above \u20b91500"", ""payment_method"": null}]",27.110407388348317,89.90779798784092,2024-12-06 18:47:29,2024-12-31 00:58:57
195,Tandoori Tadka,"Street Food, Ice Cream",1341,9969747935,10:00 - 00:00,4,True,Open,Tiwari Nagar,"Ground Floor, Tiwari Nagar, Hyderabad - 217473",3.8,"[{""code"": ""FESTIVAL_195"", ""min_amount"": 1447, ""discount_amount"": 300, ""description"": ""\u20b9300 off on orders above \u20b91500"", ""payment_method"": null}, {""code"": ""WEEKEND_195"", ""min_amount"": 1054, ""discount_amount"": 197, ""description"": ""\u20b9200 off on orders above \u20b91000"", ""payment_method"": null}, {""code"": ""DEBITCARD_195"", ""min_amount"": 549, ""discount_amount"": 102, ""description"": ""\u20b9100 off on orders above \u20b9600 with Debit Card"", ""payment_method"": ""DebitCard""}, {""code"": ""UPISAVE_195"", ""min_amount"": 397, ""discount_amount"": 87, ""description"": ""\u20b980 off on orders above \u20b9400 with UPI"", ""payment_method"": ""UPI""}, {""code"": ""CREDITCARD_195"", ""min_amount"": 805, ""discount_amount"": 154, ""description"": ""\u20b9150 off on orders above \u20b9750 with Credit Card"", ""payment_method"": ""CreditCard""}]",18.651842303031405,88.10217605901494,2022-03-16 03:55:40,2024-05-08 12:32:04
2417,Biryani & Kebabs,Pizza,1305,9620408590,18:00 - 05:00,36,True,Open,Kibe Ganj,"First Floor, Kibe Ganj, Porbandar - 789514",3.7,"[{""code"": ""SPECIAL_2417"", ""min_amount"": 745, ""discount_amount"": 164, ""description"": ""\u20b9150 off on orders above \u20b9800"", ""payment_method"": null}, {""code"": ""FESTIVAL_2417"", ""min_amount"": 1427, ""discount_amount"": 287, ""description"": ""\u20b9300 off on orders above \u20b91500"", ""payment_method"": null}, {""code"": ""CASHBACK_2417"", ""min_amount"": 486, ""discount_amount"": 77, ""description"": ""\u20b975 off on Cash payments above \u20b9500"", ""payment_method"": ""Cash""}, {""code"": ""FIRSTORDER_2417"", ""min_amount"": 291, ""discount_amount"": 82, ""description"": ""\u20b975 off on your first order above \u20b9300"", ""payment_method"": null}, {""code"": ""DEBITCARD_2417"", ""min_amount"": 632, ""discount_amount"": 108, ""description"": ""\u20b9100 off on orders above \u20b9600 with Debit Card"", ""payment_method"": ""DebitCard""}]",13.830320615152456,70.31450828895618,2022-03-15 15:22:47,2024-10-03 16:05:57
1058,Dilli Ka Tandoor,"Mediterranean, Desserts, Pizza",1437,9325395650,14:00 - 04:00,15,True,Open,Kaur Chowk,"First Floor, Kaur Chowk, Indore - 466778",3.8,"[{""code"": ""FESTIVAL_1058"", ""min_amount"": 1419, ""discount_amount"": 279, ""description"": ""\u20b9300 off on orders above \u20b91500"", ""payment_method"": null}, {""code"": ""SPECIAL_1058"", ""min_amount"": 727, ""discount_amount"": 150, ""description"": ""\u20b9150 off on orders above \u20b9800"", ""payment_method"": null}, {""code"": ""DEBITCARD_1058"", ""min_amount"": 652, ""discount_amount"": 97, ""description"": ""\u20b9100 off on orders above \u20b9600 with Debit Card"", ""payment_method"": ""DebitCard""}]",37.197112396993454,92.09406166213644,2023-06-25 08:19:10,2025-01-05 23:36:45
2023,Garam Thali,"Cafe, North Indian, Street Food",1077,9672153037,19:00 - 08:00,29,False,Closed,Madan Marg," Madan Marg, Dhanbad - 413445",3.7,"[{""code"": ""FESTIVAL_2023"", ""min_amount"": 1466, ""discount_amount"": 324, ""description"": ""\u20b9300 off on orders above \u20b91500"", ""payment_method"": null}, {""code"": ""CREDITCARD_2023"", ""min_amount"": 703, ""discount_amount"": 146, ""description"": ""\u20b9150 off on orders above \u20b9750 with Credit Card"", ""payment_method"": ""CreditCard""}, {""code"": ""WEEKEND_2023"", ""min_amount"": 994, ""discount_amount"": 200, ""description"": ""\u20b9200 off on orders above \u20b91000"", ""payment_method"": null}, {""code"": ""DEBITCARD_2023"", ""min_amount"": 622, ""discount_amount"": 109, ""description"": ""\u20b9100 off on orders above \u20b9600 with Debit Card"", ""payment_method"": ""DebitCard""}]",14.128359689183718,69.8737686232634,2025-02-08 03:04:24,2025-02-25 13:17:41
179,Undhiyu Bhavan Express,Mughlai,411,9855631043,00:00 - 12:00,3,False,Closed,Borde Marg," Borde Marg, Bangalore - 344053",3.9,"[{""code"": ""DEBITCARD_179"", ""min_amount"": 601, ""discount_amount"": 97, ""description"": ""\u20b9100 off on orders above \u20b9600 with Debit Card"", ""payment_method"": ""DebitCard""}, {""code"": ""CREDITCARD_179"", ""min_amount"": 811, ""discount_amount"": 150, ""description"": ""\u20b9150 off on orders above \u20b9750 with Credit Card"", ""payment_method"": ""CreditCard""}, {""code"": ""FIRSTORDER_179"", ""min_amount"": 291, ""discount_amount"": 80, ""description"": ""\u20b975 off on your first order above \u20b9300"", ""payment_method"": null}, {""code"": ""UPISAVE_179"", ""min_amount"": 398, ""discount_amount"": 79, ""description"": ""\u20b980 off on orders above \u20b9400 with UPI"", ""payment_method"": ""UPI""}, {""code"": ""WELCOME_179"", ""min_amount"": 510, ""discount_amount"": 100, ""description"": ""\u20b9100 off on orders above \u20b9500"", ""payment_method"": null}]",24.295021812980448,73.66341225954615,2025-03-22 21:41:39,2025-04-02 04:59:24
868,Kolhapuri Kitchen House,Fast Food,1158,9719648027,08:00 - 18:00,13,True,Open,Rau Road," Rau Road, Guwahati - 116814",4.0,"[{""code"": ""FESTIVAL_868"", ""min_amount"": 1538, ""discount_amount"": 309, ""description"": ""\u20b9300 off on orders above \u20b91500"", ""payment_method"": null}, {""code"": ""CASHBACK_868"", ""min_amount"": 524, ""discount_amount"": 75, ""description"": ""\u20b975 off on Cash payments above \u20b9500"", ""payment_method"": ""Cash""}, {""code"": ""DEBITCARD_868"", ""min_amount"": 542, ""discount_amount"": 104, ""description"": ""\u20b9100 off on orders above \u20b9600 with Debit Card"", ""payment_method"": ""DebitCard""}, {""code"": ""WEEKEND_868"", ""min_amount"": 1092, ""discount_amount"": 180, ""description"": ""\u20b9200 off on orders above \u20b91000"", ""payment_method"": null}, {""code"": ""WELCOME_868"", ""min_amount"": 533, ""discount_amount"": 96, ""description"": ""\u20b9100 off on orders above \u20b9500"", ""payment_method"": null}]",33.554137376074365,95.0976631345262,2025-03-31 13:59:46,2025-04-01 19:52:58
2276,Ganpati Bhojan,"North Indian, Chinese, Thai",648,9725926157,19:00 - 03:00,34,True,Open,Bala Zila," Bala Zila, Nadiad - 329684",3.9,"[{""code"": ""UPISAVE_2276"", ""min_amount"": 404, ""discount_amount"": 85, ""description"": ""\u20b980 off on orders above \u20b9400 with UPI"", ""payment_method"": ""UPI""}, {""code"": ""DEBITCARD_2276"", ""min_amount"": 650, ""discount_amount"": 103, ""description"": ""\u20b9100 off on orders above \u20b9600 with Debit Card"", ""payment_method"": ""DebitCard""}, {""code"": ""WEEKEND_2276"", ""min_amount"": 1032, ""discount_amount"": 180, ""description"": ""\u20b9200 off on orders above \u20b91000"", ""payment_method"": null}]",8.799762050752337,68.9100594144642,2022-05-16 16:23:39,2023-07-28 09:40:48
142,Thepla House,"Burger, Pizza, Bakery",1800,9550535448,11:00 - 21:00,3,True,Open,Gole Street," Gole Street, Bangalore - 344053",3.5,"[{""code"": ""SPECIAL_142"", ""min_amount"": 765, ""discount_amount"": 151, ""description"": ""\u20b9150 off on orders above \u20b9800"", ""payment_method"": null}, {""code"": ""CASHBACK_142"", ""min_amount"": 484, ""discount_amount"": 73, ""description"": ""\u20b975 off on Cash payments above \u20b9500"", ""payment_method"": ""Cash""}, {""code"": ""DEBITCARD_142"", ""min_amount"": 585, ""discount_amount"": 99, ""description"": ""\u20b9100 off on orders above \u20b9600 with Debit Card"", ""payment_method"": ""DebitCard""}]",25.56767669181653,90.35167442333656,2025-03-18 07:03:46,2025-03-30 04:23:06
708,The Graze House,Mughlai,996,9280044306,23:00 - 13:00,11,True,Open,Dada Ganj," Dada Ganj, Chandigarh - 549898",3.9,"[{""code"": ""CASHBACK_708"", ""min_amount"": 536, ""discount_amount"": 81, ""description"": ""\u20b975 off on Cash payments above \u20b9500"", ""payment_method"": ""Cash""}, {""code"": ""CREDITCARD_708"", ""min_amount"": 690, ""discount_amount"": 156, ""description"": ""\u20b9150 off on orders above \u20b9750 with Credit Card"", ""payment_method"": ""CreditCard""}, {""code"": ""WELCOME_708"", ""min_amount"": 486, ""discount_amount"": 90, ""description"": ""\u20b9100 off on orders above \u20b9500"", ""payment_method"": null}, {""code"": ""SPECIAL_708"", ""min_amount"": 823, ""discount_amount"": 150, ""description"": ""\u20b9150 off on orders above \u20b9800"", ""payment_method"": null}]",14.872242103184472,88.5307637083964,2024-12-06 21:31:31,2025-02-08 04:13:29
573,Dumpling Delight,"South Indian, Continental",412,9834779362,13:00 - 21:00,9,True,Open,Shah Nagar," Shah Nagar, Jaipur - 698508",3.8,"[{""code"": ""SPECIAL_573"", ""min_amount"": 810, ""discount_amount"": 137, ""description"": ""\u20b9150 off on orders above \u20b9800"", ""payment_method"": null}, {""code"": ""FESTIVAL_573"", ""min_amount"": 1544, ""discount_amount"": 324, ""description"": ""\u20b9300 off on orders above \u20b91500"", ""payment_method"": null}, {""code"": ""DEBITCARD_573"", ""min_amount"": 652, ""discount_amount"": 102, ""description"": ""\u20b9100 off on orders above \u20b9600 with Debit Card"", ""payment_method"": ""DebitCard""}, {""code"": ""CREDITCARD_573"", ""min_amount"": 717, ""discount_amount"": 153, ""description"": ""\u20b9150 off on orders above \u20b9750 with Credit Card"", ""payment_method"": ""CreditCard""}, {""code"": ""WELCOME_573"", ""min_amount"": 494, ""discount_amount"": 104, ""description"": ""\u20b9100 off on orders above \u20b9500"", ""payment_method"": null}]",10.105792237521834,79.7639035694022,2024-05-16 18:31:33,2024-11-22 09:26:17
2705,Palate Shift,"Desserts, Japanese, Bakery",759,9130338242,19:00 - 10:00,39,True,Open,Natarajan,"Ground Floor, Natarajan, Vijayawada - 594714",3.9,"[{""code"": ""CREDITCARD_2705"", ""min_amount"": 813, ""discount_amount"": 154, ""description"": ""\u20b9150 off on orders above \u20b9750 with Credit Card"", ""payment_method"": ""CreditCard""}, {""code"": ""FIRSTORDER_2705"", ""min_amount"": 303, ""discount_amount"": 75, ""description"": ""\u20b975 off on your first order above \u20b9300"", ""payment_method"": null}, {""code"": ""SPECIAL_2705"", ""min_amount"": 734, ""discount_amount"": 148, ""description"": ""\u20b9150 off on orders above \u20b9800"", ""payment_method"": null}, {""code"": ""DEBITCARD_2705"", ""min_amount"": 604, ""discount_amount"": 101, ""description"": ""\u20b9100 off on orders above \u20b9600 with Debit Card"", ""payment_method"": ""DebitCard""}]",34.116738073832195,85.16799938681554,2022-05-25 21:45:11,2023-08-12 00:55:02
408,The Willow Table,Mexican,1895,9341148670,11:00 - 20:00,7,True,Open,Koshy Circle,"First Floor, Koshy Circle, Pune - 208246",3.7,"[{""code"": ""CREDITCARD_408"", ""min_amount"": 774, ""discount_amount"": 137, ""description"": ""\u20b9150 off on orders above \u20b9750 with Credit Card"", ""payment_method"": ""CreditCard""}, {""code"": ""WELCOME_408"", ""min_amount"": 533, ""discount_amount"": 107, ""description"": ""\u20b9100 off on orders above \u20b9500"", ""payment_method"": null}, {""code"": ""CASHBACK_408"", ""min_amount"": 453, ""discount_amount"": 72, ""description"": ""\u20b975 off on Cash payments above \u20b9500"", ""payment_method"": ""Cash""}, {""code"": ""UPISAVE_408"", ""min_amount"": 366, ""discount_amount"": 73, ""description"": ""\u20b980 off on orders above \u20b9400 with UPI"", ""payment_method"": ""UPI""}]",19.4218548700659,69.45220349262877,2025-03-19 18:55:57,2025-04-11 08:59:13
2662,Foodies Junction,"Continental, Beverages, Mexican",1311,9855341382,10:00 - 20:00,39,True,Open,Deshmukh Street," Deshmukh Street, Vijayawada - 594714",3.6,"[{""code"": ""CASHBACK_2662"", ""min_amount"": 530, ""discount_amount"": 73, ""description"": ""\u20b975 off on Cash payments above \u20b9500"", ""payment_method"": ""Cash""}, {""code"": ""UPISAVE_2662"", ""min_amount"": 414, ""discount_amount"": 84, ""description"": ""\u20b980 off on orders above \u20b9400 with UPI"", ""payment_method"": ""UPI""}, {""code"": ""WEEKEND_2662"", ""min_amount"": 1071, ""discount_amount"": 206, ""description"": ""\u20b9200 off on orders above \u20b91000"", ""payment_method"": null}, {""code"": ""DEBITCARD_2662"", ""min_amount"": 617, ""discount_amount"": 106, ""description"": ""\u20b9100 off on orders above \u20b9600 with Debit Card"", ""payment_method"": ""DebitCard""}, {""code"": ""CREDITCARD_2662"", ""min_amount"": 756, ""discount_amount"": 150, ""description"": ""\u20b9150 off on orders above \u20b9750 with Credit Card"", ""payment_method"": ""CreditCard""}]",17.03360421159499,95.03367624645432,2024-02-11 20:35:04,2024-12-13 11:41:50
1518,Astoria Kitchen,"Lebanese, Japanese",490,9278897501,06:00 - 22:00,23,True,Open,Kalla Ganj,"Second Floor, Kalla Ganj, Faridabad - 506922",4.7,"[{""code"": ""WEEKEND_1518"", ""min_amount"": 1029, ""discount_amount"": 197, ""description"": ""\u20b9200 off on orders above \u20b91000"", ""payment_method"": null}, {""code"": ""UPISAVE_1518"", ""min_amount"": 414, ""discount_amount"": 72, ""description"": ""\u20b980 off on orders above \u20b9400 with UPI"", ""payment_method"": ""UPI""}, {""code"": ""DEBITCARD_1518"", ""min_amount"": 585, ""discount_amount"": 99, ""description"": ""\u20b9100 off on orders above \u20b9600 with Debit Card"", ""payment_method"": ""DebitCard""}, {""code"": ""CREDITCARD_1518"", ""min_amount"": 720, ""discount_amount"": 160, ""description"": ""\u20b9150 off on orders above \u20b9750 with Credit Card"", ""payment_method"": ""CreditCard""}, {""code"": ""SPECIAL_1518"", ""min_amount"": 789, ""discount_amount"": 152, ""description"": ""\u20b9150 off on orders above \u20b9800"", ""payment_method"": null}]",28.61637613166344,80.52409903311163,2025-04-12 18:46:32,2025-04-22 09:09:32
325,Infusion Lane,North Indian,763,9944773947,13:00 - 22:00,5,False,Closed,Shankar Street," Shankar Street, Chennai - 681858",3.9,"[{""code"": ""UPISAVE_325"", ""min_amount"": 394, ""discount_amount"": 78, ""description"": ""\u20b980 off on orders above \u20b9400 with UPI"", ""payment_method"": ""UPI""}, {""code"": ""WELCOME_325"", ""min_amount"": 535, ""discount_amount"": 96, ""description"": ""\u20b9100 off on orders above \u20b9500"", ""payment_method"": null}, {""code"": ""WEEKEND_325"", ""min_amount"": 951, ""discount_amount"": 184, ""description"": ""\u20b9200 off on orders above \u20b91000"", ""payment_method"": null}]",26.12016077754341,80.17132905284238,2023-01-09 01:05:09,2025-03-20 19:54:14
1813,Desi Wok & More,Cafe,1534,9185042653,19:00 - 09:00,26,True,Open,Dhaliwal Marg,"First Floor, Dhaliwal Marg, Varanasi - 489201",3.9,"[{""code"": ""DEBITCARD_1813"", ""min_amount"": 627, ""discount_amount"": 92, ""description"": ""\u20b9100 off on orders above \u20b9600 with Debit Card"", ""payment_method"": ""DebitCard""}, {""code"": ""WELCOME_1813"", ""min_amount"": 492, ""discount_amount"": 107, ""description"": ""\u20b9100 off on orders above \u20b9500"", ""payment_method"": null}, {""code"": ""UPISAVE_1813"", ""min_amount"": 428, ""discount_amount"": 82, ""description"": ""\u20b980 off on orders above \u20b9400 with UPI"", ""payment_method"": ""UPI""}]",22.446368729837108,86.59789814754433,2023-05-22 18:21:35,2024-03-14 17:08:41
1079,Chilli Chopsticks,Bakery,959,9421933803,15:00 - 23:00,16,True,Open,Karnik Nagar," Karnik Nagar, Surat - 335772",3.7,"[{""code"": ""CASHBACK_1079"", ""min_amount"": 538, ""discount_amount"": 80, ""description"": ""\u20b975 off on Cash payments above \u20b9500"", ""payment_method"": ""Cash""}, {""code"": ""UPISAVE_1079"", ""min_amount"": 411, ""discount_amount"": 84, ""description"": ""\u20b980 off on orders above \u20b9400 with UPI"", ""payment_method"": ""UPI""}, {""code"": ""SPECIAL_1079"", ""min_amount"": 755, ""discount_amount"": 160, ""description"": ""\u20b9150 off on orders above \u20b9800"", ""payment_method"": null}]",22.039779495380717,74.13715959769719,2024-11-16 17:51:16,2025-04-02 07:03:35
2097,Wok On Fire,"Lebanese, Cafe, Continental",208,9579515163,12:00 - 21:00,30,True,Open,Lad Ganj," Lad Ganj, Amritsar - 354098",3.8,"[{""code"": ""WEEKEND_2097"", ""min_amount"": 1044, ""discount_amount"": 198, ""description"": ""\u20b9200 off on orders above \u20b91000"", ""payment_method"": null}, {""code"": ""CASHBACK_2097"", ""min_amount"": 482, ""discount_amount"": 76, ""description"": ""\u20b975 off on Cash payments above \u20b9500"", ""payment_method"": ""Cash""}, {""code"": ""WELCOME_2097"", ""min_amount"": 463, ""discount_amount"": 105, ""description"": ""\u20b9100 off on orders above \u20b9500"", ""payment_method"": null}]",33.380003603852984,82.01108212580884,2023-09-16 01:58:49,2024-09-30 11:22:14
33,Flora & Fawn,Mexican,746,9689720101,12:00 - 03:00,1,True,Open,Pandey Ganj,"Third Floor, Pandey Ganj, Delhi - 780487",3.6,"[{""code"": ""FESTIVAL_33"", ""min_amount"": 1515, ""discount_amount"": 275, ""description"": ""\u20b9300 off on orders above \u20b91500"", ""payment_method"": null}, {""code"": ""WEEKEND_33"", ""min_amount"": 1098, ""discount_amount"": 216, ""description"": ""\u20b9200 off on orders above \u20b91000"", ""payment_method"": null}, {""code"": ""UPISAVE_33"", ""min_amount"": 396, ""discount_amount"": 73, ""description"": ""\u20b980 off on orders above \u20b9400 with UPI"", ""payment_method"": ""UPI""}, {""code"": ""FIRSTORDER_33"", ""min_amount"": 319, ""discount_amount"": 74, ""description"": ""\u20b975 off on your first order above \u20b9300"", ""payment_method"": null}, {""code"": ""WELCOME_33"", ""min_amount"": 521, ""discount_amount"": 100, ""description"": ""\u20b9100 off on orders above \u20b9500"", ""payment_method"": null}]",11.9456416341885,96.48334159170938,2024-11-25 08:02:25,2024-11-25 10:13:10
433,Oriental Tadka,"Mexican, Burger",301,9961919613,14:00 - 02:00,7,True,Open,Mishra Circle,"Third Floor, Mishra Circle, Pune - 208246",3.8,"[{""code"": ""CREDITCARD_433"", ""min_amount"": 717, ""discount_amount"": 154, ""description"": ""\u20b9150 off on orders above \u20b9750 with Credit Card"", ""payment_method"": ""CreditCard""}, {""code"": ""DEBITCARD_433"", ""min_amount"": 642, ""discount_amount"": 109, ""description"": ""\u20b9100 off on orders above \u20b9600 with Debit Card"", ""payment_method"": ""DebitCard""}, {""code"": ""SPECIAL_433"", ""min_amount"": 865, ""discount_amount"": 143, ""description"": ""\u20b9150 off on orders above \u20b9800"", ""payment_method"": null}, {""code"": ""FIRSTORDER_433"", ""min_amount"": 320, ""discount_amount"": 73, ""description"": ""\u20b975 off on your first order above \u20b9300"", ""payment_method"": null}, {""code"": ""WELCOME_433"", ""min_amount"": 539, ""discount_amount"": 108, ""description"": ""\u20b9100 off on orders above \u20b9500"", ""payment_method"": null}]",11.882363474544182,81.62701477025479,2022-09-07 20:52:59,2024-09-24 02:35:27
68,Alabaster Table,Continental,337,9353398109,20:00 - 09:00,2,True,Open,Tailor Road,"Third Floor, Tailor Road, Mumbai - 887572",3.6,"[{""code"": ""UPISAVE_68"", ""min_amount"": 395, ""discount_amount"": 73, ""description"": ""\u20b980 off on orders above \u20b9400 with UPI"", ""payment_method"": ""UPI""}, {""code"": ""CREDITCARD_68"", ""min_amount"": 695, ""discount_amount"": 146, ""description"": ""\u20b9150 off on orders above \u20b9750 with Credit Card"", ""payment_method"": ""CreditCard""}, {""code"": ""WEEKEND_68"", ""min_amount"": 962, ""discount_amount"": 191, ""description"": ""\u20b9200 off on orders above \u20b91000"", ""payment_method"": null}]",36.12443966689366,69.62460099961949,2023-09-28 08:12:26,2024-10-31 06:34:35
1214,Bhavnagari Zaika,"Pizza, Mexican",1744,9611763841,19:00 - 04:00,18,True,Open,Chadha Street,"Second Floor, Chadha Street, Patna - 508382",3.7,"[{""code"": ""CREDITCARD_1214"", ""min_amount"": 801, ""discount_amount"": 159, ""description"": ""\u20b9150 off on orders above \u20b9750 with Credit Card"", ""payment_method"": ""CreditCard""}, {""code"": ""SPECIAL_1214"", ""min_amount"": 823, ""discount_amount"": 137, ""description"": ""\u20b9150 off on orders above \u20b9800"", ""payment_method"": null}, {""code"": ""WELCOME_1214"", ""min_amount"": 510, ""discount_amount"": 109, ""description"": ""\u20b9100 off on orders above \u20b9500"", ""payment_method"": null}, {""code"": ""FESTIVAL_1214"", ""min_amount"": 1621, ""discount_amount"": 297, ""description"": ""\u20b9300 off on orders above \u20b91500"", ""payment_method"": null}]",24.037366153063346,95.4772899488592,2024-07-10 23:45:53,2025-02-17 02:49:53
892,Pesto Place,"Japanese, Mughlai, Bakery",489,9915216554,20:00 - 06:00,13,True,Open,Chad Nagar,"Ground Floor, Chad Nagar, Guwahati - 116814",4.2,"[{""code"": ""WELCOME_892"", ""min_amount"": 526, ""discount_amount"": 95, ""description"": ""\u20b9100 off on orders above \u20b9500"", ""payment_method"": null}, {""code"": ""SPECIAL_892"", ""min_amount"": 785, ""discount_amount"": 148, ""description"": ""\u20b9150 off on orders above \u20b9800"", ""payment_method"": null}, {""code"": ""WEEKEND_892"", ""min_amount"": 975, ""discount_amount"": 202, ""description"": ""\u20b9200 off on orders above \u20b91000"", ""payment_method"": null}, {""code"": ""UPISAVE_892"", ""min_amount"": 407, ""discount_amount"": 76, ""description"": ""\u20b980 off on orders above \u20b9400 with UPI"", ""payment_method"": ""UPI""}, {""code"": ""DEBITCARD_892"", ""min_amount"": 646, ""discount_amount"": 95, ""description"": ""\u20b9100 off on orders above \u20b9600 with Debit Card"", ""payment_method"": ""DebitCard""}]",13.922087077564909,76.11655444972561,2025-04-12 08:41:47,2025-04-20 01:56:52
953,Rajwadi Farsan,"Chinese, Fast Food, Mediterranean",1023,9261300328,21:00 - 13:00,13,True,Open,Dave Zila,"First Floor, Dave Zila, Guwahati - 116814",4.2,"[{""code"": ""CASHBACK_953"", ""min_amount"": 516, ""discount_amount"": 67, ""description"": ""\u20b975 off on Cash payments above \u20b9500"", ""payment_method"": ""Cash""}, {""code"": ""CREDITCARD_953"", ""min_amount"": 697, ""discount_amount"": 150, ""description"": ""\u20b9150 off on orders above \u20b9750 with Credit Card"", ""payment_method"": ""CreditCard""}, {""code"": ""DEBITCARD_953"", ""min_amount"": 609, ""discount_amount"": 96, ""description"": ""\u20b9100 off on orders above \u20b9600 with Debit Card"", ""payment_method"": ""DebitCard""}, {""code"": ""WELCOME_953"", ""min_amount"": 506, ""discount_amount"": 102, ""description"": ""\u20b9100 off on orders above \u20b9500"", ""payment_method"": null}]",27.41743408298096,90.6947548583172,2025-04-06 06:49:59,2025-04-12 22:13:56
875,Roast Ritual,"North Indian, Pizza, Mediterranean",554,9642944334,20:00 - 12:00,13,True,Open,Vyas Chowk,"Third Floor, Vyas Chowk, Guwahati - 116814",4.4,"[{""code"": ""SPECIAL_875"", ""min_amount"": 806, ""discount_amount"": 161, ""description"": ""\u20b9150 off on orders above \u20b9800"", ""payment_method"": null}, {""code"": ""FESTIVAL_875"", ""min_amount"": 1390, ""discount_amount"": 299, ""description"": ""\u20b9300 off on orders above \u20b91500"", ""payment_method"": null}, {""code"": ""DEBITCARD_875"", ""min_amount"": 594, ""discount_amount"": 107, ""description"": ""\u20b9100 off on orders above \u20b9600 with Debit Card"", ""payment_method"": ""DebitCard""}, {""code"": ""WEEKEND_875"", ""min_amount"": 904, ""discount_amount"": 218, ""description"": ""\u20b9200 off on orders above \u20b91000"", ""payment_method"": null}]",30.745614351875894,93.57186823586504,2025-03-30 22:57:59,2025-04-03 01:38:00
2590,Chilli Garlic Express,"Italian, North Indian, Cafe",296,9778947122,12:00 - 01:00,38,True,Open,Buch Ganj,"Ground Floor, Buch Ganj, Kota - 874544",3.7,"[{""code"": ""WEEKEND_2590"", ""min_amount"": 1038, ""discount_amount"": 197, ""description"": ""\u20b9200 off on orders above \u20b91000"", ""payment_method"": null}, {""code"": ""FESTIVAL_2590"", ""min_amount"": 1605, ""discount_amount"": 326, ""description"": ""\u20b9300 off on orders above \u20b91500"", ""payment_method"": null}, {""code"": ""CREDITCARD_2590"", ""min_amount"": 677, ""discount_amount"": 149, ""description"": ""\u20b9150 off on orders above \u20b9750 with Credit Card"", ""payment_method"": ""CreditCard""}, {""code"": ""WELCOME_2590"", ""min_amount"": 477, ""discount_amount"": 100, ""description"": ""\u20b9100 off on orders above \u20b9500"", ""payment_method"": null}, {""code"": ""UPISAVE_2590"", ""min_amount"": 437, ""discount_amount"": 87, ""description"": ""\u20b980 off on orders above \u20b9400 with UPI"", ""payment_method"": ""UPI""}]",25.899108199609188,79.45562099843812,2024-06-18 09:38:35,2025-01-08 18:21:18
2423,Boho Bites,"Ice Cream, Japanese",1286,9220616068,10:00 - 00:00,36,True,Open,Chawla Road,"Third Floor, Chawla Road, Porbandar - 789514",3.7,"[{""code"": ""CASHBACK_2423"", ""min_amount"": 482, ""discount_amount"": 76, ""description"": ""\u20b975 off on Cash payments above \u20b9500"", ""payment_method"": ""Cash""}, {""code"": ""FIRSTORDER_2423"", ""min_amount"": 270, ""discount_amount"": 78, ""description"": ""\u20b975 off on your first order above \u20b9300"", ""payment_method"": null}, {""code"": ""DEBITCARD_2423"", ""min_amount"": 572, ""discount_amount"": 102, ""description"": ""\u20b9100 off on orders above \u20b9600 with Debit Card"", ""payment_method"": ""DebitCard""}]",24.850152328232504,93.19981146623236,2023-07-24 17:16:45,2024-10-09 21:47:20
768,Pasta Mania,"Bakery, Pizza",1344,9992319198,21:00 - 05:00,11,True,Open,Raval Road,"Second Floor, Raval Road, Chandigarh - 549898",3.7,"[{""code"": ""CREDITCARD_768"", ""min_amount"": 792, ""discount_amount"": 145, ""description"": ""\u20b9150 off on orders above \u20b9750 with Credit Card"", ""payment_method"": ""CreditCard""}, {""code"": ""WEEKEND_768"", ""min_amount"": 1002, ""discount_amount"": 218, ""description"": ""\u20b9200 off on orders above \u20b91000"", ""payment_method"": null}, {""code"": ""WELCOME_768"", ""min_amount"": 461, ""discount_amount"": 99, ""description"": ""\u20b9100 off on orders above \u20b9500"", ""payment_method"": null}]",36.95111356002728,84.49660140055407,2024-06-28 23:50:28,2025-03-20 09:43:20
480,Manek Chowk Dhamaka,"Ice Cream, Mexican",1654,9291249556,08:00 - 22:00,8,True,Open,Balan Circle," Balan Circle, Ahmedabad - 639903",3.8,"[{""code"": ""WEEKEND_480"", ""min_amount"": 1033, ""discount_amount"": 199, ""description"": ""\u20b9200 off on orders above \u20b91000"", ""payment_method"": null}, {""code"": ""FIRSTORDER_480"", ""min_amount"": 307, ""discount_amount"": 76, ""description"": ""\u20b975 off on your first order above \u20b9300"", ""payment_method"": null}, {""code"": ""DEBITCARD_480"", ""min_amount"": 605, ""discount_amount"": 95, ""description"": ""\u20b9100 off on orders above \u20b9600 with Debit Card"", ""payment_method"": ""DebitCard""}, {""code"": ""SPECIAL_480"", ""min_amount"": 755, ""discount_amount"": 163, ""description"": ""\u20b9150 off on orders above \u20b9800"", ""payment_method"": null}, {""code"": ""CASHBACK_480"", ""min_amount"": 539, ""discount_amount"": 78, ""description"": ""\u20b975 off on Cash payments above \u20b9500"", ""payment_method"": ""Cash""}]",15.253700976232196,78.65549278873841,2024-07-03 15:25:28,2025-01-27 11:40:40
2103,Stir Fry & More,"Desserts, Beverages, North Indian",1618,9774386584,15:00 - 07:00,30,True,Open,Grover Path,"Second Floor, Grover Path, Amritsar - 354098",3.8,"[{""code"": ""WEEKEND_2103"", ""min_amount"": 1071, ""discount_amount"": 205, ""description"": ""\u20b9200 off on orders above \u20b91000"", ""payment_method"": null}, {""code"": ""UPISAVE_2103"", ""min_amount"": 373, ""discount_amount"": 82, ""description"": ""\u20b980 off on orders above \u20b9400 with UPI"", ""payment_method"": ""UPI""}, {""code"": ""CASHBACK_2103"", ""min_amount"": 465, ""discount_amount"": 72, ""description"": ""\u20b975 off on Cash payments above \u20b9500"", ""payment_method"": ""Cash""}, {""code"": ""WELCOME_2103"", ""min_amount"": 460, ""discount_amount"": 105, ""description"": ""\u20b9100 off on orders above \u20b9500"", ""payment_method"": null}]",9.324549547642151,77.14367888881353,2024-04-11 12:00:06,2024-08-09 00:03:26
1748,Khichdi Khaas,Mughlai,676,9482334664,11:00 - 22:00,26,True,Open,Tara Path,"Second Floor, Tara Path, Varanasi - 489201",3.7,"[{""code"": ""CASHBACK_1748"", ""min_amount"": 505, ""discount_amount"": 70, ""description"": ""\u20b975 off on Cash payments above \u20b9500"", ""payment_method"": ""Cash""}, {""code"": ""WELCOME_1748"", ""min_amount"": 515, ""discount_amount"": 94, ""description"": ""\u20b9100 off on orders above \u20b9500"", ""payment_method"": null}, {""code"": ""CREDITCARD_1748"", ""min_amount"": 823, ""discount_amount"": 136, ""description"": ""\u20b9150 off on orders above \u20b9750 with Credit Card"", ""payment_method"": ""CreditCard""}]",24.511675285752556,71.58691069928359,2023-08-19 17:30:15,2025-03-23 16:16:43
1269,Satori Bistro,"North Indian, Burger",1604,9686902465,12:00 - 04:00,18,True,Open,Manne Nagar,"Ground Floor, Manne Nagar, Patna - 508382",3.8,"[{""code"": ""UPISAVE_1269"", ""min_amount"": 371, ""discount_amount"": 87, ""description"": ""\u20b980 off on orders above \u20b9400 with UPI"", ""payment_method"": ""UPI""}, {""code"": ""DEBITCARD_1269"", ""min_amount"": 639, ""discount_amount"": 93, ""description"": ""\u20b9100 off on orders above \u20b9600 with Debit Card"", ""payment_method"": ""DebitCard""}, {""code"": ""WEEKEND_1269"", ""min_amount"": 900, ""discount_amount"": 185, ""description"": ""\u20b9200 off on orders above \u20b91000"", ""payment_method"": null}]",11.3156894416554,89.50918665063088,2023-09-08 20:15:51,2025-03-05 12:06:46
2355,Nagpuri Saoji,North Indian,1039,9366305690,19:00 - 07:00,35,True,Open,Gour Circle,"Second Floor, Gour Circle, Gandhinagar - 845911",3.8,"[{""code"": ""CREDITCARD_2355"", ""min_amount"": 766, ""discount_amount"": 154, ""description"": ""\u20b9150 off on orders above \u20b9750 with Credit Card"", ""payment_method"": ""CreditCard""}, {""code"": ""SPECIAL_2355"", ""min_amount"": 739, ""discount_amount"": 152, ""description"": ""\u20b9150 off on orders above \u20b9800"", ""payment_method"": null}, {""code"": ""CASHBACK_2355"", ""min_amount"": 500, ""discount_amount"": 77, ""description"": ""\u20b975 off on Cash payments above \u20b9500"", ""payment_method"": ""Cash""}, {""code"": ""FIRSTORDER_2355"", ""min_amount"": 321, ""discount_amount"": 68, ""description"": ""\u20b975 off on your first order above \u20b9300"", ""payment_method"": null}]",15.267920612098564,79.6757213705505,2022-07-21 02:53:31,2023-10-07 13:15:58
1475,Thread & Toast,Chinese,379,9428364437,19:00 - 06:00,22,True,Open,Bhalla Road,"Ground Floor, Bhalla Road, Nashik - 240889",3.8,"[{""code"": ""DEBITCARD_1475"", ""min_amount"": 627, ""discount_amount"": 96, ""description"": ""\u20b9100 off on orders above \u20b9600 with Debit Card"", ""payment_method"": ""DebitCard""}, {""code"": ""WEEKEND_1475"", ""min_amount"": 1094, ""discount_amount"": 215, ""description"": ""\u20b9200 off on orders above \u20b91000"", ""payment_method"": null}, {""code"": ""SPECIAL_1475"", ""min_amount"": 827, ""discount_amount"": 135, ""description"": ""\u20b9150 off on orders above \u20b9800"", ""payment_method"": null}, {""code"": ""WELCOME_1475"", ""min_amount"": 473, ""discount_amount"": 108, ""description"": ""\u20b9100 off on orders above \u20b9500"", ""payment_method"": null}, {""code"": ""FESTIVAL_1475"", ""min_amount"": 1378, ""discount_amount"": 318, ""description"": ""\u20b9300 off on orders above \u20b91500"", ""payment_method"": null}]",34.61183588558098,97.14469622317972,2021-07-14 23:44:21,2022-08-18 17:19:00
1967,Bhavnagari Zaika,"Burger, Continental",1031,9776095938,16:00 - 00:00,29,True,Open,Tata,"Second Floor, Tata, Dhanbad - 413445",4.0,"[{""code"": ""WELCOME_1967"", ""min_amount"": 451, ""discount_amount"": 98, ""description"": ""\u20b9100 off on orders above \u20b9500"", ""payment_method"": null}, {""code"": ""SPECIAL_1967"", ""min_amount"": 854, ""discount_amount"": 145, ""description"": ""\u20b9150 off on orders above \u20b9800"", ""payment_method"": null}, {""code"": ""FESTIVAL_1967"", ""min_amount"": 1446, ""discount_amount"": 305, ""description"": ""\u20b9300 off on orders above \u20b91500"", ""payment_method"": null}, {""code"": ""WEEKEND_1967"", ""min_amount"": 1022, ""discount_amount"": 218, ""description"": ""\u20b9200 off on orders above \u20b91000"", ""payment_method"": null}]",15.754562730444796,93.95188248345713,2025-04-01 16:13:11,2025-04-15 20:47:07
299,Tandoor Mahal,"Pizza, Fast Food",375,9111081272,16:00 - 06:00,5,True,Open,Merchant Ganj,"First Floor, Merchant Ganj, Chennai - 681858",3.7,"[{""code"": ""FIRSTORDER_299"", ""min_amount"": 273, ""discount_amount"": 81, ""description"": ""\u20b975 off on your first order above \u20b9300"", ""payment_method"": null}, {""code"": ""SPECIAL_299"", ""min_amount"": 795, ""discount_amount"": 145, ""description"": ""\u20b9150 off on orders above \u20b9800"", ""payment_method"": null}, {""code"": ""WELCOME_299"", ""min_amount"": 510, ""discount_amount"": 103, ""description"": ""\u20b9100 off on orders above \u20b9500"", ""payment_method"": null}, {""code"": ""CASHBACK_299"", ""min_amount"": 530, ""discount_amount"": 78, ""description"": ""\u20b975 off on Cash payments above \u20b9500"", ""payment_method"": ""Cash""}, {""code"": ""DEBITCARD_299"", ""min_amount"": 637, ""discount_amount"": 90, ""description"": ""\u20b9100 off on orders above \u20b9600 with Debit Card"", ""payment_method"": ""DebitCard""}]",29.229409712538622,88.92633790809629,2024-08-26 14:57:00,2025-02-01 03:55:35
507,Haveli Zaika,Cafe,584,9147510841,13:00 - 22:00,8,False,Closed,Barad Ganj,"Second Floor, Barad Ganj, Ahmedabad - 639903",3.8,"[{""code"": ""FIRSTORDER_507"", ""min_amount"": 310, ""discount_amount"": 74, ""description"": ""\u20b975 off on your first order above \u20b9300"", ""payment_method"": null}, {""code"": ""CASHBACK_507"", ""min_amount"": 476, ""discount_amount"": 81, ""description"": ""\u20b975 off on Cash payments above \u20b9500"", ""payment_method"": ""Cash""}, {""code"": ""FESTIVAL_507"", ""min_amount"": 1403, ""discount_amount"": 293, ""description"": ""\u20b9300 off on orders above \u20b91500"", ""payment_method"": null}]",19.61474280579472,73.83544967140301,2023-11-16 00:11:15,2025-01-19 10:04:18
2438,Thepla House Express,Fast Food,1144,9910141437,00:00 - 12:00,36,True,Open,Dhingra Street,"Third Floor, Dhingra Street, Porbandar - 789514",3.7,"[{""code"": ""DEBITCARD_2438"", ""min_amount"": 629, ""discount_amount"": 90, ""description"": ""\u20b9100 off on orders above \u20b9600 with Debit Card"", ""payment_method"": ""DebitCard""}, {""code"": ""FIRSTORDER_2438"", ""min_amount"": 302, ""discount_amount"": 80, ""description"": ""\u20b975 off on your first order above \u20b9300"", ""payment_method"": null}, {""code"": ""UPISAVE_2438"", ""min_amount"": 376, ""discount_amount"": 86, ""description"": ""\u20b980 off on orders above \u20b9400 with UPI"", ""payment_method"": ""UPI""}, {""code"": ""WELCOME_2438"", ""min_amount"": 546, ""discount_amount"": 94, ""description"": ""\u20b9100 off on orders above \u20b9500"", ""payment_method"": null}, {""code"": ""FESTIVAL_2438"", ""min_amount"": 1607, ""discount_amount"": 321, ""description"": ""\u20b9300 off on orders above \u20b91500"", ""payment_method"": null}]",8.976080269705113,75.01094761827088,2025-04-13 19:22:21,2025-04-14 08:52:12
569,Flavors of India,Fast Food,463,9811851133,18:00 - 03:00,9,False,Closed,Agrawal Road,"Ground Floor, Agrawal Road, Jaipur - 698508",3.8,"[{""code"": ""WEEKEND_569"", ""min_amount"": 1088, ""discount_amount"": 190, ""description"": ""\u20b9200 off on orders above \u20b91000"", ""payment_method"": null}, {""code"": ""CREDITCARD_569"", ""min_amount"": 777, ""discount_amount"": 162, ""description"": ""\u20b9150 off on orders above \u20b9750 with Credit Card"", ""payment_method"": ""CreditCard""}, {""code"": ""SPECIAL_569"", ""min_amount"": 783, ""discount_amount"": 151, ""description"": ""\u20b9150 off on orders above \u20b9800"", ""payment_method"": null}]",13.040575947945866,91.2884758341888,2024-10-28 17:35:13,2024-12-30 00:23:35
2461,The Still Room,"Continental, Mughlai",562,9581813887,20:00 - 08:00,36,False,Closed,Peri Ganj,"Second Floor, Peri Ganj, Porbandar - 789514",3.6,"[{""code"": ""WELCOME_2461"", ""min_amount"": 514, ""discount_amount"": 91, ""description"": ""\u20b9100 off on orders above \u20b9500"", ""payment_method"": null}, {""code"": ""DEBITCARD_2461"", ""min_amount"": 640, ""discount_amount"": 107, ""description"": ""\u20b9100 off on orders above \u20b9600 with Debit Card"", ""payment_method"": ""DebitCard""}, {""code"": ""FESTIVAL_2461"", ""min_amount"": 1639, ""discount_amount"": 281, ""description"": ""\u20b9300 off on orders above \u20b91500"", ""payment_method"": null}, {""code"": ""UPISAVE_2461"", ""min_amount"": 393, ""discount_amount"": 83, ""description"": ""\u20b980 off on orders above \u20b9400 with UPI"", ""payment_method"": ""UPI""}, {""code"": ""WEEKEND_2461"", ""min_amount"": 959, ""discount_amount"": 213, ""description"": ""\u20b9200 off on orders above \u20b91000"", ""payment_method"": null}]",18.645685228362694,95.50442428633173,2022-07-26 16:13:16,2023-09-10 10:11:55
472,La Tavola,"Cafe, Thai, Fast Food",1810,9549737015,11:00 - 03:00,8,False,Closed,Brahmbhatt Nagar,"First Floor, Brahmbhatt Nagar, Ahmedabad - 639903",3.9,"[{""code"": ""WEEKEND_472"", ""min_amount"": 962, ""discount_amount"": 183, ""description"": ""\u20b9200 off on orders above \u20b91000"", ""payment_method"": null}, {""code"": ""FIRSTORDER_472"", ""min_amount"": 295, ""discount_amount"": 82, ""description"": ""\u20b975 off on your first order above \u20b9300"", ""payment_method"": null}, {""code"": ""DEBITCARD_472"", ""min_amount"": 609, ""discount_amount"": 102, ""description"": ""\u20b9100 off on orders above \u20b9600 with Debit Card"", ""payment_method"": ""DebitCard""}, {""code"": ""CASHBACK_472"", ""min_amount"": 527, ""discount_amount"": 80, ""description"": ""\u20b975 off on Cash payments above \u20b9500"", ""payment_method"": ""Cash""}, {""code"": ""CREDITCARD_472"", ""min_amount"": 806, ""discount_amount"": 135, ""description"": ""\u20b9150 off on orders above \u20b9750 with Credit Card"", ""payment_method"": ""CreditCard""}]",31.07228952758431,80.33747790862398,2023-02-16 23:03:29,2025-01-08 02:20:52
1427,Tamil Nadu Kitchen,"Desserts, Beverages, Lebanese",1184,9398601247,13:00 - 01:00,21,True,Open,Lal,"Second Floor, Lal, Agra - 875179",4.0,"[{""code"": ""CASHBACK_1427"", ""min_amount"": 526, ""discount_amount"": 76, ""description"": ""\u20b975 off on Cash payments above \u20b9500"", ""payment_method"": ""Cash""}, {""code"": ""FESTIVAL_1427"", ""min_amount"": 1480, ""discount_amount"": 284, ""description"": ""\u20b9300 off on orders above \u20b91500"", ""payment_method"": null}, {""code"": ""DEBITCARD_1427"", ""min_amount"": 611, ""discount_amount"": 103, ""description"": ""\u20b9100 off on orders above \u20b9600 with Debit Card"", ""payment_method"": ""DebitCard""}, {""code"": ""CREDITCARD_1427"", ""min_amount"": 752, ""discount_amount"": 155, ""description"": ""\u20b9150 off on orders above \u20b9750 with Credit Card"", ""payment_method"": ""CreditCard""}, {""code"": ""SPECIAL_1427"", ""min_amount"": 807, ""discount_amount"": 148, ""description"": ""\u20b9150 off on orders above \u20b9800"", ""payment_method"": null}]",33.16824455615576,76.05611252316464,2024-07-06 23:34:09,2025-04-10 04:30:29
332,Meadow & Vine,Thai,1721,9121240400,20:00 - 07:00,5,True,Open,Agate Zila,"Ground Floor, Agate Zila, Chennai - 681858",3.8,"[{""code"": ""FESTIVAL_332"", ""min_amount"": 1434, ""discount_amount"": 324, ""description"": ""\u20b9300 off on orders above \u20b91500"", ""payment_method"": null}, {""code"": ""CASHBACK_332"", ""min_amount"": 520, ""discount_amount"": 70, ""description"": ""\u20b975 off on Cash payments above \u20b9500"", ""payment_method"": ""Cash""}, {""code"": ""UPISAVE_332"", ""min_amount"": 375, ""discount_amount"": 85, ""description"": ""\u20b980 off on orders above \u20b9400 with UPI"", ""payment_method"": ""UPI""}, {""code"": ""WEEKEND_332"", ""min_amount"": 979, ""discount_amount"": 214, ""description"": ""\u20b9200 off on orders above \u20b91000"", ""payment_method"": null}, {""code"": ""WELCOME_332"", ""min_amount"": 506, ""discount_amount"": 99, ""description"": ""\u20b9100 off on orders above \u20b9500"", ""payment_method"": null}]",32.23540006214773,86.55050373640468,2022-12-03 15:02:39,2023-03-11 09:48:27
842,Ghar ni Rasoi,"Chinese, South Indian",782,9275122081,19:00 - 04:00,12,True,Open,Kibe Zila,"Second Floor, Kibe Zila, Bhopal - 727889",3.9,"[{""code"": ""SPECIAL_842"", ""min_amount"": 744, ""discount_amount"": 157, ""description"": ""\u20b9150 off on orders above \u20b9800"", ""payment_method"": null}, {""code"": ""CASHBACK_842"", ""min_amount"": 508, ""discount_amount"": 76, ""description"": ""\u20b975 off on Cash payments above \u20b9500"", ""payment_method"": ""Cash""}, {""code"": ""FESTIVAL_842"", ""min_amount"": 1533, ""discount_amount"": 304, ""description"": ""\u20b9300 off on orders above \u20b91500"", ""payment_method"": null}, {""code"": ""FIRSTORDER_842"", ""min_amount"": 301, ""discount_amount"": 77, ""description"": ""\u20b975 off on your first order above \u20b9300"", ""payment_method"": null}, {""code"": ""DEBITCARD_842"", ""min_amount"": 601, ""discount_amount"": 93, ""description"": ""\u20b9100 off on orders above \u20b9600 with Debit Card"", ""payment_method"": ""DebitCard""}]",29.79597655668444,95.4702188819001,2024-04-11 08:26:16,2024-10-28 07:47:06
1625,Ambrosia Fusion,"Mexican, Street Food, Japanese",1720,9372992265,18:00 - 09:00,24,True,Open,Sheth Road,"Ground Floor, Sheth Road, Meerut - 417419",3.8,"[{""code"": ""UPISAVE_1625"", ""min_amount"": 401, ""discount_amount"": 72, ""description"": ""\u20b980 off on orders above \u20b9400 with UPI"", ""payment_method"": ""UPI""}, {""code"": ""WEEKEND_1625"", ""min_amount"": 948, ""discount_amount"": 206, ""description"": ""\u20b9200 off on orders above \u20b91000"", ""payment_method"": null}, {""code"": ""FIRSTORDER_1625"", ""min_amount"": 329, ""discount_amount"": 77, ""description"": ""\u20b975 off on your first order above \u20b9300"", ""payment_method"": null}]",31.76738424581294,87.0359263241953,2023-06-13 19:15:51,2024-09-01 07:16:44
1922,The Test Kitchen,"Japanese, Continental, Beverages",369,9785714723,21:00 - 11:00,28,True,Open,Krishnan Road,"Third Floor, Krishnan Road, Aurangabad - 803384",3.8,"[{""code"": ""UPISAVE_1922"", ""min_amount"": 374, ""discount_amount"": 77, ""description"": ""\u20b980 off on orders above \u20b9400 with UPI"", ""payment_method"": ""UPI""}, {""code"": ""FESTIVAL_1922"", ""min_amount"": 1460, ""discount_amount"": 329, ""description"": ""\u20b9300 off on orders above \u20b91500"", ""payment_method"": null}, {""code"": ""WEEKEND_1922"", ""min_amount"": 1041, ""discount_amount"": 201, ""description"": ""\u20b9200 off on orders above \u20b91000"", ""payment_method"": null}]",16.417933047680158,70.59233611295647,2023-10-25 13:26:13,2023-11-12 07:13:31
1160,Wisteria & Co.,"Beverages, Thai",1734,9959229769,12:00 - 21:00,17,True,Open,Ravel Nagar," Ravel Nagar, Nagpur - 462944",3.9,"[{""code"": ""SPECIAL_1160"", ""min_amount"": 762, ""discount_amount"": 139, ""description"": ""\u20b9150 off on orders above \u20b9800"", ""payment_method"": null}, {""code"": ""WEEKEND_1160"", ""min_amount"": 983, ""discount_amount"": 207, ""description"": ""\u20b9200 off on orders above \u20b91000"", ""payment_method"": null}, {""code"": ""FESTIVAL_1160"", ""min_amount"": 1630, ""discount_amount"": 325, ""description"": ""\u20b9300 off on orders above \u20b91500"", ""payment_method"": null}, {""code"": ""FIRSTORDER_1160"", ""min_amount"": 318, ""discount_amount"": 67, ""description"": ""\u20b975 off on your first order above \u20b9300"", ""payment_method"": null}, {""code"": ""CREDITCARD_1160"", ""min_amount"": 820, ""discount_amount"": 162, ""description"": ""\u20b9150 off on orders above \u20b9750 with Credit Card"", ""payment_method"": ""CreditCard""}]",30.06588826204539,73.94640690060335,2023-06-01 13:07:19,2024-09-05 17:03:50
830,Brick & Brew,"Japanese, Beverages",416,9768188021,19:00 - 07:00,12,True,Open,Mammen Chowk,"Ground Floor, Mammen Chowk, Bhopal - 727889",3.8,"[{""code"": ""CASHBACK_830"", ""min_amount"": 528, ""discount_amount"": 74, ""description"": ""\u20b975 off on Cash payments above \u20b9500"", ""payment_method"": ""Cash""}, {""code"": ""UPISAVE_830"", ""min_amount"": 371, ""discount_amount"": 80, ""description"": ""\u20b980 off on orders above \u20b9400 with UPI"", ""payment_method"": ""UPI""}, {""code"": ""SPECIAL_830"", ""min_amount"": 868, ""discount_amount"": 140, ""description"": ""\u20b9150 off on orders above \u20b9800"", ""payment_method"": null}]",19.68046647984545,86.96682586232845,2024-12-01 21:02:26,2025-04-08 00:24:18
197,Khichdi Junction,Mediterranean,1013,9210605413,13:00 - 05:00,4,True,Open,Kumer Path,"Ground Floor, Kumer Path, Hyderabad - 217473",3.7,"[{""code"": ""SPECIAL_197"", ""min_amount"": 744, ""discount_amount"": 154, ""description"": ""\u20b9150 off on orders above \u20b9800"", ""payment_method"": null}, {""code"": ""FIRSTORDER_197"", ""min_amount"": 323, ""discount_amount"": 72, ""description"": ""\u20b975 off on your first order above \u20b9300"", ""payment_method"": null}, {""code"": ""UPISAVE_197"", ""min_amount"": 379, ""discount_amount"": 76, ""description"": ""\u20b980 off on orders above \u20b9400 with UPI"", ""payment_method"": ""UPI""}]",9.16985547029424,80.03470746770284,2022-12-07 06:45:00,2024-12-23 01:56:34
2634,Masala Dosa House,Mexican,1300,9223791051,01:00 - 15:00,38,True,Open,Bhatt,"Ground Floor, Bhatt, Kota - 874544",3.6,"[{""code"": ""WEEKEND_2634"", ""min_amount"": 930, ""discount_amount"": 211, ""description"": ""\u20b9200 off on orders above \u20b91000"", ""payment_method"": null}, {""code"": ""DEBITCARD_2634"", ""min_amount"": 608, ""discount_amount"": 109, ""description"": ""\u20b9100 off on orders above \u20b9600 with Debit Card"", ""payment_method"": ""DebitCard""}, {""code"": ""SPECIAL_2634"", ""min_amount"": 777, ""discount_amount"": 148, ""description"": ""\u20b9150 off on orders above \u20b9800"", ""payment_method"": null}, {""code"": ""FIRSTORDER_2634"", ""min_amount"": 280, ""discount_amount"": 80, ""description"": ""\u20b975 off on your first order above \u20b9300"", ""payment_method"": null}, {""code"": ""UPISAVE_2634"", ""min_amount"": 417, ""discount_amount"": 80, ""description"": ""\u20b980 off on orders above \u20b9400 with UPI"", ""payment_method"": ""UPI""}]",16.428567562076154,85.0818372861255,2023-10-19 00:14:30,2024-12-12 21:45:20
31,Bhature Bhavan,"Ice Cream, Cafe, Fast Food",364,9742136977,09:00 - 22:00,1,True,Open,Agate Circle," Agate Circle, Delhi - 780487",3.5,"[{""code"": ""WELCOME_31"", ""min_amount"": 497, ""discount_amount"": 103, ""description"": ""\u20b9100 off on orders above \u20b9500"", ""payment_method"": null}, {""code"": ""FIRSTORDER_31"", ""min_amount"": 324, ""discount_amount"": 70, ""description"": ""\u20b975 off on your first order above \u20b9300"", ""payment_method"": null}, {""code"": ""UPISAVE_31"", ""min_amount"": 406, ""discount_amount"": 82, ""description"": ""\u20b980 off on orders above \u20b9400 with UPI"", ""payment_method"": ""UPI""}, {""code"": ""CASHBACK_31"", ""min_amount"": 499, ""discount_amount"": 68, ""description"": ""\u20b975 off on Cash payments above \u20b9500"", ""payment_method"": ""Cash""}, {""code"": ""SPECIAL_31"", ""min_amount"": 775, ""discount_amount"": 144, ""description"": ""\u20b9150 off on orders above \u20b9800"", ""payment_method"": null}]",15.710742750430516,71.30738261331463,2025-03-30 08:13:17,2025-04-12 05:02:44
1992,The Idli House,Italian,927,9587913879,18:00 - 10:00,29,True,Open,Iyer Circle,"First Floor, Iyer Circle, Dhanbad - 413445",3.7,"[{""code"": ""SPECIAL_1992"", ""min_amount"": 722, ""discount_amount"": 148, ""description"": ""\u20b9150 off on orders above \u20b9800"", ""payment_method"": null}, {""code"": ""DEBITCARD_1992"", ""min_amount"": 656, ""discount_amount"": 93, ""description"": ""\u20b9100 off on orders above \u20b9600 with Debit Card"", ""payment_method"": ""DebitCard""}, {""code"": ""CREDITCARD_1992"", ""min_amount"": 796, ""discount_amount"": 144, ""description"": ""\u20b9150 off on orders above \u20b9750 with Credit Card"", ""payment_method"": ""CreditCard""}, {""code"": ""CASHBACK_1992"", ""min_amount"": 461, ""discount_amount"": 69, ""description"": ""\u20b975 off on Cash payments above \u20b9500"", ""payment_method"": ""Cash""}]",28.01753456346141,91.29598675624564,2025-02-18 11:32:08,2025-04-18 16:22:47
1097,Tandoori Momos,Mughlai,1213,9939552941,20:00 - 08:00,16,True,Open,Banik Marg,"Third Floor, Banik Marg, Surat - 335772",3.9,"[{""code"": ""DEBITCARD_1097"", ""min_amount"": 626, ""discount_amount"": 100, ""description"": ""\u20b9100 off on orders above \u20b9600 with Debit Card"", ""payment_method"": ""DebitCard""}, {""code"": ""UPISAVE_1097"", ""min_amount"": 399, ""discount_amount"": 75, ""description"": ""\u20b980 off on orders above \u20b9400 with UPI"", ""payment_method"": ""UPI""}, {""code"": ""WEEKEND_1097"", ""min_amount"": 1029, ""discount_amount"": 190, ""description"": ""\u20b9200 off on orders above \u20b91000"", ""payment_method"": null}, {""code"": ""WELCOME_1097"", ""min_amount"": 487, ""discount_amount"": 95, ""description"": ""\u20b9100 off on orders above \u20b9500"", ""payment_method"": null}]",36.02428277559342,96.13743765361892,2024-11-14 15:40:31,2025-01-11 13:49:45
784,Cheesy Pizza House,Chinese,1210,9328187922,04:00 - 16:00,12,True,Open,Varma Path,"First Floor, Varma Path, Bhopal - 727889",3.6,"[{""code"": ""UPISAVE_784"", ""min_amount"": 406, ""discount_amount"": 82, ""description"": ""\u20b980 off on orders above \u20b9400 with UPI"", ""payment_method"": ""UPI""}, {""code"": ""FIRSTORDER_784"", ""min_amount"": 309, ""discount_amount"": 76, ""description"": ""\u20b975 off on your first order above \u20b9300"", ""payment_method"": null}, {""code"": ""SPECIAL_784"", ""min_amount"": 844, ""discount_amount"": 141, ""description"": ""\u20b9150 off on orders above \u20b9800"", ""payment_method"": null}]",34.64624325202375,73.94306169272633,2024-02-15 04:35:30,2025-04-07 03:02:21
2105,Risotto Delight,"Street Food, Ice Cream",1425,9358126932,20:00 - 07:00,30,True,Open,Sharma Road,"First Floor, Sharma Road, Amritsar - 354098",3.7,"[{""code"": ""SPECIAL_2105"", ""min_amount"": 755, ""discount_amount"": 145, ""description"": ""\u20b9150 off on orders above \u20b9800"", ""payment_method"": null}, {""code"": ""DEBITCARD_2105"", ""min_amount"": 631, ""discount_amount"": 102, ""description"": ""\u20b9100 off on orders above \u20b9600 with Debit Card"", ""payment_method"": ""DebitCard""}, {""code"": ""FIRSTORDER_2105"", ""min_amount"": 312, ""discount_amount"": 69, ""description"": ""\u20b975 off on your first order above \u20b9300"", ""payment_method"": null}, {""code"": ""WEEKEND_2105"", ""min_amount"": 1010, ""discount_amount"": 198, ""description"": ""\u20b9200 off on orders above \u20b91000"", ""payment_method"": null}]",18.07970180963359,93.35855905834303,2021-06-24 12:59:24,2022-11-02 22:10:15
2393,Zunka Bhakar Thali,Desserts,1848,9656115681,16:00 - 02:00,35,True,Open,Mitra Path,"Second Floor, Mitra Path, Gandhinagar - 845911",3.9,"[{""code"": ""CASHBACK_2393"", ""min_amount"": 504, ""discount_amount"": 72, ""description"": ""\u20b975 off on Cash payments above \u20b9500"", ""payment_method"": ""Cash""}, {""code"": ""UPISAVE_2393"", ""min_amount"": 411, ""discount_amount"": 76, ""description"": ""\u20b980 off on orders above \u20b9400 with UPI"", ""payment_method"": ""UPI""}, {""code"": ""WEEKEND_2393"", ""min_amount"": 1047, ""discount_amount"": 186, ""description"": ""\u20b9200 off on orders above \u20b91000"", ""payment_method"": null}, {""code"": ""FESTIVAL_2393"", ""min_amount"": 1376, ""discount_amount"": 277, ""description"": ""\u20b9300 off on orders above \u20b91500"", ""payment_method"": null}]",10.4693151328128,82.80984200954029,2025-01-27 01:34:24,2025-04-12 04:11:44
1928,Gnocchi Junction,"Fast Food, Street Food",614,9972349799,21:00 - 09:00,28,True,Open,Ratta Zila,"Ground Floor, Ratta Zila, Aurangabad - 803384",4.0,"[{""code"": ""CREDITCARD_1928"", ""min_amount"": 745, ""discount_amount"": 159, ""description"": ""\u20b9150 off on orders above \u20b9750 with Credit Card"", ""payment_method"": ""CreditCard""}, {""code"": ""SPECIAL_1928"", ""min_amount"": 851, ""discount_amount"": 154, ""description"": ""\u20b9150 off on orders above \u20b9800"", ""payment_method"": null}, {""code"": ""WELCOME_1928"", ""min_amount"": 455, ""discount_amount"": 106, ""description"": ""\u20b9100 off on orders above \u20b9500"", ""payment_method"": null}]",36.095555034220986,74.71888315828929,2021-10-19 13:12:59,2021-10-30 02:20:34
1534,Noodle & Rice Corner,"Street Food, Beverages",1952,9667324307,10:00 - 23:00,23,True,Open,Ganguly Ganj,"Second Floor, Ganguly Ganj, Faridabad - 506922",3.8,"[{""code"": ""SPECIAL_1534"", ""min_amount"": 752, ""discount_amount"": 164, ""description"": ""\u20b9150 off on orders above \u20b9800"", ""payment_method"": null}, {""code"": ""UPISAVE_1534"", ""min_amount"": 420, ""discount_amount"": 85, ""description"": ""\u20b980 off on orders above \u20b9400 with UPI"", ""payment_method"": ""UPI""}, {""code"": ""WEEKEND_1534"", ""min_amount"": 1002, ""discount_amount"": 184, ""description"": ""\u20b9200 off on orders above \u20b91000"", ""payment_method"": null}, {""code"": ""FESTIVAL_1534"", ""min_amount"": 1568, ""discount_amount"": 329, ""description"": ""\u20b9300 off on orders above \u20b91500"", ""payment_method"": null}]",30.258082956045136,89.6798802404096,2025-03-31 21:44:25,2025-04-08 04:22:28
2272,Latitude Kitchen,"Thai, Fast Food",474,9207234815,20:00 - 12:00,34,True,Open,Dada Zila," Dada Zila, Nadiad - 329684",3.9,"[{""code"": ""WELCOME_2272"", ""min_amount"": 527, ""discount_amount"": 108, ""description"": ""\u20b9100 off on orders above \u20b9500"", ""payment_method"": null}, {""code"": ""FIRSTORDER_2272"", ""min_amount"": 311, ""discount_amount"": 68, ""description"": ""\u20b975 off on your first order above \u20b9300"", ""payment_method"": null}, {""code"": ""FESTIVAL_2272"", ""min_amount"": 1618, ""discount_amount"": 279, ""description"": ""\u20b9300 off on orders above \u20b91500"", ""payment_method"": null}, {""code"": ""CASHBACK_2272"", ""min_amount"": 491, ""discount_amount"": 73, ""description"": ""\u20b975 off on Cash payments above \u20b9500"", ""payment_method"": ""Cash""}]",14.691480986738934,78.57329624714853,2023-08-03 21:09:23,2025-02-08 07:01:06
2754,Woodfire Pizza Junction,"Ice Cream, Thai",1007,9713225098,20:00 - 11:00,40,True,Open,Menon Road,"Ground Floor, Menon Road, Hubli - 781088",4.1,"[{""code"": ""SPECIAL_2754"", ""min_amount"": 725, ""discount_amount"": 156, ""description"": ""\u20b9150 off on orders above \u20b9800"", ""payment_method"": null}, {""code"": ""CREDITCARD_2754"", ""min_amount"": 715, ""discount_amount"": 138, ""description"": ""\u20b9150 off on orders above \u20b9750 with Credit Card"", ""payment_method"": ""CreditCard""}, {""code"": ""UPISAVE_2754"", ""min_amount"": 427, ""discount_amount"": 74, ""description"": ""\u20b980 off on orders above \u20b9400 with UPI"", ""payment_method"": ""UPI""}]",29.76385127962849,86.76418940453597,2025-04-10 15:07:50,2025-04-22 19:38:57
1834,Feather & Flame,"Mughlai, North Indian, Continental",694,9361630937,12:00 - 02:00,27,True,Open,Madan Nagar,"First Floor, Madan Nagar, Srinagar - 848797",3.9,"[{""code"": ""WELCOME_1834"", ""min_amount"": 545, ""discount_amount"": 96, ""description"": ""\u20b9100 off on orders above \u20b9500"", ""payment_method"": null}, {""code"": ""DEBITCARD_1834"", ""min_amount"": 641, ""discount_amount"": 107, ""description"": ""\u20b9100 off on orders above \u20b9600 with Debit Card"", ""payment_method"": ""DebitCard""}, {""code"": ""UPISAVE_1834"", ""min_amount"": 377, ""discount_amount"": 85, ""description"": ""\u20b980 off on orders above \u20b9400 with UPI"", ""payment_method"": ""UPI""}, {""code"": ""CASHBACK_1834"", ""min_amount"": 451, ""discount_amount"": 70, ""description"": ""\u20b975 off on Cash payments above \u20b9500"", ""payment_method"": ""Cash""}, {""code"": ""FESTIVAL_1834"", ""min_amount"": 1612, ""discount_amount"": 287, ""description"": ""\u20b9300 off on orders above \u20b91500"", ""payment_method"": null}]",11.824549277648822,88.76989969390124,2024-04-24 13:34:37,2024-05-03 07:24:13
1226,Dhokla Tandoor,"Chinese, Thai, Street Food",243,9475054281,19:00 - 07:00,18,True,Open,Mohan Path," Mohan Path, Patna - 508382",3.8,"[{""code"": ""UPISAVE_1226"", ""min_amount"": 415, ""discount_amount"": 85, ""description"": ""\u20b980 off on orders above \u20b9400 with UPI"", ""payment_method"": ""UPI""}, {""code"": ""SPECIAL_1226"", ""min_amount"": 770, ""discount_amount"": 149, ""description"": ""\u20b9150 off on orders above \u20b9800"", ""payment_method"": null}, {""code"": ""WEEKEND_1226"", ""min_amount"": 924, ""discount_amount"": 217, ""description"": ""\u20b9200 off on orders above \u20b91000"", ""payment_method"": null}]",36.461141617705735,95.29719709312704,2023-11-09 22:23:49,2024-09-07 21:12:44
1940,Grove Kitchen,"Thai, Italian, Mediterranean",1134,9567837587,07:00 - 18:00,28,True,Open,Kata Zila,"Second Floor, Kata Zila, Aurangabad - 803384",3.8,"[{""code"": ""WEEKEND_1940"", ""min_amount"": 1065, ""discount_amount"": 212, ""description"": ""\u20b9200 off on orders above \u20b91000"", ""payment_method"": null}, {""code"": ""FIRSTORDER_1940"", ""min_amount"": 302, ""discount_amount"": 69, ""description"": ""\u20b975 off on your first order above \u20b9300"", ""payment_method"": null}, {""code"": ""CASHBACK_1940"", ""min_amount"": 537, ""discount_amount"": 77, ""description"": ""\u20b975 off on Cash payments above \u20b9500"", ""payment_method"": ""Cash""}, {""code"": ""SPECIAL_1940"", ""min_amount"": 860, ""discount_amount"": 159, ""description"": ""\u20b9150 off on orders above \u20b9800"", ""payment_method"": null}, {""code"": ""DEBITCARD_1940"", ""min_amount"": 577, ""discount_amount"": 99, ""description"": ""\u20b9100 off on orders above \u20b9600 with Debit Card"", ""payment_method"": ""DebitCard""}]",26.114111381438363,84.13579372605642,2023-07-05 21:09:40,2024-09-26 18:39:19
2270,Basil & Bloom,"Continental, North Indian, Bakery",1200,9235805109,18:00 - 10:00,34,True,Open,Dugal Ganj,"Ground Floor, Dugal Ganj, Nadiad - 329684",3.8,"[{""code"": ""WEEKEND_2270"", ""min_amount"": 1079, ""discount_amount"": 182, ""description"": ""\u20b9200 off on orders above \u20b91000"", ""payment_method"": null}, {""code"": ""FESTIVAL_2270"", ""min_amount"": 1460, ""discount_amount"": 278, ""description"": ""\u20b9300 off on orders above \u20b91500"", ""payment_method"": null}, {""code"": ""DEBITCARD_2270"", ""min_amount"": 650, ""discount_amount"": 99, ""description"": ""\u20b9100 off on orders above \u20b9600 with Debit Card"", ""payment_method"": ""DebitCard""}, {""code"": ""CASHBACK_2270"", ""min_amount"": 496, ""discount_amount"": 68, ""description"": ""\u20b975 off on Cash payments above \u20b9500"", ""payment_method"": ""Cash""}, {""code"": ""CREDITCARD_2270"", ""min_amount"": 708, ""discount_amount"": 152, ""description"": ""\u20b9150 off on orders above \u20b9750 with Credit Card"", ""payment_method"": ""CreditCard""}]",24.008960269135493,85.09036520552444,2021-07-27 16:49:50,2024-05-29 22:40:50
323,Craft & Crumb,Italian,1321,9474358952,10:00 - 00:00,5,True,Open,Sodhi Ganj,"Third Floor, Sodhi Ganj, Chennai - 681858",3.7,"[{""code"": ""DEBITCARD_323"", ""min_amount"": 640, ""discount_amount"": 92, ""description"": ""\u20b9100 off on orders above \u20b9600 with Debit Card"", ""payment_method"": ""DebitCard""}, {""code"": ""UPISAVE_323"", ""min_amount"": 371, ""discount_amount"": 82, ""description"": ""\u20b980 off on orders above \u20b9400 with UPI"", ""payment_method"": ""UPI""}, {""code"": ""CASHBACK_323"", ""min_amount"": 526, ""discount_amount"": 77, ""description"": ""\u20b975 off on Cash payments above \u20b9500"", ""payment_method"": ""Cash""}, {""code"": ""CREDITCARD_323"", ""min_amount"": 697, ""discount_amount"": 156, ""description"": ""\u20b9150 off on orders above \u20b9750 with Credit Card"", ""payment_method"": ""CreditCard""}]",25.13332548024725,84.85256151680119,2024-08-12 17:22:56,2024-11-14 10:39:03
803,Wok & Roll,"Mediterranean, Beverages, Bakery",1833,9594624179,13:00 - 21:00,12,True,Open,Karpe Ganj,"Ground Floor, Karpe Ganj, Bhopal - 727889",3.7,"[{""code"": ""WELCOME_803"", ""min_amount"": 484, ""discount_amount"": 104, ""description"": ""\u20b9100 off on orders above \u20b9500"", ""payment_method"": null}, {""code"": ""DEBITCARD_803"", ""min_amount"": 557, ""discount_amount"": 108, ""description"": ""\u20b9100 off on orders above \u20b9600 with Debit Card"", ""payment_method"": ""DebitCard""}, {""code"": ""UPISAVE_803"", ""min_amount"": 397, ""discount_amount"": 74, ""description"": ""\u20b980 off on orders above \u20b9400 with UPI"", ""payment_method"": ""UPI""}]",22.918826497082936,87.05239146573197,2023-10-07 15:58:54,2023-12-13 10:44:57
2606,Beijing Bowl,Burger,1321,9802304411,17:00 - 09:00,38,True,Open,Basu Path,"Third Floor, Basu Path, Kota - 874544",3.7,"[{""code"": ""FESTIVAL_2606"", ""min_amount"": 1565, ""discount_amount"": 297, ""description"": ""\u20b9300 off on orders above \u20b91500"", ""payment_method"": null}, {""code"": ""UPISAVE_2606"", ""min_amount"": 385, ""discount_amount"": 73, ""description"": ""\u20b980 off on orders above \u20b9400 with UPI"", ""payment_method"": ""UPI""}, {""code"": ""SPECIAL_2606"", ""min_amount"": 753, ""discount_amount"": 157, ""description"": ""\u20b9150 off on orders above \u20b9800"", ""payment_method"": null}, {""code"": ""DEBITCARD_2606"", ""min_amount"": 600, ""discount_amount"": 99, ""description"": ""\u20b9100 off on orders above \u20b9600 with Debit Card"", ""payment_method"": ""DebitCard""}, {""code"": ""WELCOME_2606"", ""min_amount"": 507, ""discount_amount"": 100, ""description"": ""\u20b9100 off on orders above \u20b9500"", ""payment_method"": null}]",14.56137027765302,71.85146808856908,2024-10-02 23:45:52,2025-01-11 19:32:12
2632,Bhature Bhavan,"South Indian, Ice Cream, Mughlai",439,9849134988,13:00 - 03:00,38,True,Open,Chaudhuri Chowk,"Third Floor, Chaudhuri Chowk, Kota - 874544",3.9,"[{""code"": ""DEBITCARD_2632"", ""min_amount"": 563, ""discount_amount"": 109, ""description"": ""\u20b9100 off on orders above \u20b9600 with Debit Card"", ""payment_method"": ""DebitCard""}, {""code"": ""CREDITCARD_2632"", ""min_amount"": 821, ""discount_amount"": 157, ""description"": ""\u20b9150 off on orders above \u20b9750 with Credit Card"", ""payment_method"": ""CreditCard""}, {""code"": ""WEEKEND_2632"", ""min_amount"": 957, ""discount_amount"": 187, ""description"": ""\u20b9200 off on orders above \u20b91000"", ""payment_method"": null}, {""code"": ""WELCOME_2632"", ""min_amount"": 488, ""discount_amount"": 93, ""description"": ""\u20b9100 off on orders above \u20b9500"", ""payment_method"": null}, {""code"": ""SPECIAL_2632"", ""min_amount"": 824, ""discount_amount"": 155, ""description"": ""\u20b9150 off on orders above \u20b9800"", ""payment_method"": null}]",19.33561740945511,87.51022918864119,2024-01-25 12:08:54,2024-02-05 15:58:35
1623,Aqua & Flame,"Chinese, Italian",1498,9101967985,21:00 - 06:00,24,True,Open,Thaker Chowk,"Ground Floor, Thaker Chowk, Meerut - 417419",3.8,"[{""code"": ""WELCOME_1623"", ""min_amount"": 539, ""discount_amount"": 95, ""description"": ""\u20b9100 off on orders above \u20b9500"", ""payment_method"": null}, {""code"": ""CASHBACK_1623"", ""min_amount"": 509, ""discount_amount"": 77, ""description"": ""\u20b975 off on Cash payments above \u20b9500"", ""payment_method"": ""Cash""}, {""code"": ""SPECIAL_1623"", ""min_amount"": 790, ""discount_amount"": 153, ""description"": ""\u20b9150 off on orders above \u20b9800"", ""payment_method"": null}, {""code"": ""FESTIVAL_1623"", ""min_amount"": 1450, ""discount_amount"": 300, ""description"": ""\u20b9300 off on orders above \u20b91500"", ""payment_method"": null}]",19.573372627411324,96.74834741243438,2024-08-25 22:18:44,2024-09-03 07:18:16
310,Ivory & Gold,Cafe,1064,9123425640,11:00 - 02:00,5,True,Open,Saran Chowk,"Third Floor, Saran Chowk, Chennai - 681858",3.7,"[{""code"": ""FESTIVAL_310"", ""min_amount"": 1365, ""discount_amount"": 270, ""description"": ""\u20b9300 off on orders above \u20b91500"", ""payment_method"": null}, {""code"": ""CASHBACK_310"", ""min_amount"": 513, ""discount_amount"": 78, ""description"": ""\u20b975 off on Cash payments above \u20b9500"", ""payment_method"": ""Cash""}, {""code"": ""WEEKEND_310"", ""min_amount"": 1095, ""discount_amount"": 213, ""description"": ""\u20b9200 off on orders above \u20b91000"", ""payment_method"": null}, {""code"": ""FIRSTORDER_310"", ""min_amount"": 314, ""discount_amount"": 76, ""description"": ""\u20b975 off on your first order above \u20b9300"", ""payment_method"": null}, {""code"": ""UPISAVE_310"", ""min_amount"": 404, ""discount_amount"": 76, ""description"": ""\u20b980 off on orders above \u20b9400 with UPI"", ""payment_method"": ""UPI""}]",22.167484600641806,93.24718851732976,2023-07-22 13:57:33,2024-04-07 03:13:02
176,Boho Bites,"Italian, Mediterranean, Chinese",1923,9401309071,19:00 - 11:00,3,True,Open,Sule Chowk,"First Floor, Sule Chowk, Bangalore - 344053",4.2,"[{""code"": ""SPECIAL_176"", ""min_amount"": 801, ""discount_amount"": 135, ""description"": ""\u20b9150 off on orders above \u20b9800"", ""payment_method"": null}, {""code"": ""WELCOME_176"", ""min_amount"": 508, ""discount_amount"": 98, ""description"": ""\u20b9100 off on orders above \u20b9500"", ""payment_method"": null}, {""code"": ""DEBITCARD_176"", ""min_amount"": 610, ""discount_amount"": 108, ""description"": ""\u20b9100 off on orders above \u20b9600 with Debit Card"", ""payment_method"": ""DebitCard""}]",16.086451797332636,94.00488800585246,2025-04-19 17:49:31,2025-04-20 11:28:44
1887,Puneri Misal Express Delight,"Lebanese, Bakery, Beverages",403,9829197501,13:00 - 23:00,27,True,Open,Subramaniam,"First Floor, Subramaniam, Srinagar - 848797",3.8,"[{""code"": ""UPISAVE_1887"", ""min_amount"": 406, ""discount_amount"": 78, ""description"": ""\u20b980 off on orders above \u20b9400 with UPI"", ""payment_method"": ""UPI""}, {""code"": ""WELCOME_1887"", ""min_amount"": 453, ""discount_amount"": 91, ""description"": ""\u20b9100 off on orders above \u20b9500"", ""payment_method"": null}, {""code"": ""CASHBACK_1887"", ""min_amount"": 520, ""discount_amount"": 68, ""description"": ""\u20b975 off on Cash payments above \u20b9500"", ""payment_method"": ""Cash""}, {""code"": ""CREDITCARD_1887"", ""min_amount"": 697, ""discount_amount"": 161, ""description"": ""\u20b9150 off on orders above \u20b9750 with Credit Card"", ""payment_method"": ""CreditCard""}]",37.40724542079855,92.04243092308056,2025-03-27 02:31:52,2025-04-10 06:27:55
74,Pizza Town,"Continental, Street Food",1254,9703068400,11:00 - 02:00,2,True,Open,Tripathi Nagar,"Ground Floor, Tripathi Nagar, Mumbai - 887572",3.8,"[{""code"": ""WELCOME_74"", ""min_amount"": 536, ""discount_amount"": 98, ""description"": ""\u20b9100 off on orders above \u20b9500"", ""payment_method"": null}, {""code"": ""FIRSTORDER_74"", ""min_amount"": 327, ""discount_amount"": 81, ""description"": ""\u20b975 off on your first order above \u20b9300"", ""payment_method"": null}, {""code"": ""FESTIVAL_74"", ""min_amount"": 1594, ""discount_amount"": 326, ""description"": ""\u20b9300 off on orders above \u20b91500"", ""payment_method"": null}]",16.210172894062126,75.77808409610432,2024-01-31 04:09:16,2025-03-10 01:41:20
1925,Infusion Lane,"Mediterranean, Chinese, Japanese",450,9683454065,10:00 - 01:00,28,True,Open,Badami Chowk,"First Floor, Badami Chowk, Aurangabad - 803384",3.8,"[{""code"": ""FIRSTORDER_1925"", ""min_amount"": 313, ""discount_amount"": 77, ""description"": ""\u20b975 off on your first order above \u20b9300"", ""payment_method"": null}, {""code"": ""UPISAVE_1925"", ""min_amount"": 396, ""discount_amount"": 83, ""description"": ""\u20b980 off on orders above \u20b9400 with UPI"", ""payment_method"": ""UPI""}, {""code"": ""CASHBACK_1925"", ""min_amount"": 526, ""discount_amount"": 71, ""description"": ""\u20b975 off on Cash payments above \u20b9500"", ""payment_method"": ""Cash""}, {""code"": ""DEBITCARD_1925"", ""min_amount"": 616, ""discount_amount"": 103, ""description"": ""\u20b9100 off on orders above \u20b9600 with Debit Card"", ""payment_method"": ""DebitCard""}, {""code"": ""WELCOME_1925"", ""min_amount"": 524, ""discount_amount"": 100, ""description"": ""\u20b9100 off on orders above \u20b9500"", ""payment_method"": null}]",31.944516189067286,69.42587306524065,2023-10-14 23:07:05,2024-10-09 22:09:27
64,Horizon Bistro,"North Indian, Desserts, Cafe",289,9782546314,16:00 - 04:00,2,True,Open,Dani Street,"Ground Floor, Dani Street, Mumbai - 887572",3.8,"[{""code"": ""SPECIAL_64"", ""min_amount"": 727, ""discount_amount"": 151, ""description"": ""\u20b9150 off on orders above \u20b9800"", ""payment_method"": null}, {""code"": ""CREDITCARD_64"", ""min_amount"": 797, ""discount_amount"": 140, ""description"": ""\u20b9150 off on orders above \u20b9750 with Credit Card"", ""payment_method"": ""CreditCard""}, {""code"": ""CASHBACK_64"", ""min_amount"": 527, ""discount_amount"": 74, ""description"": ""\u20b975 off on Cash payments above \u20b9500"", ""payment_method"": ""Cash""}]",18.8271411942302,70.62882537353121,2023-09-23 21:01:55,2024-11-19 00:03:09
1045,Wave & Whisk,"Thai, South Indian, North Indian",956,9213781087,20:00 - 10:00,15,True,Open,Bhatti Street,"Third Floor, Bhatti Street, Indore - 466778",3.7,"[{""code"": ""FESTIVAL_1045"", ""min_amount"": 1438, ""discount_amount"": 278, ""description"": ""\u20b9300 off on orders above \u20b91500"", ""payment_method"": null}, {""code"": ""CREDITCARD_1045"", ""min_amount"": 823, ""discount_amount"": 148, ""description"": ""\u20b9150 off on orders above \u20b9750 with Credit Card"", ""payment_method"": ""CreditCard""}, {""code"": ""WEEKEND_1045"", ""min_amount"": 1044, ""discount_amount"": 198, ""description"": ""\u20b9200 off on orders above \u20b91000"", ""payment_method"": null}, {""code"": ""FIRSTORDER_1045"", ""min_amount"": 293, ""discount_amount"": 69, ""description"": ""\u20b975 off on your first order above \u20b9300"", ""payment_method"": null}]",18.557748501160283,87.6402993401942,2023-11-04 19:01:25,2024-03-01 20:47:09
1847,Idli & More,"Cafe, Thai, Italian",1147,9443185548,20:00 - 06:00,27,True,Open,Sane Marg,"First Floor, Sane Marg, Srinagar - 848797",3.9,"[{""code"": ""WEEKEND_1847"", ""min_amount"": 969, ""discount_amount"": 209, ""description"": ""\u20b9200 off on orders above \u20b91000"", ""payment_method"": null}, {""code"": ""SPECIAL_1847"", ""min_amount"": 846, ""discount_amount"": 161, ""description"": ""\u20b9150 off on orders above \u20b9800"", ""payment_method"": null}, {""code"": ""CREDITCARD_1847"", ""min_amount"": 723, ""discount_amount"": 148, ""description"": ""\u20b9150 off on orders above \u20b9750 with Credit Card"", ""payment_method"": ""CreditCard""}, {""code"": ""UPISAVE_1847"", ""min_amount"": 404, ""discount_amount"": 79, ""description"": ""\u20b980 off on orders above \u20b9400 with UPI"", ""payment_method"": ""UPI""}, {""code"": ""FIRSTORDER_1847"", ""min_amount"": 323, ""discount_amount"": 73, ""description"": ""\u20b975 off on your first order above \u20b9300"", ""payment_method"": null}]",12.698452056495793,75.40146959363925,2024-06-20 20:50:15,2025-02-05 04:44:22
46,Garam Rotlo,Cafe,1935,9531233244,14:00 - 05:00,1,True,Open,Viswanathan,"Third Floor, Viswanathan, Delhi - 780487",3.8,"[{""code"": ""WEEKEND_46"", ""min_amount"": 1026, ""discount_amount"": 201, ""description"": ""\u20b9200 off on orders above \u20b91000"", ""payment_method"": null}, {""code"": ""SPECIAL_46"", ""min_amount"": 772, ""discount_amount"": 164, ""description"": ""\u20b9150 off on orders above \u20b9800"", ""payment_method"": null}, {""code"": ""UPISAVE_46"", ""min_amount"": 402, ""discount_amount"": 79, ""description"": ""\u20b980 off on orders above \u20b9400 with UPI"", ""payment_method"": ""UPI""}, {""code"": ""CASHBACK_46"", ""min_amount"": 510, ""discount_amount"": 68, ""description"": ""\u20b975 off on Cash payments above \u20b9500"", ""payment_method"": ""Cash""}, {""code"": ""FIRSTORDER_46"", ""min_amount"": 312, ""discount_amount"": 80, ""description"": ""\u20b975 off on your first order above \u20b9300"", ""payment_method"": null}]",10.545928900380355,71.00656813007811,2024-07-28 08:09:23,2025-04-10 22:22:05
913,Carbonara Kitchen,"Japanese, Continental",970,9786649106,09:00 - 19:00,13,True,Open,More Street,"First Floor, More Street, Guwahati - 116814",3.7,"[{""code"": ""FIRSTORDER_913"", ""min_amount"": 320, ""discount_amount"": 73, ""description"": ""\u20b975 off on your first order above \u20b9300"", ""payment_method"": null}, {""code"": ""DEBITCARD_913"", ""min_amount"": 573, ""discount_amount"": 105, ""description"": ""\u20b9100 off on orders above \u20b9600 with Debit Card"", ""payment_method"": ""DebitCard""}, {""code"": ""UPISAVE_913"", ""min_amount"": 397, ""discount_amount"": 72, ""description"": ""\u20b980 off on orders above \u20b9400 with UPI"", ""payment_method"": ""UPI""}, {""code"": ""CREDITCARD_913"", ""min_amount"": 684, ""discount_amount"": 138, ""description"": ""\u20b9150 off on orders above \u20b9750 with Credit Card"", ""payment_method"": ""CreditCard""}]",29.84307826752879,69.23847529316441,2025-03-14 09:41:19,2025-03-22 16:56:59
368,Saurashtra Flavors Express,Mexican,1269,9950174327,08:00 - 23:00,6,False,Closed,Sama,"Third Floor, Sama, Kolkata - 552417",3.8,"[{""code"": ""CREDITCARD_368"", ""min_amount"": 816, ""discount_amount"": 154, ""description"": ""\u20b9150 off on orders above \u20b9750 with Credit Card"", ""payment_method"": ""CreditCard""}, {""code"": ""CASHBACK_368"", ""min_amount"": 487, ""discount_amount"": 68, ""description"": ""\u20b975 off on Cash payments above \u20b9500"", ""payment_method"": ""Cash""}, {""code"": ""WEEKEND_368"", ""min_amount"": 971, ""discount_amount"": 193, ""description"": ""\u20b9200 off on orders above \u20b91000"", ""payment_method"": null}, {""code"": ""SPECIAL_368"", ""min_amount"": 736, ""discount_amount"": 148, ""description"": ""\u20b9150 off on orders above \u20b9800"", ""payment_method"": null}]",30.501819826970063,85.95480777815655,2024-12-26 20:32:20,2025-02-25 08:47:40
1610,Fafda House,"Bakery, Beverages",315,9466275032,17:00 - 07:00,24,True,Open,Nazareth Zila,"Third Floor, Nazareth Zila, Meerut - 417419",3.8,"[{""code"": ""CASHBACK_1610"", ""min_amount"": 455, ""discount_amount"": 69, ""description"": ""\u20b975 off on Cash payments above \u20b9500"", ""payment_method"": ""Cash""}, {""code"": ""WEEKEND_1610"", ""min_amount"": 1094, ""discount_amount"": 219, ""description"": ""\u20b9200 off on orders above \u20b91000"", ""payment_method"": null}, {""code"": ""DEBITCARD_1610"", ""min_amount"": 578, ""discount_amount"": 98, ""description"": ""\u20b9100 off on orders above \u20b9600 with Debit Card"", ""payment_method"": ""DebitCard""}, {""code"": ""WELCOME_1610"", ""min_amount"": 453, ""discount_amount"": 100, ""description"": ""\u20b9100 off on orders above \u20b9500"", ""payment_method"": null}, {""code"": ""SPECIAL_1610"", ""min_amount"": 840, ""discount_amount"": 140, ""description"": ""\u20b9150 off on orders above \u20b9800"", ""payment_method"": null}]",22.804154158287474,85.6277421686783,2023-04-03 05:32:53,2024-08-04 05:22:24
81,Amritsar Thali,"Cafe, Mexican, Pizza",1895,9678293640,12:00 - 22:00,2,True,Open,Mohanty Ganj,"Ground Floor, Mohanty Ganj, Mumbai - 887572",3.6,"[{""code"": ""WELCOME_81"", ""min_amount"": 473, ""discount_amount"": 92, ""description"": ""\u20b9100 off on orders above \u20b9500"", ""payment_method"": null}, {""code"": ""FESTIVAL_81"", ""min_amount"": 1449, ""discount_amount"": 298, ""description"": ""\u20b9300 off on orders above \u20b91500"", ""payment_method"": null}, {""code"": ""CREDITCARD_81"", ""min_amount"": 777, ""discount_amount"": 139, ""description"": ""\u20b9150 off on orders above \u20b9750 with Credit Card"", ""payment_method"": ""CreditCard""}]",26.377769404903177,85.45401073419677,2025-02-19 08:27:53,2025-04-18 07:56:25
2540,Urban Masala,"Ice Cream, Mughlai",1456,9576347860,19:00 - 07:00,37,True,Open,Dar Zila,"Ground Floor, Dar Zila, Himatnagar - 775822",4.0,"[{""code"": ""WEEKEND_2540"", ""min_amount"": 954, ""discount_amount"": 214, ""description"": ""\u20b9200 off on orders above \u20b91000"", ""payment_method"": null}, {""code"": ""SPECIAL_2540"", ""min_amount"": 808, ""discount_amount"": 155, ""description"": ""\u20b9150 off on orders above \u20b9800"", ""payment_method"": null}, {""code"": ""WELCOME_2540"", ""min_amount"": 512, ""discount_amount"": 95, ""description"": ""\u20b9100 off on orders above \u20b9500"", ""payment_method"": null}]",11.712540664699382,95.71071476024753,2024-10-19 19:27:36,2024-12-08 01:22:47
1712,Milan Pizza House,Street Food,1023,9681074000,18:00 - 10:00,25,True,Open,Chokshi Path,"Second Floor, Chokshi Path, Rajkot - 758564",3.8,"[{""code"": ""WELCOME_1712"", ""min_amount"": 497, ""discount_amount"": 93, ""description"": ""\u20b9100 off on orders above \u20b9500"", ""payment_method"": null}, {""code"": ""UPISAVE_1712"", ""min_amount"": 375, ""discount_amount"": 76, ""description"": ""\u20b980 off on orders above \u20b9400 with UPI"", ""payment_method"": ""UPI""}, {""code"": ""SPECIAL_1712"", ""min_amount"": 830, ""discount_amount"": 140, ""description"": ""\u20b9150 off on orders above \u20b9800"", ""payment_method"": null}]",27.29914249481994,83.70564156578455,2024-02-28 23:41:27,2024-07-12 02:10:36
2620,Toscano Caf,"Ice Cream, Cafe",805,9420329194,11:00 - 03:00,38,True,Open,Ben Street,"Second Floor, Ben Street, Kota - 874544",3.8,"[{""code"": ""WEEKEND_2620"", ""min_amount"": 929, ""discount_amount"": 219, ""description"": ""\u20b9200 off on orders above \u20b91000"", ""payment_method"": null}, {""code"": ""UPISAVE_2620"", ""min_amount"": 409, ""discount_amount"": 72, ""description"": ""\u20b980 off on orders above \u20b9400 with UPI"", ""payment_method"": ""UPI""}, {""code"": ""CASHBACK_2620"", ""min_amount"": 524, ""discount_amount"": 71, ""description"": ""\u20b975 off on Cash payments above \u20b9500"", ""payment_method"": ""Cash""}, {""code"": ""CREDITCARD_2620"", ""min_amount"": 804, ""discount_amount"": 151, ""description"": ""\u20b9150 off on orders above \u20b9750 with Credit Card"", ""payment_method"": ""CreditCard""}]",23.03711593137323,73.6862085541221,2024-01-18 05:53:17,2025-01-13 10:03:27
1000,Food Carnival,"Cafe, Lebanese, Bakery",229,9715293690,11:00 - 23:00,14,True,Open,Bose Circle,"Ground Floor, Bose Circle, Kochi - 277414",3.8,"[{""code"": ""CASHBACK_1000"", ""min_amount"": 450, ""discount_amount"": 78, ""description"": ""\u20b975 off on Cash payments above \u20b9500"", ""payment_method"": ""Cash""}, {""code"": ""WELCOME_1000"", ""min_amount"": 475, ""discount_amount"": 92, ""description"": ""\u20b9100 off on orders above \u20b9500"", ""payment_method"": null}, {""code"": ""SPECIAL_1000"", ""min_amount"": 859, ""discount_amount"": 160, ""description"": ""\u20b9150 off on orders above \u20b9800"", ""payment_method"": null}, {""code"": ""CREDITCARD_1000"", ""min_amount"": 795, ""discount_amount"": 164, ""description"": ""\u20b9150 off on orders above \u20b9750 with Credit Card"", ""payment_method"": ""CreditCard""}, {""code"": ""FESTIVAL_1000"", ""min_amount"": 1456, ""discount_amount"": 301, ""description"": ""\u20b9300 off on orders above \u20b91500"", ""payment_method"": null}]",34.337517522529104,85.38684638999737,2021-08-09 18:06:02,2022-06-13 17:56:44
1678,The Artisan Bean,"Desserts, Burger",645,9117727346,13:00 - 00:00,25,True,Open,Kumar,"Third Floor, Kumar, Rajkot - 758564",3.9,"[{""code"": ""CREDITCARD_1678"", ""min_amount"": 713, ""discount_amount"": 148, ""description"": ""\u20b9150 off on orders above \u20b9750 with Credit Card"", ""payment_method"": ""CreditCard""}, {""code"": ""SPECIAL_1678"", ""min_amount"": 793, ""discount_amount"": 157, ""description"": ""\u20b9150 off on orders above \u20b9800"", ""payment_method"": null}, {""code"": ""FESTIVAL_1678"", ""min_amount"": 1638, ""discount_amount"": 312, ""description"": ""\u20b9300 off on orders above \u20b91500"", ""payment_method"": null}]",12.636719059656471,95.125331853124,2022-02-24 20:07:59,2023-02-23 18:58:50
519,The Gilded Fork,"Italian, Mughlai, Mediterranean",701,9596296602,18:00 - 02:00,8,False,Closed,Nagi Street,"Ground Floor, Nagi Street, Ahmedabad - 639903",3.9,"[{""code"": ""UPISAVE_519"", ""min_amount"": 430, ""discount_amount"": 80, ""description"": ""\u20b980 off on orders above \u20b9400 with UPI"", ""payment_method"": ""UPI""}, {""code"": ""DEBITCARD_519"", ""min_amount"": 625, ""discount_amount"": 102, ""description"": ""\u20b9100 off on orders above \u20b9600 with Debit Card"", ""payment_method"": ""DebitCard""}, {""code"": ""WELCOME_519"", ""min_amount"": 548, ""discount_amount"": 104, ""description"": ""\u20b9100 off on orders above \u20b9500"", ""payment_method"": null}, {""code"": ""FESTIVAL_519"", ""min_amount"": 1481, ""discount_amount"": 319, ""description"": ""\u20b9300 off on orders above \u20b91500"", ""payment_method"": null}, {""code"": ""WEEKEND_519"", ""min_amount"": 911, ""discount_amount"": 212, ""description"": ""\u20b9200 off on orders above \u20b91000"", ""payment_method"": null}]",28.31508904222156,80.3011985004294,2022-11-24 02:27:53,2024-04-26 07:44:13
2127,Kimchi Flame,"Burger, Chinese",302,9257291447,10:00 - 02:00,31,True,Open,Khalsa Marg,"First Floor, Khalsa Marg, Surat - 508591",3.8,"[{""code"": ""FIRSTORDER_2127"", ""min_amount"": 296, ""discount_amount"": 76, ""description"": ""\u20b975 off on your first order above \u20b9300"", ""payment_method"": null}, {""code"": ""CREDITCARD_2127"", ""min_amount"": 769, ""discount_amount"": 137, ""description"": ""\u20b9150 off on orders above \u20b9750 with Credit Card"", ""payment_method"": ""CreditCard""}, {""code"": ""SPECIAL_2127"", ""min_amount"": 742, ""discount_amount"": 162, ""description"": ""\u20b9150 off on orders above \u20b9800"", ""payment_method"": null}, {""code"": ""WELCOME_2127"", ""min_amount"": 471, ""discount_amount"": 91, ""description"": ""\u20b9100 off on orders above \u20b9500"", ""payment_method"": null}]",22.146164398974918,73.3489220749363,2024-09-07 14:55:52,2024-09-12 13:34:46
2402,Kokan Rasoi Tadka,Mexican,459,9289467035,20:00 - 10:00,36,True,Open,Uppal Ganj,"Third Floor, Uppal Ganj, Porbandar - 789514",3.9,"[{""code"": ""SPECIAL_2402"", ""min_amount"": 735, ""discount_amount"": 150, ""description"": ""\u20b9150 off on orders above \u20b9800"", ""payment_method"": null}, {""code"": ""WELCOME_2402"", ""min_amount"": 469, ""discount_amount"": 108, ""description"": ""\u20b9100 off on orders above \u20b9500"", ""payment_method"": null}, {""code"": ""FIRSTORDER_2402"", ""min_amount"": 324, ""discount_amount"": 71, ""description"": ""\u20b975 off on your first order above \u20b9300"", ""payment_method"": null}, {""code"": ""CREDITCARD_2402"", ""min_amount"": 709, ""discount_amount"": 163, ""description"": ""\u20b9150 off on orders above \u20b9750 with Credit Card"", ""payment_method"": ""CreditCard""}]",11.88827590622143,85.36470152281171,2022-10-30 02:06:30,2024-04-15 23:59:03
928,Sunset Grill,"Ice Cream, Thai, Italian",458,9992980918,00:00 - 12:00,13,True,Open,Nayar Circle,"Ground Floor, Nayar Circle, Guwahati - 116814",3.7,"[{""code"": ""CREDITCARD_928"", ""min_amount"": 765, ""discount_amount"": 139, ""description"": ""\u20b9150 off on orders above \u20b9750 with Credit Card"", ""payment_method"": ""CreditCard""}, {""code"": ""DEBITCARD_928"", ""min_amount"": 546, ""discount_amount"": 92, ""description"": ""\u20b9100 off on orders above \u20b9600 with Debit Card"", ""payment_method"": ""DebitCard""}, {""code"": ""WEEKEND_928"", ""min_amount"": 1093, ""discount_amount"": 196, ""description"": ""\u20b9200 off on orders above \u20b91000"", ""payment_method"": null}, {""code"": ""FIRSTORDER_928"", ""min_amount"": 274, ""discount_amount"": 74, ""description"": ""\u20b975 off on your first order above \u20b9300"", ""payment_method"": null}]",13.121415103132662,85.25293399388003,2025-04-02 02:32:14,2025-04-08 00:35:35
1587,Epicurean Delights,"Bakery, Mughlai",384,9481239410,21:00 - 11:00,24,True,Open,Goyal Chowk," Goyal Chowk, Meerut - 417419",3.7,"[{""code"": ""UPISAVE_1587"", ""min_amount"": 389, ""discount_amount"": 78, ""description"": ""\u20b980 off on orders above \u20b9400 with UPI"", ""payment_method"": ""UPI""}, {""code"": ""SPECIAL_1587"", ""min_amount"": 786, ""discount_amount"": 160, ""description"": ""\u20b9150 off on orders above \u20b9800"", ""payment_method"": null}, {""code"": ""CREDITCARD_1587"", ""min_amount"": 737, ""discount_amount"": 164, ""description"": ""\u20b9150 off on orders above \u20b9750 with Credit Card"", ""payment_method"": ""CreditCard""}, {""code"": ""WEEKEND_1587"", ""min_amount"": 1078, ""discount_amount"": 219, ""description"": ""\u20b9200 off on orders above \u20b91000"", ""payment_method"": null}]",35.717678204448795,70.7052484364947,2024-06-22 09:09:32,2024-11-24 23:56:34
1826,Biryani Mahal,"Street Food, Fast Food, Continental",1279,9277788540,15:00 - 23:00,27,True,Open,Minhas Nagar,"Ground Floor, Minhas Nagar, Srinagar - 848797",3.9,"[{""code"": ""CREDITCARD_1826"", ""min_amount"": 747, ""discount_amount"": 143, ""description"": ""\u20b9150 off on orders above \u20b9750 with Credit Card"", ""payment_method"": ""CreditCard""}, {""code"": ""CASHBACK_1826"", ""min_amount"": 535, ""discount_amount"": 75, ""description"": ""\u20b975 off on Cash payments above \u20b9500"", ""payment_method"": ""Cash""}, {""code"": ""SPECIAL_1826"", ""min_amount"": 838, ""discount_amount"": 149, ""description"": ""\u20b9150 off on orders above \u20b9800"", ""payment_method"": null}]",20.6467601437535,94.90716362518678,2024-05-15 15:11:48,2024-06-01 20:23:36
1592,Chopstick Bistro,Burger,1266,9432202851,18:00 - 06:00,24,False,Closed,Bajaj Nagar,"Ground Floor, Bajaj Nagar, Meerut - 417419",3.6,"[{""code"": ""WEEKEND_1592"", ""min_amount"": 903, ""discount_amount"": 210, ""description"": ""\u20b9200 off on orders above \u20b91000"", ""payment_method"": null}, {""code"": ""UPISAVE_1592"", ""min_amount"": 384, ""discount_amount"": 80, ""description"": ""\u20b980 off on orders above \u20b9400 with UPI"", ""payment_method"": ""UPI""}, {""code"": ""SPECIAL_1592"", ""min_amount"": 833, ""discount_amount"": 144, ""description"": ""\u20b9150 off on orders above \u20b9800"", ""payment_method"": null}]",32.87240124382684,88.96865239857738,2025-03-23 07:56:13,2025-04-08 19:06:34
2370,Tuscany Bistro,Beverages,1124,9994733944,13:00 - 22:00,35,True,Open,Krishnamurthy Marg,"First Floor, Krishnamurthy Marg, Gandhinagar - 845911",3.8,"[{""code"": ""UPISAVE_2370"", ""min_amount"": 438, ""discount_amount"": 79, ""description"": ""\u20b980 off on orders above \u20b9400 with UPI"", ""payment_method"": ""UPI""}, {""code"": ""FIRSTORDER_2370"", ""min_amount"": 292, ""discount_amount"": 82, ""description"": ""\u20b975 off on your first order above \u20b9300"", ""payment_method"": null}, {""code"": ""WELCOME_2370"", ""min_amount"": 531, ""discount_amount"": 104, ""description"": ""\u20b9100 off on orders above \u20b9500"", ""payment_method"": null}, {""code"": ""CREDITCARD_2370"", ""min_amount"": 700, ""discount_amount"": 164, ""description"": ""\u20b9150 off on orders above \u20b9750 with Credit Card"", ""payment_method"": ""CreditCard""}]",9.661566047833238,77.40975417823495,2021-05-23 10:16:12,2024-10-17 19:05:16
966,Kathiyawadi Rasoi,"Cafe, Beverages",252,9576667771,21:00 - 07:00,14,True,Open,Patla Marg,"First Floor, Patla Marg, Kochi - 277414",3.7,"[{""code"": ""UPISAVE_966"", ""min_amount"": 366, ""discount_amount"": 84, ""description"": ""\u20b980 off on orders above \u20b9400 with UPI"", ""payment_method"": ""UPI""}, {""code"": ""DEBITCARD_966"", ""min_amount"": 548, ""discount_amount"": 99, ""description"": ""\u20b9100 off on orders above \u20b9600 with Debit Card"", ""payment_method"": ""DebitCard""}, {""code"": ""WEEKEND_966"", ""min_amount"": 906, ""discount_amount"": 216, ""description"": ""\u20b9200 off on orders above \u20b91000"", ""payment_method"": null}]",17.604226624996933,70.57541873530889,2021-09-05 15:56:56,2024-03-20 23:38:59
1428,Dragon Spice House,"Burger, Pizza",545,9434041171,17:00 - 02:00,21,False,Closed,Agate Chowk,"Second Floor, Agate Chowk, Agra - 875179",3.9,"[{""code"": ""FESTIVAL_1428"", ""min_amount"": 1449, ""discount_amount"": 296, ""description"": ""\u20b9300 off on orders above \u20b91500"", ""payment_method"": null}, {""code"": ""CREDITCARD_1428"", ""min_amount"": 721, ""discount_amount"": 139, ""description"": ""\u20b9150 off on orders above \u20b9750 with Credit Card"", ""payment_method"": ""CreditCard""}, {""code"": ""SPECIAL_1428"", ""min_amount"": 818, ""discount_amount"": 135, ""description"": ""\u20b9150 off on orders above \u20b9800"", ""payment_method"": null}, {""code"": ""WELCOME_1428"", ""min_amount"": 465, ""discount_amount"": 97, ""description"": ""\u20b9100 off on orders above \u20b9500"", ""payment_method"": null}, {""code"": ""WEEKEND_1428"", ""min_amount"": 1058, ""discount_amount"": 210, ""description"": ""\u20b9200 off on orders above \u20b91000"", ""payment_method"": null}]",35.62210944694489,76.04431219297524,2023-11-15 12:38:06,2023-12-08 11:46:37
1147,The Artisan Bean,"Cafe, Japanese",1804,9632356105,00:00 - 12:00,16,True,Open,Nagi Path,"Second Floor, Nagi Path, Surat - 335772",4.1,"[{""code"": ""CREDITCARD_1147"", ""min_amount"": 741, ""discount_amount"": 148, ""description"": ""\u20b9150 off on orders above \u20b9750 with Credit Card"", ""payment_method"": ""CreditCard""}, {""code"": ""WEEKEND_1147"", ""min_amount"": 950, ""discount_amount"": 213, ""description"": ""\u20b9200 off on orders above \u20b91000"", ""payment_method"": null}, {""code"": ""FIRSTORDER_1147"", ""min_amount"": 271, ""discount_amount"": 78, ""description"": ""\u20b975 off on your first order above \u20b9300"", ""payment_method"": null}, {""code"": ""UPISAVE_1147"", ""min_amount"": 379, ""discount_amount"": 78, ""description"": ""\u20b980 off on orders above \u20b9400 with UPI"", ""payment_method"": ""UPI""}, {""code"": ""SPECIAL_1147"", ""min_amount"": 787, ""discount_amount"": 149, ""description"": ""\u20b9150 off on orders above \u20b9800"", ""payment_method"": null}]",27.381846414441384,95.56409402261798,2025-01-26 23:27:10,2025-03-19 00:34:00
1702,Momo Street,"Thai, Italian, Desserts",976,9114793250,18:00 - 08:00,25,True,Open,Sem Zila,"Ground Floor, Sem Zila, Rajkot - 758564",3.8,"[{""code"": ""DEBITCARD_1702"", ""min_amount"": 541, ""discount_amount"": 95, ""description"": ""\u20b9100 off on orders above \u20b9600 with Debit Card"", ""payment_method"": ""DebitCard""}, {""code"": ""CASHBACK_1702"", ""min_amount"": 516, ""discount_amount"": 72, ""description"": ""\u20b975 off on Cash payments above \u20b9500"", ""payment_method"": ""Cash""}, {""code"": ""WELCOME_1702"", ""min_amount"": 454, ""discount_amount"": 107, ""description"": ""\u20b9100 off on orders above \u20b9500"", ""payment_method"": null}, {""code"": ""SPECIAL_1702"", ""min_amount"": 769, ""discount_amount"": 151, ""description"": ""\u20b9150 off on orders above \u20b9800"", ""payment_method"": null}, {""code"": ""WEEKEND_1702"", ""min_amount"": 906, ""discount_amount"": 205, ""description"": ""\u20b9200 off on orders above \u20b91000"", ""payment_method"": null}]",10.910923427519728,86.83530258476713,2024-03-29 07:05:13,2024-09-10 07:41:42
2047,Romeos Italian,Italian,441,9497362443,17:00 - 03:00,30,True,Open,Rajan,"First Floor, Rajan, Amritsar - 354098",3.7,"[{""code"": ""SPECIAL_2047"", ""min_amount"": 869, ""discount_amount"": 150, ""description"": ""\u20b9150 off on orders above \u20b9800"", ""payment_method"": null}, {""code"": ""CREDITCARD_2047"", ""min_amount"": 676, ""discount_amount"": 147, ""description"": ""\u20b9150 off on orders above \u20b9750 with Credit Card"", ""payment_method"": ""CreditCard""}, {""code"": ""UPISAVE_2047"", ""min_amount"": 370, ""discount_amount"": 78, ""description"": ""\u20b980 off on orders above \u20b9400 with UPI"", ""payment_method"": ""UPI""}, {""code"": ""WEEKEND_2047"", ""min_amount"": 935, ""discount_amount"": 213, ""description"": ""\u20b9200 off on orders above \u20b91000"", ""payment_method"": null}]",25.42060677225023,94.78054830380978,2021-04-28 03:05:42,2023-06-15 14:13:50
2701,Ginger & Garlic Wok,"Beverages, Italian, Thai",632,9888690417,11:00 - 19:00,39,True,Open,Sagar Zila,"Second Floor, Sagar Zila, Vijayawada - 594714",3.7,"[{""code"": ""FESTIVAL_2701"", ""min_amount"": 1497, ""discount_amount"": 326, ""description"": ""\u20b9300 off on orders above \u20b91500"", ""payment_method"": null}, {""code"": ""SPECIAL_2701"", ""min_amount"": 831, ""discount_amount"": 161, ""description"": ""\u20b9150 off on orders above \u20b9800"", ""payment_method"": null}, {""code"": ""WELCOME_2701"", ""min_amount"": 492, ""discount_amount"": 104, ""description"": ""\u20b9100 off on orders above \u20b9500"", ""payment_method"": null}, {""code"": ""DEBITCARD_2701"", ""min_amount"": 614, ""discount_amount"": 100, ""description"": ""\u20b9100 off on orders above \u20b9600 with Debit Card"", ""payment_method"": ""DebitCard""}, {""code"": ""UPISAVE_2701"", ""min_amount"": 419, ""discount_amount"": 73, ""description"": ""\u20b980 off on orders above \u20b9400 with UPI"", ""payment_method"": ""UPI""}]",20.884899354774923,91.74344835640592,2023-05-26 08:36:13,2024-08-25 14:26:50
2647,Lumen,"Pizza, Street Food, Mediterranean",739,9225843671,12:00 - 01:00,39,False,Closed,Divan Path,"Third Floor, Divan Path, Vijayawada - 594714",3.8,"[{""code"": ""UPISAVE_2647"", ""min_amount"": 400, ""discount_amount"": 85, ""description"": ""\u20b980 off on orders above \u20b9400 with UPI"", ""payment_method"": ""UPI""}, {""code"": ""SPECIAL_2647"", ""min_amount"": 742, ""discount_amount"": 162, ""description"": ""\u20b9150 off on orders above \u20b9800"", ""payment_method"": null}, {""code"": ""DEBITCARD_2647"", ""min_amount"": 586, ""discount_amount"": 94, ""description"": ""\u20b9100 off on orders above \u20b9600 with Debit Card"", ""payment_method"": ""DebitCard""}]",17.38617873728765,94.8663316783707,2021-07-11 05:06:29,2022-03-03 14:32:46
2267,The Gastronomy Lab,Ice Cream,670,9429823068,17:00 - 01:00,33,True,Open,Kapoor Nagar,"Second Floor, Kapoor Nagar, Anand - 280555",3.3,"[{""code"": ""FIRSTORDER_2267"", ""min_amount"": 271, ""discount_amount"": 82, ""description"": ""\u20b975 off on your first order above \u20b9300"", ""payment_method"": null}, {""code"": ""UPISAVE_2267"", ""min_amount"": 373, ""discount_amount"": 73, ""description"": ""\u20b980 off on orders above \u20b9400 with UPI"", ""payment_method"": ""UPI""}, {""code"": ""SPECIAL_2267"", ""min_amount"": 738, ""discount_amount"": 137, ""description"": ""\u20b9150 off on orders above \u20b9800"", ""payment_method"": null}, {""code"": ""WELCOME_2267"", ""min_amount"": 479, ""discount_amount"": 100, ""description"": ""\u20b9100 off on orders above \u20b9500"", ""payment_method"": null}, {""code"": ""CASHBACK_2267"", ""min_amount"": 481, ""discount_amount"": 80, ""description"": ""\u20b975 off on Cash payments above \u20b9500"", ""payment_method"": ""Cash""}]",36.86525993191164,69.06040457495952,2025-04-08 11:08:15,2025-04-16 15:00:24
2609,Ocean Grove,"Bakery, Lebanese",880,9391574698,12:00 - 22:00,38,True,Open,Loyal Marg," Loyal Marg, Kota - 874544",4.0,"[{""code"": ""FIRSTORDER_2609"", ""min_amount"": 313, ""discount_amount"": 80, ""description"": ""\u20b975 off on your first order above \u20b9300"", ""payment_method"": null}, {""code"": ""UPISAVE_2609"", ""min_amount"": 408, ""discount_amount"": 77, ""description"": ""\u20b980 off on orders above \u20b9400 with UPI"", ""payment_method"": ""UPI""}, {""code"": ""FESTIVAL_2609"", ""min_amount"": 1608, ""discount_amount"": 302, ""description"": ""\u20b9300 off on orders above \u20b91500"", ""payment_method"": null}]",19.757920015188297,75.52152163855337,2023-11-23 12:15:38,2024-03-27 10:40:17
2213,Dosa Factory,Mediterranean,1254,9575640646,11:00 - 00:00,32,True,Open,Rout Circle,"Third Floor, Rout Circle, Morbi - 776563",3.9,"[{""code"": ""DEBITCARD_2213"", ""min_amount"": 629, ""discount_amount"": 109, ""description"": ""\u20b9100 off on orders above \u20b9600 with Debit Card"", ""payment_method"": ""DebitCard""}, {""code"": ""CASHBACK_2213"", ""min_amount"": 542, ""discount_amount"": 68, ""description"": ""\u20b975 off on Cash payments above \u20b9500"", ""payment_method"": ""Cash""}, {""code"": ""UPISAVE_2213"", ""min_amount"": 363, ""discount_amount"": 77, ""description"": ""\u20b980 off on orders above \u20b9400 with UPI"", ""payment_method"": ""UPI""}, {""code"": ""FIRSTORDER_2213"", ""min_amount"": 303, ""discount_amount"": 77, ""description"": ""\u20b975 off on your first order above \u20b9300"", ""payment_method"": null}, {""code"": ""WELCOME_2213"", ""min_amount"": 542, ""discount_amount"": 103, ""description"": ""\u20b9100 off on orders above \u20b9500"", ""payment_method"": null}]",17.740795482543206,96.23388887392774,2025-02-11 20:45:54,2025-02-12 15:36:42
45,Keralam Flavors,North Indian,469,9115956152,15:00 - 04:00,1,True,Open,Ramesh Nagar,"Ground Floor, Ramesh Nagar, Delhi - 780487",3.8,"[{""code"": ""DEBITCARD_45"", ""min_amount"": 593, ""discount_amount"": 97, ""description"": ""\u20b9100 off on orders above \u20b9600 with Debit Card"", ""payment_method"": ""DebitCard""}, {""code"": ""SPECIAL_45"", ""min_amount"": 814, ""discount_amount"": 148, ""description"": ""\u20b9150 off on orders above \u20b9800"", ""payment_method"": null}, {""code"": ""CREDITCARD_45"", ""min_amount"": 708, ""discount_amount"": 153, ""description"": ""\u20b9150 off on orders above \u20b9750 with Credit Card"", ""payment_method"": ""CreditCard""}, {""code"": ""WELCOME_45"", ""min_amount"": 522, ""discount_amount"": 108, ""description"": ""\u20b9100 off on orders above \u20b9500"", ""payment_method"": null}, {""code"": ""FESTIVAL_45"", ""min_amount"": 1547, ""discount_amount"": 288, ""description"": ""\u20b9300 off on orders above \u20b91500"", ""payment_method"": null}]",13.487989081060377,70.19599195993659,2024-09-24 07:03:48,2024-10-29 03:17:25
782,Grand Biryani Hub,"Pizza, Mughlai",500,9149074949,14:00 - 22:00,11,True,Open,Krishna Zila,"Ground Floor, Krishna Zila, Chandigarh - 549898",3.8,"[{""code"": ""WELCOME_782"", ""min_amount"": 544, ""discount_amount"": 108, ""description"": ""\u20b9100 off on orders above \u20b9500"", ""payment_method"": null}, {""code"": ""CASHBACK_782"", ""min_amount"": 504, ""discount_amount"": 68, ""description"": ""\u20b975 off on Cash payments above \u20b9500"", ""payment_method"": ""Cash""}, {""code"": ""FESTIVAL_782"", ""min_amount"": 1466, ""discount_amount"": 296, ""description"": ""\u20b9300 off on orders above \u20b91500"", ""payment_method"": null}, {""code"": ""FIRSTORDER_782"", ""min_amount"": 285, ""discount_amount"": 79, ""description"": ""\u20b975 off on your first order above \u20b9300"", ""payment_method"": null}, {""code"": ""DEBITCARD_782"", ""min_amount"": 647, ""discount_amount"": 109, ""description"": ""\u20b9100 off on orders above \u20b9600 with Debit Card"", ""payment_method"": ""DebitCard""}]",20.300666661125568,82.60078862612107,2025-01-11 02:08:36,2025-03-30 16:25:59
1638,Eon,"Fast Food, Chinese",1587,9871922563,14:00 - 04:00,24,True,Open,Nagar Nagar,"Second Floor, Nagar Nagar, Meerut - 417419",3.6,"[{""code"": ""FESTIVAL_1638"", ""min_amount"": 1385, ""discount_amount"": 285, ""description"": ""\u20b9300 off on orders above \u20b91500"", ""payment_method"": null}, {""code"": ""FIRSTORDER_1638"", ""min_amount"": 321, ""discount_amount"": 74, ""description"": ""\u20b975 off on your first order above \u20b9300"", ""payment_method"": null}, {""code"": ""DEBITCARD_1638"", ""min_amount"": 606, ""discount_amount"": 104, ""description"": ""\u20b9100 off on orders above \u20b9600 with Debit Card"", ""payment_method"": ""DebitCard""}, {""code"": ""WELCOME_1638"", ""min_amount"": 494, ""discount_amount"": 108, ""description"": ""\u20b9100 off on orders above \u20b9500"", ""payment_method"": null}]",23.18397713830874,73.8686394073975,2024-12-30 06:45:14,2025-01-12 01:23:12
2469,South Thali Caf,Lebanese,1565,9744886158,12:00 - 21:00,36,True,Open,Ramesh Street,"Second Floor, Ramesh Street, Porbandar - 789514",3.9,"[{""code"": ""FESTIVAL_2469"", ""min_amount"": 1470, ""discount_amount"": 290, ""description"": ""\u20b9300 off on orders above \u20b91500"", ""payment_method"": null}, {""code"": ""WELCOME_2469"", ""min_amount"": 492, ""discount_amount"": 98, ""description"": ""\u20b9100 off on orders above \u20b9500"", ""payment_method"": null}, {""code"": ""FIRSTORDER_2469"", ""min_amount"": 314, ""discount_amount"": 72, ""description"": ""\u20b975 off on your first order above \u20b9300"", ""payment_method"": null}, {""code"": ""WEEKEND_2469"", ""min_amount"": 1052, ""discount_amount"": 183, ""description"": ""\u20b9200 off on orders above \u20b91000"", ""payment_method"": null}, {""code"": ""CASHBACK_2469"", ""min_amount"": 477, ""discount_amount"": 81, ""description"": ""\u20b975 off on Cash payments above \u20b9500"", ""payment_method"": ""Cash""}]",28.61758737810875,73.08320287556444,2023-03-31 13:21:27,2025-03-16 08:51:23
1106,The Monarch Table,"Beverages, Mediterranean",1758,9556771901,10:00 - 20:00,16,True,Open,Venkatesh Chowk,"Third Floor, Venkatesh Chowk, Surat - 335772",3.6,"[{""code"": ""CASHBACK_1106"", ""min_amount"": 465, ""discount_amount"": 76, ""description"": ""\u20b975 off on Cash payments above \u20b9500"", ""payment_method"": ""Cash""}, {""code"": ""UPISAVE_1106"", ""min_amount"": 434, ""discount_amount"": 78, ""description"": ""\u20b980 off on orders above \u20b9400 with UPI"", ""payment_method"": ""UPI""}, {""code"": ""FESTIVAL_1106"", ""min_amount"": 1420, ""discount_amount"": 306, ""description"": ""\u20b9300 off on orders above \u20b91500"", ""payment_method"": null}]",9.239422731100824,76.052726128394,2025-03-28 22:13:58,2025-04-10 20:45:16
2698,Shiv Bhojanam,"Chinese, Mughlai",1868,9866625835,11:00 - 20:00,39,True,Open,Virk Path," Virk Path, Vijayawada - 594714",3.9,"[{""code"": ""UPISAVE_2698"", ""min_amount"": 363, ""discount_amount"": 75, ""description"": ""\u20b980 off on orders above \u20b9400 with UPI"", ""payment_method"": ""UPI""}, {""code"": ""FESTIVAL_2698"", ""min_amount"": 1397, ""discount_amount"": 325, ""description"": ""\u20b9300 off on orders above \u20b91500"", ""payment_method"": null}, {""code"": ""WELCOME_2698"", ""min_amount"": 500, ""discount_amount"": 98, ""description"": ""\u20b9100 off on orders above \u20b9500"", ""payment_method"": null}, {""code"": ""DEBITCARD_2698"", ""min_amount"": 633, ""discount_amount"": 103, ""description"": ""\u20b9100 off on orders above \u20b9600 with Debit Card"", ""payment_method"": ""DebitCard""}, {""code"": ""CASHBACK_2698"", ""min_amount"": 544, ""discount_amount"": 70, ""description"": ""\u20b975 off on Cash payments above \u20b9500"", ""payment_method"": ""Cash""}]",15.411890586315971,91.6816734907183,2023-08-25 16:57:05,2023-08-28 06:39:20
2129,Bhaat Ghar,Italian,996,9247763756,13:00 - 02:00,31,True,Open,Mukherjee Marg,"Ground Floor, Mukherjee Marg, Surat - 508591",3.7,"[{""code"": ""DEBITCARD_2129"", ""min_amount"": 604, ""discount_amount"": 99, ""description"": ""\u20b9100 off on orders above \u20b9600 with Debit Card"", ""payment_method"": ""DebitCard""}, {""code"": ""CASHBACK_2129"", ""min_amount"": 481, ""discount_amount"": 76, ""description"": ""\u20b975 off on Cash payments above \u20b9500"", ""payment_method"": ""Cash""}, {""code"": ""UPISAVE_2129"", ""min_amount"": 434, ""discount_amount"": 79, ""description"": ""\u20b980 off on orders above \u20b9400 with UPI"", ""payment_method"": ""UPI""}]",9.115504350521638,69.66014007927764,2024-04-09 12:24:41,2024-08-27 01:40:26
2250,South Thali Caf,"Bakery, Mughlai",1685,9300753982,21:00 - 08:00,33,True,Open,Sabharwal Chowk,"Second Floor, Sabharwal Chowk, Anand - 280555",4.0,"[{""code"": ""UPISAVE_2250"", ""min_amount"": 439, ""discount_amount"": 75, ""description"": ""\u20b980 off on orders above \u20b9400 with UPI"", ""payment_method"": ""UPI""}, {""code"": ""CREDITCARD_2250"", ""min_amount"": 701, ""discount_amount"": 155, ""description"": ""\u20b9150 off on orders above \u20b9750 with Credit Card"", ""payment_method"": ""CreditCard""}, {""code"": ""FIRSTORDER_2250"", ""min_amount"": 299, ""discount_amount"": 82, ""description"": ""\u20b975 off on your first order above \u20b9300"", ""payment_method"": null}, {""code"": ""SPECIAL_2250"", ""min_amount"": 782, ""discount_amount"": 135, ""description"": ""\u20b9150 off on orders above \u20b9800"", ""payment_method"": null}]",25.805801102418,80.30071531790063,2025-02-24 04:54:14,2025-03-04 02:25:21
2427,Vadodara Bites Express,"Mexican, Fast Food",1675,9246271336,10:00 - 01:00,36,True,Open,Varkey Marg,"Third Floor, Varkey Marg, Porbandar - 789514",3.9,"[{""code"": ""SPECIAL_2427"", ""min_amount"": 843, ""discount_amount"": 144, ""description"": ""\u20b9150 off on orders above \u20b9800"", ""payment_method"": null}, {""code"": ""FIRSTORDER_2427"", ""min_amount"": 271, ""discount_amount"": 78, ""description"": ""\u20b975 off on your first order above \u20b9300"", ""payment_method"": null}, {""code"": ""CREDITCARD_2427"", ""min_amount"": 764, ""discount_amount"": 162, ""description"": ""\u20b9150 off on orders above \u20b9750 with Credit Card"", ""payment_method"": ""CreditCard""}, {""code"": ""DEBITCARD_2427"", ""min_amount"": 613, ""discount_amount"": 97, ""description"": ""\u20b9100 off on orders above \u20b9600 with Debit Card"", ""payment_method"": ""DebitCard""}]",16.40729669897268,69.1287042078358,2022-12-02 20:01:59,2022-12-13 09:41:20
94,Pind Da Swag,"Mughlai, Lebanese, Desserts",1154,9673002461,20:00 - 08:00,2,True,Open,Kata Circle,"Second Floor, Kata Circle, Mumbai - 887572",3.7,"[{""code"": ""UPISAVE_94"", ""min_amount"": 389, ""discount_amount"": 78, ""description"": ""\u20b980 off on orders above \u20b9400 with UPI"", ""payment_method"": ""UPI""}, {""code"": ""CREDITCARD_94"", ""min_amount"": 759, ""discount_amount"": 141, ""description"": ""\u20b9150 off on orders above \u20b9750 with Credit Card"", ""payment_method"": ""CreditCard""}, {""code"": ""SPECIAL_94"", ""min_amount"": 743, ""discount_amount"": 142, ""description"": ""\u20b9150 off on orders above \u20b9800"", ""payment_method"": null}]",23.37424296869419,82.89726671803308,2025-01-08 23:32:29,2025-04-05 06:16:31
2419,Desi Continental Fusion,Mexican,1167,9560712012,19:00 - 06:00,36,True,Open,Hari Ganj,"Third Floor, Hari Ganj, Porbandar - 789514",3.7,"[{""code"": ""CREDITCARD_2419"", ""min_amount"": 756, ""discount_amount"": 150, ""description"": ""\u20b9150 off on orders above \u20b9750 with Credit Card"", ""payment_method"": ""CreditCard""}, {""code"": ""FESTIVAL_2419"", ""min_amount"": 1581, ""discount_amount"": 303, ""description"": ""\u20b9300 off on orders above \u20b91500"", ""payment_method"": null}, {""code"": ""WELCOME_2419"", ""min_amount"": 510, ""discount_amount"": 93, ""description"": ""\u20b9100 off on orders above \u20b9500"", ""payment_method"": null}]",19.37439794312209,92.17354721286016,2022-05-17 23:21:15,2024-09-30 07:31:24
927,Risotto Delight,"South Indian, Thai, Desserts",1389,9641481172,20:00 - 07:00,13,True,Open,Mammen Road," Mammen Road, Guwahati - 116814",3.8,"[{""code"": ""WEEKEND_927"", ""min_amount"": 949, ""discount_amount"": 216, ""description"": ""\u20b9200 off on orders above \u20b91000"", ""payment_method"": null}, {""code"": ""FIRSTORDER_927"", ""min_amount"": 305, ""discount_amount"": 69, ""description"": ""\u20b975 off on your first order above \u20b9300"", ""payment_method"": null}, {""code"": ""DEBITCARD_927"", ""min_amount"": 637, ""discount_amount"": 90, ""description"": ""\u20b9100 off on orders above \u20b9600 with Debit Card"", ""payment_method"": ""DebitCard""}]",14.054318437334503,90.84808617317655,2025-04-01 02:26:38,2025-04-19 06:02:41
1005,Butter Naan Bhavan,"Pizza, South Indian",273,9860670305,21:00 - 10:00,14,True,Open,Kari,"Second Floor, Kari, Kochi - 277414",3.8,"[{""code"": ""UPISAVE_1005"", ""min_amount"": 424, ""discount_amount"": 87, ""description"": ""\u20b980 off on orders above \u20b9400 with UPI"", ""payment_method"": ""UPI""}, {""code"": ""WELCOME_1005"", ""min_amount"": 508, ""discount_amount"": 104, ""description"": ""\u20b9100 off on orders above \u20b9500"", ""payment_method"": null}, {""code"": ""CREDITCARD_1005"", ""min_amount"": 685, ""discount_amount"": 158, ""description"": ""\u20b9150 off on orders above \u20b9750 with Credit Card"", ""payment_method"": ""CreditCard""}, {""code"": ""FIRSTORDER_1005"", ""min_amount"": 295, ""discount_amount"": 72, ""description"": ""\u20b975 off on your first order above \u20b9300"", ""payment_method"": null}, {""code"": ""WEEKEND_1005"", ""min_amount"": 940, ""discount_amount"": 200, ""description"": ""\u20b9200 off on orders above \u20b91000"", ""payment_method"": null}]",33.8892961274388,89.09804307541596,2023-11-17 20:13:36,2025-01-16 21:24:25
319,Chinese Wok Hub,"Beverages, Bakery, Italian",1699,9164366244,20:00 - 12:00,5,True,Open,Dhar Zila,"Second Floor, Dhar Zila, Chennai - 681858",3.7,"[{""code"": ""UPISAVE_319"", ""min_amount"": 418, ""discount_amount"": 79, ""description"": ""\u20b980 off on orders above \u20b9400 with UPI"", ""payment_method"": ""UPI""}, {""code"": ""FIRSTORDER_319"", ""min_amount"": 328, ""discount_amount"": 79, ""description"": ""\u20b975 off on your first order above \u20b9300"", ""payment_method"": null}, {""code"": ""CASHBACK_319"", ""min_amount"": 548, ""discount_amount"": 75, ""description"": ""\u20b975 off on Cash payments above \u20b9500"", ""payment_method"": ""Cash""}]",12.015340141905842,90.29978637386095,2023-08-22 14:22:03,2024-07-26 00:56:53
434,Ahmedabadi Tandoor Express,"North Indian, Chinese",1162,9202134123,21:00 - 09:00,7,True,Open,Master Street,"Second Floor, Master Street, Pune - 208246",3.8,"[{""code"": ""CASHBACK_434"", ""min_amount"": 511, ""discount_amount"": 73, ""description"": ""\u20b975 off on Cash payments above \u20b9500"", ""payment_method"": ""Cash""}, {""code"": ""CREDITCARD_434"", ""min_amount"": 779, ""discount_amount"": 148, ""description"": ""\u20b9150 off on orders above \u20b9750 with Credit Card"", ""payment_method"": ""CreditCard""}, {""code"": ""FESTIVAL_434"", ""min_amount"": 1604, ""discount_amount"": 328, ""description"": ""\u20b9300 off on orders above \u20b91500"", ""payment_method"": null}]",17.661938124953316,78.5732885653513,2024-04-09 22:48:08,2025-02-28 04:23:42
2525,Pind Curry House,Fast Food,252,9875943048,20:00 - 08:00,37,True,Open,Vaidya,"Third Floor, Vaidya, Himatnagar - 775822",3.8,"[{""code"": ""DEBITCARD_2525"", ""min_amount"": 644, ""discount_amount"": 103, ""description"": ""\u20b9100 off on orders above \u20b9600 with Debit Card"", ""payment_method"": ""DebitCard""}, {""code"": ""FIRSTORDER_2525"", ""min_amount"": 318, ""discount_amount"": 76, ""description"": ""\u20b975 off on your first order above \u20b9300"", ""payment_method"": null}, {""code"": ""CASHBACK_2525"", ""min_amount"": 491, ""discount_amount"": 78, ""description"": ""\u20b975 off on Cash payments above \u20b9500"", ""payment_method"": ""Cash""}]",12.907042349903826,90.19006717063472,2024-08-11 00:37:46,2025-01-31 17:08:30
1124,Saurashtra Flavors,"Chinese, Cafe",632,9778435781,20:00 - 10:00,16,True,Open,Patel Street,"First Floor, Patel Street, Surat - 335772",3.9,"[{""code"": ""WEEKEND_1124"", ""min_amount"": 1066, ""discount_amount"": 197, ""description"": ""\u20b9200 off on orders above \u20b91000"", ""payment_method"": null}, {""code"": ""UPISAVE_1124"", ""min_amount"": 374, ""discount_amount"": 85, ""description"": ""\u20b980 off on orders above \u20b9400 with UPI"", ""payment_method"": ""UPI""}, {""code"": ""CASHBACK_1124"", ""min_amount"": 491, ""discount_amount"": 73, ""description"": ""\u20b975 off on Cash payments above \u20b9500"", ""payment_method"": ""Cash""}]",11.16561662405789,80.34653368415921,2024-11-29 01:00:45,2025-01-22 11:42:40
1746,Salt & Sand,"Bakery, Mexican",1182,9763540545,11:00 - 20:00,26,True,Open,Lall Street,"Third Floor, Lall Street, Varanasi - 489201",3.8,"[{""code"": ""WEEKEND_1746"", ""min_amount"": 910, ""discount_amount"": 180, ""description"": ""\u20b9200 off on orders above \u20b91000"", ""payment_method"": null}, {""code"": ""DEBITCARD_1746"", ""min_amount"": 659, ""discount_amount"": 101, ""description"": ""\u20b9100 off on orders above \u20b9600 with Debit Card"", ""payment_method"": ""DebitCard""}, {""code"": ""CREDITCARD_1746"", ""min_amount"": 741, ""discount_amount"": 146, ""description"": ""\u20b9150 off on orders above \u20b9750 with Credit Card"", ""payment_method"": ""CreditCard""}]",32.22012698376693,89.84422533783055,2025-01-01 06:10:25,2025-04-04 07:48:24
1570,Rosewood Kitchen,"North Indian, Cafe",838,9872976870,18:00 - 07:00,23,True,Open,Sen Circle," Sen Circle, Faridabad - 506922",3.6,"[{""code"": ""CASHBACK_1570"", ""min_amount"": 531, ""discount_amount"": 70, ""description"": ""\u20b975 off on Cash payments above \u20b9500"", ""payment_method"": ""Cash""}, {""code"": ""SPECIAL_1570"", ""min_amount"": 728, ""discount_amount"": 142, ""description"": ""\u20b9150 off on orders above \u20b9800"", ""payment_method"": null}, {""code"": ""WEEKEND_1570"", ""min_amount"": 1094, ""discount_amount"": 197, ""description"": ""\u20b9200 off on orders above \u20b91000"", ""payment_method"": null}, {""code"": ""WELCOME_1570"", ""min_amount"": 452, ""discount_amount"": 92, ""description"": ""\u20b9100 off on orders above \u20b9500"", ""payment_method"": null}, {""code"": ""DEBITCARD_1570"", ""min_amount"": 582, ""discount_amount"": 101, ""description"": ""\u20b9100 off on orders above \u20b9600 with Debit Card"", ""payment_method"": ""DebitCard""}]",14.777810362526257,76.48256707738892,2025-02-13 00:15:39,2025-02-25 12:04:22
2154,Dravidian Delight,"Burger, Ice Cream, North Indian",431,9316718138,13:00 - 03:00,31,True,Open,Dar,"Ground Floor, Dar, Surat - 508591",3.9,"[{""code"": ""UPISAVE_2154"", ""min_amount"": 433, ""discount_amount"": 86, ""description"": ""\u20b980 off on orders above \u20b9400 with UPI"", ""payment_method"": ""UPI""}, {""code"": ""CASHBACK_2154"", ""min_amount"": 461, ""discount_amount"": 68, ""description"": ""\u20b975 off on Cash payments above \u20b9500"", ""payment_method"": ""Cash""}, {""code"": ""WELCOME_2154"", ""min_amount"": 524, ""discount_amount"": 100, ""description"": ""\u20b9100 off on orders above \u20b9500"", ""payment_method"": null}, {""code"": ""DEBITCARD_2154"", ""min_amount"": 616, ""discount_amount"": 106, ""description"": ""\u20b9100 off on orders above \u20b9600 with Debit Card"", ""payment_method"": ""DebitCard""}]",31.5362659980022,70.92657350860989,2024-08-25 14:28:53,2024-10-17 07:17:34
2391,Kaizen Kitchen,Chinese,1015,9695577309,18:00 - 06:00,35,True,Open,Kumer,"Third Floor, Kumer, Gandhinagar - 845911",3.9,"[{""code"": ""WELCOME_2391"", ""min_amount"": 527, ""discount_amount"": 101, ""description"": ""\u20b9100 off on orders above \u20b9500"", ""payment_method"": null}, {""code"": ""FIRSTORDER_2391"", ""min_amount"": 288, ""discount_amount"": 81, ""description"": ""\u20b975 off on your first order above \u20b9300"", ""payment_method"": null}, {""code"": ""FESTIVAL_2391"", ""min_amount"": 1546, ""discount_amount"": 318, ""description"": ""\u20b9300 off on orders above \u20b91500"", ""payment_method"": null}]",33.126115603676055,88.38875494321668,2022-04-28 23:16:32,2023-12-27 06:45:27
2659,Tandoor Mahal,"Beverages, Desserts",1105,9308065276,11:00 - 01:00,39,True,Open,Murthy Street,"First Floor, Murthy Street, Vijayawada - 594714",3.8,"[{""code"": ""CASHBACK_2659"", ""min_amount"": 480, ""discount_amount"": 67, ""description"": ""\u20b975 off on Cash payments above \u20b9500"", ""payment_method"": ""Cash""}, {""code"": ""UPISAVE_2659"", ""min_amount"": 413, ""discount_amount"": 74, ""description"": ""\u20b980 off on orders above \u20b9400 with UPI"", ""payment_method"": ""UPI""}, {""code"": ""WEEKEND_2659"", ""min_amount"": 957, ""discount_amount"": 213, ""description"": ""\u20b9200 off on orders above \u20b91000"", ""payment_method"": null}]",28.543596037899924,80.0208365366089,2023-04-04 22:09:09,2025-01-27 13:14:49
479,Spoon Studio,"North Indian, Thai, Continental",1400,9503951395,19:00 - 06:00,8,False,Closed,Parmer Nagar,"Second Floor, Parmer Nagar, Ahmedabad - 639903",3.9,"[{""code"": ""UPISAVE_479"", ""min_amount"": 375, ""discount_amount"": 86, ""description"": ""\u20b980 off on orders above \u20b9400 with UPI"", ""payment_method"": ""UPI""}, {""code"": ""FIRSTORDER_479"", ""min_amount"": 327, ""discount_amount"": 80, ""description"": ""\u20b975 off on your first order above \u20b9300"", ""payment_method"": null}, {""code"": ""SPECIAL_479"", ""min_amount"": 839, ""discount_amount"": 135, ""description"": ""\u20b9150 off on orders above \u20b9800"", ""payment_method"": null}]",22.127369955344847,82.53267975811627,2022-12-28 17:09:19,2023-06-01 00:07:17
677,Bold & Butter,"Bakery, Mediterranean, Continental",332,9165188767,10:00 - 19:00,10,True,Open,Raj Road,"Third Floor, Raj Road, Lucknow - 791453",3.8,"[{""code"": ""CASHBACK_677"", ""min_amount"": 546, ""discount_amount"": 77, ""description"": ""\u20b975 off on Cash payments above \u20b9500"", ""payment_method"": ""Cash""}, {""code"": ""WELCOME_677"", ""min_amount"": 504, ""discount_amount"": 99, ""description"": ""\u20b9100 off on orders above \u20b9500"", ""payment_method"": null}, {""code"": ""WEEKEND_677"", ""min_amount"": 1076, ""discount_amount"": 189, ""description"": ""\u20b9200 off on orders above \u20b91000"", ""payment_method"": null}, {""code"": ""CREDITCARD_677"", ""min_amount"": 704, ""discount_amount"": 156, ""description"": ""\u20b9150 off on orders above \u20b9750 with Credit Card"", ""payment_method"": ""CreditCard""}, {""code"": ""DEBITCARD_677"", ""min_amount"": 562, ""discount_amount"": 102, ""description"": ""\u20b9100 off on orders above \u20b9600 with Debit Card"", ""payment_method"": ""DebitCard""}]",15.78220146580806,83.79083912668936,2023-04-19 02:52:37,2024-07-15 23:11:12
415,Celeste,"Cafe, Japanese",1762,9574642621,19:00 - 04:00,7,True,Open,Sura Chowk," Sura Chowk, Pune - 208246",3.8,"[{""code"": ""DEBITCARD_415"", ""min_amount"": 650, ""discount_amount"": 92, ""description"": ""\u20b9100 off on orders above \u20b9600 with Debit Card"", ""payment_method"": ""DebitCard""}, {""code"": ""CASHBACK_415"", ""min_amount"": 486, ""discount_amount"": 80, ""description"": ""\u20b975 off on Cash payments above \u20b9500"", ""payment_method"": ""Cash""}, {""code"": ""UPISAVE_415"", ""min_amount"": 436, ""discount_amount"": 77, ""description"": ""\u20b980 off on orders above \u20b9400 with UPI"", ""payment_method"": ""UPI""}, {""code"": ""FIRSTORDER_415"", ""min_amount"": 310, ""discount_amount"": 75, ""description"": ""\u20b975 off on your first order above \u20b9300"", ""payment_method"": null}]",22.65716266599376,79.07712875399397,2023-02-21 09:46:46,2023-08-21 05:49:37
409,Marina Bites,"Continental, Mediterranean",1162,9898389261,12:00 - 03:00,7,False,Closed,Pingle,"Third Floor, Pingle, Pune - 208246",3.8,"[{""code"": ""WELCOME_409"", ""min_amount"": 538, ""discount_amount"": 90, ""description"": ""\u20b9100 off on orders above \u20b9500"", ""payment_method"": null}, {""code"": ""FIRSTORDER_409"", ""min_amount"": 315, ""discount_amount"": 75, ""description"": ""\u20b975 off on your first order above \u20b9300"", ""payment_method"": null}, {""code"": ""CASHBACK_409"", ""min_amount"": 451, ""discount_amount"": 79, ""description"": ""\u20b975 off on Cash payments above \u20b9500"", ""payment_method"": ""Cash""}, {""code"": ""SPECIAL_409"", ""min_amount"": 828, ""discount_amount"": 161, ""description"": ""\u20b9150 off on orders above \u20b9800"", ""payment_method"": null}, {""code"": ""DEBITCARD_409"", ""min_amount"": 606, ""discount_amount"": 106, ""description"": ""\u20b9100 off on orders above \u20b9600 with Debit Card"", ""payment_method"": ""DebitCard""}]",29.49867668040276,81.37544732174933,2022-11-21 12:34:32,2023-10-17 19:16:39
1801,Undhiyu Bhavan Express,Mexican,216,9401926653,11:00 - 22:00,26,False,Closed,Mutti Zila,"First Floor, Mutti Zila, Varanasi - 489201",3.8,"[{""code"": ""SPECIAL_1801"", ""min_amount"": 842, ""discount_amount"": 144, ""description"": ""\u20b9150 off on orders above \u20b9800"", ""payment_method"": null}, {""code"": ""DEBITCARD_1801"", ""min_amount"": 613, ""discount_amount"": 104, ""description"": ""\u20b9100 off on orders above \u20b9600 with Debit Card"", ""payment_method"": ""DebitCard""}, {""code"": ""WELCOME_1801"", ""min_amount"": 465, ""discount_amount"": 90, ""description"": ""\u20b9100 off on orders above \u20b9500"", ""payment_method"": null}]",28.59185430355277,83.69313880857216,2024-01-02 12:30:04,2025-02-23 13:12:49
1873,Maharashtrian Feast Junction,"Mughlai, Continental",222,9364263880,13:00 - 02:00,27,True,Open,Dora Zila," Dora Zila, Srinagar - 848797",3.7,"[{""code"": ""CASHBACK_1873"", ""min_amount"": 484, ""discount_amount"": 75, ""description"": ""\u20b975 off on Cash payments above \u20b9500"", ""payment_method"": ""Cash""}, {""code"": ""WELCOME_1873"", ""min_amount"": 470, ""discount_amount"": 102, ""description"": ""\u20b9100 off on orders above \u20b9500"", ""payment_method"": null}, {""code"": ""DEBITCARD_1873"", ""min_amount"": 659, ""discount_amount"": 90, ""description"": ""\u20b9100 off on orders above \u20b9600 with Debit Card"", ""payment_method"": ""DebitCard""}]",11.840366805138434,90.47089640861086,2025-01-27 20:57:15,2025-03-17 20:04:35
2286,Maharashtrian Feast Junction,"Japanese, Bakery, Mexican",1901,9933306600,13:00 - 04:00,34,True,Open,Sidhu,"Second Floor, Sidhu, Nadiad - 329684",3.6,"[{""code"": ""DEBITCARD_2286"", ""min_amount"": 579, ""discount_amount"": 106, ""description"": ""\u20b9100 off on orders above \u20b9600 with Debit Card"", ""payment_method"": ""DebitCard""}, {""code"": ""CASHBACK_2286"", ""min_amount"": 477, ""discount_amount"": 82, ""description"": ""\u20b975 off on Cash payments above \u20b9500"", ""payment_method"": ""Cash""}, {""code"": ""UPISAVE_2286"", ""min_amount"": 383, ""discount_amount"": 76, ""description"": ""\u20b980 off on orders above \u20b9400 with UPI"", ""payment_method"": ""UPI""}, {""code"": ""FIRSTORDER_2286"", ""min_amount"": 295, ""discount_amount"": 82, ""description"": ""\u20b975 off on your first order above \u20b9300"", ""payment_method"": null}]",20.676960244422915,82.28562124970263,2024-10-17 01:13:36,2025-04-23 04:41:07
766,North Biryani Kitchen,"Cafe, South Indian, Bakery",1459,9116153797,15:00 - 05:00,11,True,Open,Deshpande,"Third Floor, Deshpande, Chandigarh - 549898",3.8,"[{""code"": ""DEBITCARD_766"", ""min_amount"": 586, ""discount_amount"": 99, ""description"": ""\u20b9100 off on orders above \u20b9600 with Debit Card"", ""payment_method"": ""DebitCard""}, {""code"": ""CASHBACK_766"", ""min_amount"": 451, ""discount_amount"": 71, ""description"": ""\u20b975 off on Cash payments above \u20b9500"", ""payment_method"": ""Cash""}, {""code"": ""SPECIAL_766"", ""min_amount"": 789, ""discount_amount"": 151, ""description"": ""\u20b9150 off on orders above \u20b9800"", ""payment_method"": null}]",24.40845505824105,77.09944126394085,2024-06-21 14:39:53,2024-11-11 07:29:12
2396,Deccan Spice Bhavan,"Japanese, Mediterranean",1586,9432419738,18:00 - 04:00,35,True,Open,Khosla Zila,"Third Floor, Khosla Zila, Gandhinagar - 845911",3.8,"[{""code"": ""FIRSTORDER_2396"", ""min_amount"": 306, ""discount_amount"": 69, ""description"": ""\u20b975 off on your first order above \u20b9300"", ""payment_method"": null}, {""code"": ""DEBITCARD_2396"", ""min_amount"": 643, ""discount_amount"": 99, ""description"": ""\u20b9100 off on orders above \u20b9600 with Debit Card"", ""payment_method"": ""DebitCard""}, {""code"": ""FESTIVAL_2396"", ""min_amount"": 1559, ""discount_amount"": 304, ""description"": ""\u20b9300 off on orders above \u20b91500"", ""payment_method"": null}, {""code"": ""UPISAVE_2396"", ""min_amount"": 371, ""discount_amount"": 84, ""description"": ""\u20b980 off on orders above \u20b9400 with UPI"", ""payment_method"": ""UPI""}]",26.63605827119774,71.78542716627,2022-07-24 09:30:04,2022-11-20 02:58:38
240,Gujarati Maharaj Express,Mexican,1873,9249160711,18:00 - 04:00,4,True,Open,Tella Street,"First Floor, Tella Street, Hyderabad - 217473",3.9,"[{""code"": ""UPISAVE_240"", ""min_amount"": 383, ""discount_amount"": 84, ""description"": ""\u20b980 off on orders above \u20b9400 with UPI"", ""payment_method"": ""UPI""}, {""code"": ""FESTIVAL_240"", ""min_amount"": 1553, ""discount_amount"": 325, ""description"": ""\u20b9300 off on orders above \u20b91500"", ""payment_method"": null}, {""code"": ""SPECIAL_240"", ""min_amount"": 869, ""discount_amount"": 156, ""description"": ""\u20b9150 off on orders above \u20b9800"", ""payment_method"": null}, {""code"": ""CREDITCARD_240"", ""min_amount"": 812, ""discount_amount"": 164, ""description"": ""\u20b9150 off on orders above \u20b9750 with Credit Card"", ""payment_method"": ""CreditCard""}, {""code"": ""WEEKEND_240"", ""min_amount"": 1016, ""discount_amount"": 204, ""description"": ""\u20b9200 off on orders above \u20b91000"", ""payment_method"": null}]",21.62685307199262,77.02241788755362,2022-12-05 02:44:10,2023-01-16 01:30:26
2583,Craft & Crumb,Desserts,1613,9610074192,13:00 - 21:00,38,True,Open,Mukhopadhyay Nagar,"First Floor, Mukhopadhyay Nagar, Kota - 874544",4.0,"[{""code"": ""WEEKEND_2583"", ""min_amount"": 919, ""discount_amount"": 201, ""description"": ""\u20b9200 off on orders above \u20b91000"", ""payment_method"": null}, {""code"": ""DEBITCARD_2583"", ""min_amount"": 541, ""discount_amount"": 94, ""description"": ""\u20b9100 off on orders above \u20b9600 with Debit Card"", ""payment_method"": ""DebitCard""}, {""code"": ""SPECIAL_2583"", ""min_amount"": 749, ""discount_amount"": 157, ""description"": ""\u20b9150 off on orders above \u20b9800"", ""payment_method"": null}]",12.632526306315397,77.05002576867417,2024-04-10 14:35:04,2024-10-10 11:52:29
533,Alabaster Table,Mughlai,1372,9686891329,20:00 - 12:00,8,False,Closed,Sandhu Street," Sandhu Street, Ahmedabad - 639903",3.8,"[{""code"": ""SPECIAL_533"", ""min_amount"": 777, ""discount_amount"": 158, ""description"": ""\u20b9150 off on orders above \u20b9800"", ""payment_method"": null}, {""code"": ""CREDITCARD_533"", ""min_amount"": 787, ""discount_amount"": 141, ""description"": ""\u20b9150 off on orders above \u20b9750 with Credit Card"", ""payment_method"": ""CreditCard""}, {""code"": ""DEBITCARD_533"", ""min_amount"": 578, ""discount_amount"": 94, ""description"": ""\u20b9100 off on orders above \u20b9600 with Debit Card"", ""payment_method"": ""DebitCard""}]",32.265451786737486,88.38722718524835,2023-02-13 17:34:37,2024-12-15 19:03:45
2196,Ocha & Sake,"Bakery, North Indian, Desserts",1257,9374503766,01:00 - 09:00,32,True,Open,Bansal Path,"First Floor, Bansal Path, Morbi - 776563",3.8,"[{""code"": ""CREDITCARD_2196"", ""min_amount"": 734, ""discount_amount"": 139, ""description"": ""\u20b9150 off on orders above \u20b9750 with Credit Card"", ""payment_method"": ""CreditCard""}, {""code"": ""WELCOME_2196"", ""min_amount"": 521, ""discount_amount"": 98, ""description"": ""\u20b9100 off on orders above \u20b9500"", ""payment_method"": null}, {""code"": ""FIRSTORDER_2196"", ""min_amount"": 307, ""discount_amount"": 70, ""description"": ""\u20b975 off on your first order above \u20b9300"", ""payment_method"": null}]",35.543179840530904,95.22765246525373,2024-06-15 07:39:34,2025-02-03 14:33:25
1030,Red Pepper Bistro,"Pizza, Ice Cream, Street Food",563,9767685374,15:00 - 04:00,15,True,Open,Bhattacharyya Ganj,"Third Floor, Bhattacharyya Ganj, Indore - 466778",3.7,"[{""code"": ""WEEKEND_1030"", ""min_amount"": 1012, ""discount_amount"": 182, ""description"": ""\u20b9200 off on orders above \u20b91000"", ""payment_method"": null}, {""code"": ""DEBITCARD_1030"", ""min_amount"": 598, ""discount_amount"": 107, ""description"": ""\u20b9100 off on orders above \u20b9600 with Debit Card"", ""payment_method"": ""DebitCard""}, {""code"": ""FESTIVAL_1030"", ""min_amount"": 1638, ""discount_amount"": 292, ""description"": ""\u20b9300 off on orders above \u20b91500"", ""payment_method"": null}, {""code"": ""CASHBACK_1030"", ""min_amount"": 474, ""discount_amount"": 77, ""description"": ""\u20b975 off on Cash payments above \u20b9500"", ""payment_method"": ""Cash""}, {""code"": ""CREDITCARD_1030"", ""min_amount"": 684, ""discount_amount"": 162, ""description"": ""\u20b9150 off on orders above \u20b9750 with Credit Card"", ""payment_method"": ""CreditCard""}]",32.77730444529946,71.32988778504036,2022-01-05 04:12:50,2024-11-25 00:49:18
1339,Udupi Sagar,"Street Food, Japanese, Lebanese",1455,9904067903,16:00 - 04:00,19,True,Open,Hegde Street,"First Floor, Hegde Street, Vadodara - 998662",4.0,"[{""code"": ""UPISAVE_1339"", ""min_amount"": 397, ""discount_amount"": 74, ""description"": ""\u20b980 off on orders above \u20b9400 with UPI"", ""payment_method"": ""UPI""}, {""code"": ""CREDITCARD_1339"", ""min_amount"": 676, ""discount_amount"": 135, ""description"": ""\u20b9150 off on orders above \u20b9750 with Credit Card"", ""payment_method"": ""CreditCard""}, {""code"": ""DEBITCARD_1339"", ""min_amount"": 589, ""discount_amount"": 108, ""description"": ""\u20b9100 off on orders above \u20b9600 with Debit Card"", ""payment_method"": ""DebitCard""}, {""code"": ""FESTIVAL_1339"", ""min_amount"": 1616, ""discount_amount"": 323, ""description"": ""\u20b9300 off on orders above \u20b91500"", ""payment_method"": null}, {""code"": ""SPECIAL_1339"", ""min_amount"": 834, ""discount_amount"": 137, ""description"": ""\u20b9150 off on orders above \u20b9800"", ""payment_method"": null}]",32.79096012762689,96.70673904330012,2025-03-21 18:50:18,2025-04-07 02:17:27
